<?xml version="1.0" ?><gpx xmlns="http://www.topografix.com/GPX/1/1" creator="GaiaGPS" version="1.1" xmlns:xsi="http://www.w3.org/2001/XMLSchema-instance" xsi:schemaLocation="http://www.topografix.com/GPX/1/1 http://www.topografix.com/GPX/1/1/gpx.xsd"><wpt lat="38.991197581679785" lon="-79.36605419616116"><time>2026-09-18T16:01:21Z</time><name>Campsite</name><desc>Got here and realized we had no water. Had to get water back at stone cold run the next morning</desc><sym>emoji-⛺</sym></wpt><rte><name>Route</name><desc></desc><extensions><line xmlns="http://www.topografix.com/GPX/gpx_style/0/2"><color>F42410</color></line></extensions><rtept lat="38.972908" lon="-79.397243"><ele>800.4</ele><time>2026-09-18T14:46:32Z</time></rtept><rtept lat="38.972911" lon="-79.397245"><ele>800.4</ele><time>2026-09-18T14:46:32Z</time></rtept><rtept lat="38.973009" lon="-79.397058"><ele>801.2</ele><time>2026-09-18T14:46:32Z</time></rtept><rtept lat="38.973272" lon="-79.396505"><ele>802.8</ele><time>2026-09-18T14:46:32Z</time></rtept><rtept lat="38.973513" lon="-79.396161"><ele>803.2</ele><time>2026-09-18T14:46:32Z</time></rtept><rtept lat="38.973606" lon="-79.396028"><ele>803.6</ele><time>2026-09-18T14:46:32Z</time></rtept><rtept lat="38.973783" lon="-79.395835"><ele>803.6</ele><time>2026-09-18T14:46:32Z</time></rtept><rtept lat="38.974279" lon="-79.395142"><ele>805.2</ele><time>2026-09-18T14:46:32Z</time></rtept><rtept lat="38.974635" lon="-79.394327"><ele>808.0</ele><time>2026-09-18T14:46:32Z</time></rtept><rtept lat="38.974823" lon="-79.394002"><ele>808.2</ele><time>2026-09-18T14:46:32Z</time></rtept><rtept lat="38.975197" lon="-79.393424"><ele>809.4</ele><time>2026-09-18T14:46:32Z</time></rtept><rtept lat="38.975609" lon="-79.392983"><ele>810.2</ele><time>2026-09-18T14:46:32Z</time></rtept><rtept lat="38.975948" lon="-79.392335"><ele>811.6</ele><time>2026-09-18T14:46:32Z</time></rtept><rtept lat="38.976242" lon="-79.391549"><ele>812.8</ele><time>2026-09-18T14:46:32Z</time></rtept><rtept lat="38.976329" lon="-79.391165"><ele>813.0</ele><time>2026-09-18T14:46:32Z</time></rtept><rtept lat="38.976333" lon="-79.390958"><ele>813.6</ele><time>2026-09-18T14:46:32Z</time></rtept><rtept lat="38.976425" lon="-79.390793"><ele>812.0</ele><time>2026-09-18T14:46:32Z</time></rtept><rtept lat="38.976484" lon="-79.390647"><ele>811.6</ele><time>2026-09-18T14:46:32Z</time></rtept><rtept lat="38.976521" lon="-79.39049"><ele>813.4</ele><time>2026-09-18T14:46:32Z</time></rtept><rtept lat="38.976495" lon="-79.390385"><ele>813.4</ele><time>2026-09-18T14:46:32Z</time></rtept><rtept lat="38.9765" lon="-79.390251"><ele>813.4</ele><time>2026-09-18T14:46:32Z</time></rtept><rtept lat="38.976538" lon="-79.390097"><ele>813.0</ele><time>2026-09-18T14:46:32Z</time></rtept><rtept lat="38.976615" lon="-79.389912"><ele>813.8</ele><time>2026-09-18T14:46:32Z</time></rtept><rtept lat="38.976662" lon="-79.38969"><ele>814.0</ele><time>2026-09-18T14:46:32Z</time></rtept><rtept lat="38.97673" lon="-79.389537"><ele>814.8</ele><time>2026-09-18T14:46:32Z</time></rtept><rtept lat="38.976804" lon="-79.389426"><ele>815.6</ele><time>2026-09-18T14:46:32Z</time></rtept><rtept lat="38.976845" lon="-79.389271"><ele>816.4</ele><time>2026-09-18T14:46:32Z</time></rtept><rtept lat="38.976877" lon="-79.389169"><ele>816.8</ele><time>2026-09-18T14:46:32Z</time></rtept><rtept lat="38.976978" lon="-79.389115"><ele>817.6</ele><time>2026-09-18T14:46:32Z</time></rtept><rtept lat="38.977014" lon="-79.38906"><ele>817.8</ele><time>2026-09-18T14:46:32Z</time></rtept><rtept lat="38.977043" lon="-79.388811"><ele>817.8</ele><time>2026-09-18T14:46:32Z</time></rtept><rtept lat="38.977074" lon="-79.388691"><ele>818.0</ele><time>2026-09-18T14:46:32Z</time></rtept><rtept lat="38.977175" lon="-79.388585"><ele>819.0</ele><time>2026-09-18T14:46:32Z</time></rtept><rtept lat="38.977199" lon="-79.388507"><ele>819.2</ele><time>2026-09-18T14:46:32Z</time></rtept><rtept lat="38.977184" lon="-79.38838"><ele>819.8</ele><time>2026-09-18T14:46:32Z</time></rtept><rtept lat="38.977282" lon="-79.38817"><ele>820.2</ele><time>2026-09-18T14:46:32Z</time></rtept><rtept lat="38.977267" lon="-79.387993"><ele>820.6</ele><time>2026-09-18T14:46:32Z</time></rtept><rtept lat="38.977262" lon="-79.387869"><ele>820.8</ele><time>2026-09-18T14:46:32Z</time></rtept><rtept lat="38.977212" lon="-79.387719"><ele>820.0</ele><time>2026-09-18T14:46:32Z</time></rtept><rtept lat="38.97726" lon="-79.387566"><ele>820.4</ele><time>2026-09-18T14:46:32Z</time></rtept><rtept lat="38.977329" lon="-79.387409"><ele>820.4</ele><time>2026-09-18T14:46:32Z</time></rtept><rtept lat="38.977544" lon="-79.386925"><ele>821.2</ele><time>2026-09-18T14:46:32Z</time></rtept><rtept lat="38.977666" lon="-79.386728"><ele>822.0</ele><time>2026-09-18T14:46:32Z</time></rtept><rtept lat="38.977705" lon="-79.386563"><ele>823.0</ele><time>2026-09-18T14:46:32Z</time></rtept><rtept lat="38.977667" lon="-79.386333"><ele>823.8</ele><time>2026-09-18T14:46:32Z</time></rtept><rtept lat="38.977635" lon="-79.385827"><ele>825.2</ele><time>2026-09-18T14:46:32Z</time></rtept><rtept lat="38.977551" lon="-79.385368"><ele>825.4</ele><time>2026-09-18T14:46:32Z</time></rtept><rtept lat="38.977586" lon="-79.384644"><ele>826.4</ele><time>2026-09-18T14:46:32Z</time></rtept><rtept lat="38.977613" lon="-79.384087"><ele>827.8</ele><time>2026-09-18T14:46:32Z</time></rtept><rtept lat="38.977652" lon="-79.383688"><ele>828.6</ele><time>2026-09-18T14:46:32Z</time></rtept><rtept lat="38.977763" lon="-79.383386"><ele>828.8</ele><time>2026-09-18T14:46:32Z</time></rtept><rtept lat="38.977862" lon="-79.382942"><ele>829.8</ele><time>2026-09-18T14:46:32Z</time></rtept><rtept lat="38.978078" lon="-79.382285"><ele>831.4</ele><time>2026-09-18T14:46:32Z</time></rtept><rtept lat="38.978126" lon="-79.382054"><ele>832.4</ele><time>2026-09-18T14:46:32Z</time></rtept><rtept lat="38.97835" lon="-79.381448"><ele>834.2</ele><time>2026-09-18T14:46:32Z</time></rtept><rtept lat="38.978453" lon="-79.380546"><ele>836.8</ele><time>2026-09-18T14:46:32Z</time></rtept><rtept lat="38.978528" lon="-79.380083"><ele>837.4</ele><time>2026-09-18T14:46:32Z</time></rtept><rtept lat="38.978689" lon="-79.379595"><ele>838.0</ele><time>2026-09-18T14:46:32Z</time></rtept><rtept lat="38.978752" lon="-79.379219"><ele>838.6</ele><time>2026-09-18T14:46:32Z</time></rtept><rtept lat="38.978843" lon="-79.378418"><ele>838.4</ele><time>2026-09-18T14:46:32Z</time></rtept><rtept lat="38.978995" lon="-79.377981"><ele>839.6</ele><time>2026-09-18T14:46:32Z</time></rtept><rtept lat="38.979235" lon="-79.377555"><ele>840.2</ele><time>2026-09-18T14:46:32Z</time></rtept><rtept lat="38.979376" lon="-79.3772"><ele>841.0</ele><time>2026-09-18T14:46:32Z</time></rtept><rtept lat="38.979437" lon="-79.376847"><ele>841.8</ele><time>2026-09-18T14:46:32Z</time></rtept><rtept lat="38.979646" lon="-79.376399"><ele>842.0</ele><time>2026-09-18T14:46:32Z</time></rtept><rtept lat="38.97972" lon="-79.376249"><ele>842.6</ele><time>2026-09-18T14:46:32Z</time></rtept><rtept lat="38.979744" lon="-79.376063"><ele>843.2</ele><time>2026-09-18T14:46:32Z</time></rtept><rtept lat="38.979668" lon="-79.375952"><ele>845.2</ele><time>2026-09-18T14:46:32Z</time></rtept><rtept lat="38.979648" lon="-79.37582"><ele>845.4</ele><time>2026-09-18T14:46:32Z</time></rtept><rtept lat="38.979504" lon="-79.375586"><ele>850.8</ele><time>2026-09-18T14:46:32Z</time></rtept><rtept lat="38.979426" lon="-79.375316"><ele>857.2</ele><time>2026-09-18T14:46:32Z</time></rtept><rtept lat="38.979392" lon="-79.374995"><ele>859.4</ele><time>2026-09-18T14:46:32Z</time></rtept><rtept lat="38.979419" lon="-79.374806"><ele>861.2</ele><time>2026-09-18T14:46:32Z</time></rtept><rtept lat="38.979448" lon="-79.374533"><ele>861.8</ele><time>2026-09-18T14:46:32Z</time></rtept><rtept lat="38.979521" lon="-79.374213"><ele>863.8</ele><time>2026-09-18T14:46:32Z</time></rtept><rtept lat="38.979559" lon="-79.37408"><ele>865.0</ele><time>2026-09-18T14:46:32Z</time></rtept><rtept lat="38.979559" lon="-79.37408"><ele>865.0</ele><time>2026-09-18T14:46:32Z</time></rtept><rtept lat="38.979577" lon="-79.374017"><ele>863.4</ele><time>2026-09-18T14:46:32Z</time></rtept><rtept lat="38.979573" lon="-79.373883"><ele>866.0</ele><time>2026-09-18T14:46:32Z</time></rtept><rtept lat="38.979628" lon="-79.373803"><ele>867.4</ele><time>2026-09-18T14:46:32Z</time></rtept><rtept lat="38.979649" lon="-79.373468"><ele>870.6</ele><time>2026-09-18T14:46:32Z</time></rtept><rtept lat="38.979704" lon="-79.373287"><ele>870.6</ele><time>2026-09-18T14:46:32Z</time></rtept><rtept lat="38.979838" lon="-79.373106"><ele>864.0</ele><time>2026-09-18T14:46:32Z</time></rtept><rtept lat="38.979849" lon="-79.372826"><ele>869.6</ele><time>2026-09-18T14:46:32Z</time></rtept><rtept lat="38.979956" lon="-79.372851"><ele>864.6</ele><time>2026-09-18T14:46:32Z</time></rtept><rtept lat="38.98008" lon="-79.372748"><ele>857.0</ele><time>2026-09-18T14:46:32Z</time></rtept><rtept lat="38.980173" lon="-79.372692"><ele>852.8</ele><time>2026-09-18T14:46:32Z</time></rtept><rtept lat="38.980245" lon="-79.372621"><ele>851.6</ele><time>2026-09-18T14:46:32Z</time></rtept><rtept lat="38.980332" lon="-79.372501"><ele>852.2</ele><time>2026-09-18T14:46:32Z</time></rtept><rtept lat="38.980481" lon="-79.372542"><ele>852.4</ele><time>2026-09-18T14:46:32Z</time></rtept><rtept lat="38.980661" lon="-79.372452"><ele>852.4</ele><time>2026-09-18T14:46:32Z</time></rtept><rtept lat="38.980719" lon="-79.372438"><ele>852.6</ele><time>2026-09-18T14:46:32Z</time></rtept><rtept lat="38.980847" lon="-79.37248"><ele>851.4</ele><time>2026-09-18T14:46:32Z</time></rtept><rtept lat="38.980905" lon="-79.372508"><ele>851.0</ele><time>2026-09-18T14:46:32Z</time></rtept><rtept lat="38.98097" lon="-79.372578"><ele>851.2</ele><time>2026-09-18T14:46:32Z</time></rtept><rtept lat="38.981028" lon="-79.372649"><ele>851.2</ele><time>2026-09-18T14:46:32Z</time></rtept><rtept lat="38.981105" lon="-79.372662"><ele>852.8</ele><time>2026-09-18T14:46:32Z</time></rtept><rtept lat="38.981165" lon="-79.372617"><ele>854.0</ele><time>2026-09-18T14:46:32Z</time></rtept><rtept lat="38.981216" lon="-79.372541"><ele>856.0</ele><time>2026-09-18T14:46:32Z</time></rtept><rtept lat="38.98131" lon="-79.372554"><ele>857.6</ele><time>2026-09-18T14:46:32Z</time></rtept><rtept lat="38.981427" lon="-79.372486"><ele>858.2</ele><time>2026-09-18T14:46:32Z</time></rtept><rtept lat="38.981569" lon="-79.372407"><ele>860.0</ele><time>2026-09-18T14:46:32Z</time></rtept><rtept lat="38.982172" lon="-79.372304"><ele>863.8</ele><time>2026-09-18T14:46:32Z</time></rtept><rtept lat="38.982364" lon="-79.372187"><ele>865.2</ele><time>2026-09-18T14:46:32Z</time></rtept><rtept lat="38.982613" lon="-79.37193"><ele>867.8</ele><time>2026-09-18T14:46:32Z</time></rtept><rtept lat="38.982853" lon="-79.372037"><ele>869.6</ele><time>2026-09-18T14:46:32Z</time></rtept><rtept lat="38.983084" lon="-79.372065"><ele>872.4</ele><time>2026-09-18T14:46:32Z</time></rtept><rtept lat="38.983273" lon="-79.371976"><ele>876.8</ele><time>2026-09-18T14:46:32Z</time></rtept><rtept lat="38.983829" lon="-79.371912"><ele>886.6</ele><time>2026-09-18T14:46:32Z</time></rtept><rtept lat="38.983989" lon="-79.371927"><ele>887.2</ele><time>2026-09-18T14:46:32Z</time></rtept><rtept lat="38.984071" lon="-79.371912"><ele>887.6</ele><time>2026-09-18T14:46:32Z</time></rtept><rtept lat="38.984294" lon="-79.371808"><ele>895.0</ele><time>2026-09-18T14:46:32Z</time></rtept><rtept lat="38.98439" lon="-79.371799"><ele>896.8</ele><time>2026-09-18T14:46:32Z</time></rtept><rtept lat="38.984917" lon="-79.371802"><ele>903.0</ele><time>2026-09-18T14:46:32Z</time></rtept><rtept lat="38.985457" lon="-79.371979"><ele>903.4</ele><time>2026-09-18T14:46:32Z</time></rtept><rtept lat="38.98557" lon="-79.371995"><ele>905.4</ele><time>2026-09-18T14:46:32Z</time></rtept><rtept lat="38.986802" lon="-79.372174"><ele>921.8</ele><time>2026-09-18T14:46:32Z</time></rtept><rtept lat="38.987017" lon="-79.372177"><ele>923.8</ele><time>2026-09-18T14:46:32Z</time></rtept><rtept lat="38.987126" lon="-79.372098"><ele>928.6</ele><time>2026-09-18T14:46:32Z</time></rtept><rtept lat="38.987397" lon="-79.372199"><ele>925.6</ele><time>2026-09-18T14:46:32Z</time></rtept><rtept lat="38.987683" lon="-79.372227"><ele>930.0</ele><time>2026-09-18T14:46:32Z</time></rtept><rtept lat="38.98838" lon="-79.372015"><ele>939.4</ele><time>2026-09-18T14:46:32Z</time></rtept><rtept lat="38.989058" lon="-79.371936"><ele>945.4</ele><time>2026-09-18T14:46:32Z</time></rtept><rtept lat="38.989631" lon="-79.371784"><ele>954.8</ele><time>2026-09-18T14:46:32Z</time></rtept><rtept lat="38.990191" lon="-79.371602"><ele>961.4</ele><time>2026-09-18T14:46:32Z</time></rtept><rtept lat="38.9906" lon="-79.37136"><ele>967.4</ele><time>2026-09-18T14:46:32Z</time></rtept><rtept lat="38.991277" lon="-79.371328"><ele>972.8</ele><time>2026-09-18T14:46:32Z</time></rtept><rtept lat="38.991417" lon="-79.371265"><ele>973.6</ele><time>2026-09-18T14:46:32Z</time></rtept><rtept lat="38.991417" lon="-79.371265"><ele>973.6</ele><time>2026-09-18T14:46:32Z</time></rtept><rtept lat="38.992499" lon="-79.370777"><ele>988.0</ele><time>2026-09-18T14:46:32Z</time></rtept><rtept lat="38.993352" lon="-79.370767"><ele>998.0</ele><time>2026-09-18T14:46:32Z</time></rtept><rtept lat="38.993645" lon="-79.370834"><ele>999.0</ele><time>2026-09-18T14:46:32Z</time></rtept><rtept lat="38.99425" lon="-79.370808"><ele>1011.8</ele><time>2026-09-18T14:46:32Z</time></rtept><rtept lat="38.994492" lon="-79.370864"><ele>1012.6</ele><time>2026-09-18T14:46:32Z</time></rtept><rtept lat="38.994732" lon="-79.370963"><ele>1014.8</ele><time>2026-09-18T14:46:32Z</time></rtept><rtept lat="38.995005" lon="-79.371017"><ele>1017.0</ele><time>2026-09-18T14:46:32Z</time></rtept><rtept lat="38.995486" lon="-79.370999"><ele>1026.4</ele><time>2026-09-18T14:46:32Z</time></rtept><rtept lat="38.995857" lon="-79.371004"><ele>1035.4</ele><time>2026-09-18T14:46:32Z</time></rtept><rtept lat="38.996192" lon="-79.371172"><ele>1038.4</ele><time>2026-09-18T14:46:32Z</time></rtept><rtept lat="38.996334" lon="-79.371225"><ele>1042.2</ele><time>2026-09-18T14:46:32Z</time></rtept><rtept lat="38.996426" lon="-79.371216"><ele>1044.2</ele><time>2026-09-18T14:46:32Z</time></rtept><rtept lat="38.996517" lon="-79.371211"><ele>1048.4</ele><time>2026-09-18T14:46:32Z</time></rtept><rtept lat="38.996681" lon="-79.37128"><ele>1049.6</ele><time>2026-09-18T14:46:32Z</time></rtept><rtept lat="38.996681" lon="-79.37128"><ele>1049.6</ele><time>2026-09-18T14:46:32Z</time></rtept><rtept lat="38.997123" lon="-79.371465"><ele>1062.8</ele><time>2026-09-18T14:46:32Z</time></rtept><rtept lat="38.997161" lon="-79.371463"><ele>1062.8</ele><time>2026-09-18T14:46:32Z</time></rtept><rtept lat="38.997185" lon="-79.37143"><ele>1065.4</ele><time>2026-09-18T14:46:32Z</time></rtept><rtept lat="38.9972" lon="-79.371367"><ele>1068.4</ele><time>2026-09-18T14:46:32Z</time></rtept><rtept lat="38.997194" lon="-79.371307"><ele>1071.6</ele><time>2026-09-18T14:46:32Z</time></rtept><rtept lat="38.997218" lon="-79.371274"><ele>1071.6</ele><time>2026-09-18T14:46:32Z</time></rtept><rtept lat="38.997272" lon="-79.3713"><ele>1073.4</ele><time>2026-09-18T14:46:32Z</time></rtept><rtept lat="38.997338" lon="-79.371358"><ele>1072.4</ele><time>2026-09-18T14:46:32Z</time></rtept><rtept lat="38.997449" lon="-79.371382"><ele>1077.0</ele><time>2026-09-18T14:46:32Z</time></rtept><rtept lat="38.997612" lon="-79.371461"><ele>1079.4</ele><time>2026-09-18T14:46:32Z</time></rtept><rtept lat="38.997854" lon="-79.37161"><ele>1085.2</ele><time>2026-09-18T14:46:32Z</time></rtept><rtept lat="38.997878" lon="-79.371614"><ele>1085.2</ele><time>2026-09-18T14:46:32Z</time></rtept><rtept lat="38.997585" lon="-79.371208"><ele>1087.2</ele><time>2026-09-18T14:46:32Z</time></rtept><rtept lat="38.997219" lon="-79.37079"><ele>1089.0</ele><time>2026-09-18T14:46:32Z</time></rtept><rtept lat="38.99703" lon="-79.370478"><ele>1088.2</ele><time>2026-09-18T14:46:32Z</time></rtept><rtept lat="38.996928" lon="-79.370256"><ele>1090.0</ele><time>2026-09-18T14:46:32Z</time></rtept><rtept lat="38.996755" lon="-79.369966"><ele>1088.4</ele><time>2026-09-18T14:46:32Z</time></rtept><rtept lat="38.996478" lon="-79.369636"><ele>1089.6</ele><time>2026-09-18T14:46:32Z</time></rtept><rtept lat="38.996176" lon="-79.369438"><ele>1092.4</ele><time>2026-09-18T14:46:32Z</time></rtept><rtept lat="38.996021" lon="-79.369353"><ele>1090.0</ele><time>2026-09-18T14:46:32Z</time></rtept><rtept lat="38.995879" lon="-79.369329"><ele>1089.0</ele><time>2026-09-18T14:46:32Z</time></rtept><rtept lat="38.995781" lon="-79.369221"><ele>1090.6</ele><time>2026-09-18T14:46:32Z</time></rtept><rtept lat="38.995546" lon="-79.369172"><ele>1090.8</ele><time>2026-09-18T14:46:32Z</time></rtept><rtept lat="38.995419" lon="-79.369108"><ele>1089.4</ele><time>2026-09-18T14:46:32Z</time></rtept><rtept lat="38.994728" lon="-79.368697"><ele>1089.4</ele><time>2026-09-18T14:46:32Z</time></rtept><rtept lat="38.994414" lon="-79.368544"><ele>1090.8</ele><time>2026-09-18T14:46:32Z</time></rtept><rtept lat="38.993958" lon="-79.368482"><ele>1090.4</ele><time>2026-09-18T14:46:32Z</time></rtept><rtept lat="38.993958" lon="-79.368482"><ele>1090.4</ele><time>2026-09-18T14:46:32Z</time></rtept><rtept lat="38.993343" lon="-79.368399"><ele>1090.4</ele><time>2026-09-18T14:46:32Z</time></rtept><rtept lat="38.992614" lon="-79.36827"><ele>1089.2</ele><time>2026-09-18T14:46:32Z</time></rtept><rtept lat="38.992051" lon="-79.368167"><ele>1088.4</ele><time>2026-09-18T14:46:32Z</time></rtept><rtept lat="38.991383" lon="-79.367954"><ele>1092.0</ele><time>2026-09-18T14:46:32Z</time></rtept><rtept lat="38.990858" lon="-79.36789"><ele>1091.8</ele><time>2026-09-18T14:46:32Z</time></rtept><rtept lat="38.990394" lon="-79.368083"><ele>1088.8</ele><time>2026-09-18T14:46:32Z</time></rtept><rtept lat="38.990173" lon="-79.368196"><ele>1088.6</ele><time>2026-09-18T14:46:32Z</time></rtept><rtept lat="38.989782" lon="-79.368302"><ele>1087.6</ele><time>2026-09-18T14:46:32Z</time></rtept><rtept lat="38.989391" lon="-79.368346"><ele>1084.2</ele><time>2026-09-18T14:46:32Z</time></rtept><rtept lat="38.98926" lon="-79.368378"><ele>1084.4</ele><time>2026-09-18T14:46:32Z</time></rtept><rtept lat="38.98926" lon="-79.368378"><ele>1084.4</ele><time>2026-09-18T14:46:32Z</time></rtept><rtept lat="38.988782" lon="-79.368495"><ele>1083.6</ele><time>2026-09-18T14:46:32Z</time></rtept><rtept lat="38.988165" lon="-79.36851"><ele>1078.6</ele><time>2026-09-18T14:46:32Z</time></rtept><rtept lat="38.987878" lon="-79.368468"><ele>1078.6</ele><time>2026-09-18T14:46:32Z</time></rtept><rtept lat="38.987683" lon="-79.36836"><ele>1078.0</ele><time>2026-09-18T14:46:32Z</time></rtept><rtept lat="38.987532" lon="-79.368202"><ele>1078.6</ele><time>2026-09-18T14:46:32Z</time></rtept><rtept lat="38.987425" lon="-79.368007"><ele>1077.4</ele><time>2026-09-18T14:46:32Z</time></rtept><rtept lat="38.987371" lon="-79.36774"><ele>1079.2</ele><time>2026-09-18T14:46:32Z</time></rtept><rtept lat="38.987376" lon="-79.367538"><ele>1078.0</ele><time>2026-09-18T14:46:32Z</time></rtept><rtept lat="38.987376" lon="-79.367538"><ele>1078.0</ele><time>2026-09-18T14:46:32Z</time></rtept><rtept lat="38.987371" lon="-79.36774"><ele>1079.2000000000007</ele><time>2026-09-18T14:46:32Z</time></rtept><rtept lat="38.987425" lon="-79.368007"><ele>1077.4000000000015</ele><time>2026-09-18T14:46:32Z</time></rtept><rtept lat="38.987532" lon="-79.368202"><ele>1078.6000000000004</ele><time>2026-09-18T14:46:32Z</time></rtept><rtept lat="38.987683" lon="-79.36836"><ele>1078.0</ele><time>2026-09-18T14:46:32Z</time></rtept><rtept lat="38.987878" lon="-79.368468"><ele>1078.6000000000004</ele><time>2026-09-18T14:46:32Z</time></rtept><rtept lat="38.988165" lon="-79.36851"><ele>1078.6000000000004</ele><time>2026-09-18T14:46:32Z</time></rtept><rtept lat="38.988782" lon="-79.368495"><ele>1083.6000000000004</ele><time>2026-09-18T14:46:32Z</time></rtept><rtept lat="38.989391" lon="-79.368346"><ele>1084.2000000000007</ele><time>2026-09-18T14:46:32Z</time></rtept><rtept lat="38.989782" lon="-79.368302"><ele>1087.6000000000004</ele><time>2026-09-18T14:46:32Z</time></rtept><rtept lat="38.990173" lon="-79.368196"><ele>1088.6000000000004</ele><time>2026-09-18T14:46:32Z</time></rtept><rtept lat="38.990394" lon="-79.368083"><ele>1088.800000000001</ele><time>2026-09-18T14:46:32Z</time></rtept><rtept lat="38.990323" lon="-79.367881"><ele>1093.800000000001</ele><time>2026-09-18T14:46:32Z</time></rtept><rtept lat="38.990296" lon="-79.367674"><ele>1097.6000000000004</ele><time>2026-09-18T14:46:32Z</time></rtept><rtept lat="38.990301" lon="-79.367557"><ele>1099.0</ele><time>2026-09-18T14:46:32Z</time></rtept><rtept lat="38.990366" lon="-79.367457"><ele>1101.6000000000004</ele><time>2026-09-18T14:46:32Z</time></rtept><rtept lat="38.990331" lon="-79.367367"><ele>1103.0</ele><time>2026-09-18T14:46:32Z</time></rtept><rtept lat="38.990266" lon="-79.367234"><ele>1104.6000000000004</ele><time>2026-09-18T14:46:32Z</time></rtept><rtept lat="38.990187" lon="-79.367067"><ele>1111.2000000000007</ele><time>2026-09-18T14:46:32Z</time></rtept><rtept lat="38.990134" lon="-79.366964"><ele>1116.4000000000015</ele><time>2026-09-18T14:46:32Z</time></rtept><rtept lat="38.990119" lon="-79.366951"><ele>1116.4000000000015</ele><time>2026-09-18T14:46:32Z</time></rtept><rtept lat="38.990119" lon="-79.366951"><ele>1116.4000000000015</ele><time>2026-09-18T14:46:32Z</time></rtept><rtept lat="38.990025" lon="-79.366866"><ele>1118.800000000001</ele><time>2026-09-18T14:46:32Z</time></rtept><rtept lat="38.989942" lon="-79.366816"><ele>1119.2000000000007</ele><time>2026-09-18T14:46:32Z</time></rtept><rtept lat="38.989895" lon="-79.366769"><ele>1119.6000000000004</ele><time>2026-09-18T14:46:32Z</time></rtept><rtept lat="38.989852" lon="-79.366794"><ele>1119.2000000000007</ele><time>2026-09-18T14:46:32Z</time></rtept><rtept lat="38.989811" lon="-79.366836"><ele>1119.2000000000007</ele><time>2026-09-18T14:46:32Z</time></rtept><rtept lat="38.989773" lon="-79.366822"><ele>1119.2000000000007</ele><time>2026-09-18T14:46:32Z</time></rtept><rtept lat="38.989674" lon="-79.366784"><ele>1118.800000000001</ele><time>2026-09-18T14:46:32Z</time></rtept><rtept lat="38.98949" lon="-79.366871"><ele>1119.2000000000007</ele><time>2026-09-18T14:46:32Z</time></rtept><rtept lat="38.989424" lon="-79.3669"><ele>1120.2000000000007</ele><time>2026-09-18T14:46:32Z</time></rtept><rtept lat="38.989288" lon="-79.366895"><ele>1121.0</ele><time>2026-09-18T14:46:32Z</time></rtept><rtept lat="38.989117" lon="-79.366916"><ele>1122.0</ele><time>2026-09-18T14:46:32Z</time></rtept><rtept lat="38.988987" lon="-79.366864"><ele>1122.6000000000004</ele><time>2026-09-18T14:46:32Z</time></rtept><rtept lat="38.988914" lon="-79.366831"><ele>1123.2000000000007</ele><time>2026-09-18T14:46:32Z</time></rtept><rtept lat="38.988905" lon="-79.366813"><ele>1123.2000000000007</ele><time>2026-09-18T14:46:32Z</time></rtept><rtept lat="38.988905" lon="-79.366813"><ele>1123.2000000000007</ele><time>2026-09-18T14:46:32Z</time></rtept><rtept lat="38.988914" lon="-79.366831"><ele>1123.2000000000007</ele><time>2026-09-18T14:46:32Z</time></rtept><rtept lat="38.988987" lon="-79.366864"><ele>1122.6000000000004</ele><time>2026-09-18T14:46:32Z</time></rtept><rtept lat="38.989117" lon="-79.366916"><ele>1122.0</ele><time>2026-09-18T14:46:32Z</time></rtept><rtept lat="38.989288" lon="-79.366895"><ele>1121.0</ele><time>2026-09-18T14:46:32Z</time></rtept><rtept lat="38.989203" lon="-79.366788"><ele>1121.6000000000004</ele><time>2026-09-18T14:46:32Z</time></rtept><rtept lat="38.989203" lon="-79.366788"><ele>1121.6000000000004</ele><time>2026-09-18T14:46:32Z</time></rtept><rtept lat="38.989198" lon="-79.366782"><ele>1121.6000000000004</ele><time>2026-09-18T14:46:32Z</time></rtept><rtept lat="38.989182" lon="-79.366695"><ele>1121.6000000000004</ele><time>2026-09-18T14:46:32Z</time></rtept><rtept lat="38.98915" lon="-79.366565"><ele>1121.2000000000007</ele><time>2026-09-18T14:46:32Z</time></rtept><rtept lat="38.989258" lon="-79.366484"><ele>1119.800000000001</ele><time>2026-09-18T14:46:32Z</time></rtept><rtept lat="38.989334" lon="-79.366456"><ele>1120.0</ele><time>2026-09-18T14:46:32Z</time></rtept><rtept lat="38.98948" lon="-79.366345"><ele>1119.6000000000004</ele><time>2026-09-18T14:46:32Z</time></rtept><rtept lat="38.98948" lon="-79.366345"><ele>1119.6000000000004</ele><time>2026-09-18T14:46:32Z</time></rtept><rtept lat="38.989579" lon="-79.36631"><ele>1119.800000000001</ele><time>2026-09-18T14:46:32Z</time></rtept><rtept lat="38.989589" lon="-79.366257"><ele>1119.6000000000004</ele><time>2026-09-18T14:46:32Z</time></rtept><rtept lat="38.989587" lon="-79.366191"><ele>1119.6000000000004</ele><time>2026-09-18T14:46:32Z</time></rtept><rtept lat="38.989568" lon="-79.36613"><ele>1119.2000000000007</ele><time>2026-09-18T14:46:32Z</time></rtept><rtept lat="38.989749" lon="-79.365912"><ele>1120.4000000000015</ele><time>2026-09-18T14:46:32Z</time></rtept><rtept lat="38.989811" lon="-79.365888"><ele>1120.800000000001</ele><time>2026-09-18T14:46:32Z</time></rtept><rtept lat="38.989864" lon="-79.365867"><ele>1121.2000000000007</ele><time>2026-09-18T14:46:32Z</time></rtept><rtept lat="38.989981" lon="-79.365885"><ele>1121.800000000001</ele><time>2026-09-18T14:46:32Z</time></rtept><rtept lat="38.990059" lon="-79.365774"><ele>1121.800000000001</ele><time>2026-09-18T14:46:32Z</time></rtept><rtept lat="38.990115" lon="-79.365723"><ele>1122.0</ele><time>2026-09-18T14:46:32Z</time></rtept><rtept lat="38.990178" lon="-79.365725"><ele>1122.6000000000004</ele><time>2026-09-18T14:46:32Z</time></rtept><rtept lat="38.990224" lon="-79.365736"><ele>1122.6000000000004</ele><time>2026-09-18T14:46:32Z</time></rtept><rtept lat="38.990254" lon="-79.365781"><ele>1125.0</ele><time>2026-09-18T14:46:32Z</time></rtept><rtept lat="38.990328" lon="-79.365834"><ele>1127.800000000001</ele><time>2026-09-18T14:46:32Z</time></rtept><rtept lat="38.990417" lon="-79.365853"><ele>1128.2000000000007</ele><time>2026-09-18T14:46:32Z</time></rtept><rtept lat="38.99047" lon="-79.365819"><ele>1129.4000000000015</ele><time>2026-09-18T14:46:32Z</time></rtept><rtept lat="38.990597" lon="-79.365725"><ele>1130.2000000000007</ele><time>2026-09-18T14:46:32Z</time></rtept><rtept lat="38.990797" lon="-79.365893"><ele>1130.6000000000004</ele><time>2026-09-18T14:46:32Z</time></rtept><rtept lat="38.99114" lon="-79.366159"><ele>1131.0</ele><time>2026-09-18T14:46:32Z</time></rtept><rtept lat="38.991532" lon="-79.366397"><ele>1130.4000000000015</ele><time>2026-09-18T14:46:32Z</time></rtept><rtept lat="38.991705" lon="-79.3665"><ele>1130.0</ele><time>2026-09-18T14:46:32Z</time></rtept><rtept lat="38.991844" lon="-79.366565"><ele>1129.2000000000007</ele><time>2026-09-18T14:46:32Z</time></rtept><rtept lat="38.991989" lon="-79.366586"><ele>1129.2000000000007</ele><time>2026-09-18T14:46:32Z</time></rtept><rtept lat="38.992084" lon="-79.366623"><ele>1128.4000000000015</ele><time>2026-09-18T14:46:32Z</time></rtept><rtept lat="38.992223" lon="-79.36674"><ele>1127.6000000000004</ele><time>2026-09-18T14:46:32Z</time></rtept><rtept lat="38.992267" lon="-79.366864"><ele>1126.6000000000004</ele><time>2026-09-18T14:46:32Z</time></rtept><rtept lat="38.99233" lon="-79.366939"><ele>1125.4000000000015</ele><time>2026-09-18T14:46:32Z</time></rtept><rtept lat="38.99233" lon="-79.366939"><ele>1125.4000000000015</ele><time>2026-09-18T14:46:32Z</time></rtept><rtept lat="38.992434" lon="-79.367063"><ele>1122.4000000000015</ele><time>2026-09-18T14:46:32Z</time></rtept><rtept lat="38.992468" lon="-79.367213"><ele>1119.2000000000007</ele><time>2026-09-18T14:46:32Z</time></rtept><rtept lat="38.992595" lon="-79.367491"><ele>1115.2000000000007</ele><time>2026-09-18T14:46:32Z</time></rtept><rtept lat="38.992671" lon="-79.367673"><ele>1112.4000000000015</ele><time>2026-09-18T14:46:32Z</time></rtept><rtept lat="38.99269" lon="-79.367842"><ele>1106.6000000000004</ele><time>2026-09-18T14:46:32Z</time></rtept><rtept lat="38.992624" lon="-79.368053"><ele>1100.0</ele><time>2026-09-18T14:46:32Z</time></rtept><rtept lat="38.992614" lon="-79.36827"><ele>1089.2000000000007</ele><time>2026-09-18T14:46:32Z</time></rtept><rtept lat="38.993343" lon="-79.368399"><ele>1090.4000000000015</ele><time>2026-09-18T14:46:32Z</time></rtept><rtept lat="38.993514" lon="-79.368422"><ele>1088.6000000000004</ele><time>2026-09-18T14:46:32Z</time></rtept><rtept lat="38.993514" lon="-79.368422"><ele>1088.6000000000004</ele><time>2026-09-18T14:46:32Z</time></rtept><rtept lat="38.994414" lon="-79.368544"><ele>1090.800000000001</ele><time>2026-09-18T14:46:32Z</time></rtept><rtept lat="38.994728" lon="-79.368697"><ele>1089.4000000000015</ele><time>2026-09-18T14:46:32Z</time></rtept><rtept lat="38.995419" lon="-79.369108"><ele>1089.4000000000015</ele><time>2026-09-18T14:46:32Z</time></rtept><rtept lat="38.995546" lon="-79.369172"><ele>1090.800000000001</ele><time>2026-09-18T14:46:32Z</time></rtept><rtept lat="38.995781" lon="-79.369221"><ele>1090.6000000000004</ele><time>2026-09-18T14:46:32Z</time></rtept><rtept lat="38.995879" lon="-79.369329"><ele>1089.0</ele><time>2026-09-18T14:46:32Z</time></rtept><rtept lat="38.996021" lon="-79.369353"><ele>1090.0</ele><time>2026-09-18T14:46:32Z</time></rtept><rtept lat="38.996176" lon="-79.369438"><ele>1092.4000000000015</ele><time>2026-09-18T14:46:32Z</time></rtept><rtept lat="38.996478" lon="-79.369636"><ele>1089.6000000000004</ele><time>2026-09-18T14:46:32Z</time></rtept><rtept lat="38.996755" lon="-79.369966"><ele>1088.4000000000015</ele><time>2026-09-18T14:46:32Z</time></rtept><rtept lat="38.996928" lon="-79.370256"><ele>1090.0</ele><time>2026-09-18T14:46:32Z</time></rtept><rtept lat="38.99703" lon="-79.370478"><ele>1088.2000000000007</ele><time>2026-09-18T14:46:32Z</time></rtept><rtept lat="38.997219" lon="-79.37079"><ele>1089.0</ele><time>2026-09-18T14:46:32Z</time></rtept><rtept lat="38.997585" lon="-79.371208"><ele>1087.2000000000007</ele><time>2026-09-18T14:46:32Z</time></rtept><rtept lat="38.997878" lon="-79.371614"><ele>1085.2000000000007</ele><time>2026-09-18T14:46:32Z</time></rtept><rtept lat="38.997854" lon="-79.37161"><ele>1085.2000000000007</ele><time>2026-09-18T14:46:32Z</time></rtept><rtept lat="38.997612" lon="-79.371461"><ele>1079.4000000000015</ele><time>2026-09-18T14:46:32Z</time></rtept><rtept lat="38.997449" lon="-79.371382"><ele>1077.0</ele><time>2026-09-18T14:46:32Z</time></rtept><rtept lat="38.997338" lon="-79.371358"><ele>1072.4000000000015</ele><time>2026-09-18T14:46:32Z</time></rtept><rtept lat="38.997272" lon="-79.3713"><ele>1073.4000000000015</ele><time>2026-09-18T14:46:32Z</time></rtept><rtept lat="38.997218" lon="-79.371274"><ele>1071.6000000000004</ele><time>2026-09-18T14:46:32Z</time></rtept><rtept lat="38.997194" lon="-79.371307"><ele>1071.6000000000004</ele><time>2026-09-18T14:46:32Z</time></rtept><rtept lat="38.9972" lon="-79.371367"><ele>1068.4000000000015</ele><time>2026-09-18T14:46:32Z</time></rtept><rtept lat="38.997185" lon="-79.37143"><ele>1065.4000000000015</ele><time>2026-09-18T14:46:32Z</time></rtept><rtept lat="38.997161" lon="-79.371463"><ele>1062.800000000001</ele><time>2026-09-18T14:46:32Z</time></rtept><rtept lat="38.997123" lon="-79.371465"><ele>1062.800000000001</ele><time>2026-09-18T14:46:32Z</time></rtept><rtept lat="38.996517" lon="-79.371211"><ele>1048.4000000000015</ele><time>2026-09-18T14:46:32Z</time></rtept><rtept lat="38.996426" lon="-79.371216"><ele>1044.2000000000007</ele><time>2026-09-18T14:46:32Z</time></rtept><rtept lat="38.996334" lon="-79.371225"><ele>1042.2000000000007</ele><time>2026-09-18T14:46:32Z</time></rtept><rtept lat="38.996192" lon="-79.371172"><ele>1038.4000000000015</ele><time>2026-09-18T14:46:32Z</time></rtept><rtept lat="38.995857" lon="-79.371004"><ele>1035.4000000000015</ele><time>2026-09-18T14:46:32Z</time></rtept><rtept lat="38.995486" lon="-79.370999"><ele>1026.4000000000015</ele><time>2026-09-18T14:46:32Z</time></rtept><rtept lat="38.995005" lon="-79.371017"><ele>1017.0</ele><time>2026-09-18T14:46:32Z</time></rtept><rtept lat="38.994732" lon="-79.370963"><ele>1014.8000000000011</ele><time>2026-09-18T14:46:32Z</time></rtept><rtept lat="38.994492" lon="-79.370864"><ele>1012.6000000000004</ele><time>2026-09-18T14:46:32Z</time></rtept><rtept lat="38.99425" lon="-79.370808"><ele>1011.8000000000011</ele><time>2026-09-18T14:46:32Z</time></rtept><rtept lat="38.993645" lon="-79.370834"><ele>999.0</ele><time>2026-09-18T14:46:32Z</time></rtept><rtept lat="38.993352" lon="-79.370767"><ele>998.0</ele><time>2026-09-18T14:46:32Z</time></rtept><rtept lat="38.992499" lon="-79.370777"><ele>988.0</ele><time>2026-09-18T14:46:32Z</time></rtept><rtept lat="38.991277" lon="-79.371328"><ele>972.8000000000011</ele><time>2026-09-18T14:46:32Z</time></rtept><rtept lat="38.9906" lon="-79.37136"><ele>967.4000000000015</ele><time>2026-09-18T14:46:32Z</time></rtept><rtept lat="38.990365" lon="-79.371499"><ele>965.0</ele><time>2026-09-18T14:46:32Z</time></rtept><rtept lat="38.990365" lon="-79.371499"><ele>965.0</ele><time>2026-09-18T14:46:32Z</time></rtept><rtept lat="38.990191" lon="-79.371602"><ele>961.4000000000015</ele><time>2026-09-18T14:46:32Z</time></rtept><rtept lat="38.989631" lon="-79.371784"><ele>954.8000000000011</ele><time>2026-09-18T14:46:32Z</time></rtept><rtept lat="38.989058" lon="-79.371936"><ele>945.4000000000015</ele><time>2026-09-18T14:46:32Z</time></rtept><rtept lat="38.98838" lon="-79.372015"><ele>939.4000000000015</ele><time>2026-09-18T14:46:32Z</time></rtept><rtept lat="38.987683" lon="-79.372227"><ele>930.0</ele><time>2026-09-18T14:46:32Z</time></rtept><rtept lat="38.987397" lon="-79.372199"><ele>925.6000000000004</ele><time>2026-09-18T14:46:32Z</time></rtept><rtept lat="38.987126" lon="-79.372098"><ele>928.6000000000004</ele><time>2026-09-18T14:46:32Z</time></rtept><rtept lat="38.987017" lon="-79.372177"><ele>923.8000000000011</ele><time>2026-09-18T14:46:32Z</time></rtept><rtept lat="38.986802" lon="-79.372174"><ele>921.8000000000011</ele><time>2026-09-18T14:46:32Z</time></rtept><rtept lat="38.98557" lon="-79.371995"><ele>905.4000000000015</ele><time>2026-09-18T14:46:32Z</time></rtept><rtept lat="38.985457" lon="-79.371979"><ele>903.4000000000015</ele><time>2026-09-18T14:46:32Z</time></rtept><rtept lat="38.984917" lon="-79.371802"><ele>903.0</ele><time>2026-09-18T14:46:32Z</time></rtept><rtept lat="38.98439" lon="-79.371799"><ele>896.8000000000011</ele><time>2026-09-18T14:46:32Z</time></rtept><rtept lat="38.984294" lon="-79.371808"><ele>895.0</ele><time>2026-09-18T14:46:32Z</time></rtept><rtept lat="38.984071" lon="-79.371912"><ele>887.6000000000004</ele><time>2026-09-18T14:46:32Z</time></rtept><rtept lat="38.983989" lon="-79.371927"><ele>887.2000000000007</ele><time>2026-09-18T14:46:32Z</time></rtept><rtept lat="38.983829" lon="-79.371912"><ele>886.6000000000004</ele><time>2026-09-18T14:46:32Z</time></rtept><rtept lat="38.983273" lon="-79.371976"><ele>876.8000000000011</ele><time>2026-09-18T14:46:32Z</time></rtept><rtept lat="38.983084" lon="-79.372065"><ele>872.4000000000015</ele><time>2026-09-18T14:46:32Z</time></rtept><rtept lat="38.982853" lon="-79.372037"><ele>869.6000000000004</ele><time>2026-09-18T14:46:32Z</time></rtept><rtept lat="38.982613" lon="-79.37193"><ele>867.8000000000011</ele><time>2026-09-18T14:46:32Z</time></rtept><rtept lat="38.982364" lon="-79.372187"><ele>865.2000000000007</ele><time>2026-09-18T14:46:32Z</time></rtept><rtept lat="38.982172" lon="-79.372304"><ele>863.8000000000011</ele><time>2026-09-18T14:46:32Z</time></rtept><rtept lat="38.981569" lon="-79.372407"><ele>860.0</ele><time>2026-09-18T14:46:32Z</time></rtept><rtept lat="38.981427" lon="-79.372486"><ele>858.2000000000007</ele><time>2026-09-18T14:46:32Z</time></rtept><rtept lat="38.98131" lon="-79.372554"><ele>857.6000000000004</ele><time>2026-09-18T14:46:32Z</time></rtept><rtept lat="38.981216" lon="-79.372541"><ele>856.0</ele><time>2026-09-18T14:46:32Z</time></rtept><rtept lat="38.981165" lon="-79.372617"><ele>854.0</ele><time>2026-09-18T14:46:32Z</time></rtept><rtept lat="38.981105" lon="-79.372662"><ele>852.8000000000011</ele><time>2026-09-18T14:46:32Z</time></rtept><rtept lat="38.981028" lon="-79.372649"><ele>851.2000000000007</ele><time>2026-09-18T14:46:32Z</time></rtept><rtept lat="38.98097" lon="-79.372578"><ele>851.2000000000007</ele><time>2026-09-18T14:46:32Z</time></rtept><rtept lat="38.980905" lon="-79.372508"><ele>851.0</ele><time>2026-09-18T14:46:32Z</time></rtept><rtept lat="38.980847" lon="-79.37248"><ele>851.4000000000015</ele><time>2026-09-18T14:46:32Z</time></rtept><rtept lat="38.980719" lon="-79.372438"><ele>852.6000000000004</ele><time>2026-09-18T14:46:32Z</time></rtept><rtept lat="38.980661" lon="-79.372452"><ele>852.4000000000015</ele><time>2026-09-18T14:46:32Z</time></rtept><rtept lat="38.980481" lon="-79.372542"><ele>852.4000000000015</ele><time>2026-09-18T14:46:32Z</time></rtept><rtept lat="38.980332" lon="-79.372501"><ele>852.2000000000007</ele><time>2026-09-18T14:46:32Z</time></rtept><rtept lat="38.980245" lon="-79.372621"><ele>851.6000000000004</ele><time>2026-09-18T14:46:32Z</time></rtept><rtept lat="38.980173" lon="-79.372692"><ele>852.8000000000011</ele><time>2026-09-18T14:46:32Z</time></rtept><rtept lat="38.98008" lon="-79.372748"><ele>857.0</ele><time>2026-09-18T14:46:32Z</time></rtept><rtept lat="38.979956" lon="-79.372851"><ele>864.6000000000004</ele><time>2026-09-18T14:46:32Z</time></rtept><rtept lat="38.979849" lon="-79.372826"><ele>869.6000000000004</ele><time>2026-09-18T14:46:32Z</time></rtept><rtept lat="38.979838" lon="-79.373106"><ele>864.0</ele><time>2026-09-18T14:46:32Z</time></rtept><rtept lat="38.979704" lon="-79.373287"><ele>870.6000000000004</ele><time>2026-09-18T14:46:32Z</time></rtept><rtept lat="38.979649" lon="-79.373468"><ele>870.6000000000004</ele><time>2026-09-18T14:46:32Z</time></rtept><rtept lat="38.979628" lon="-79.373803"><ele>867.4000000000015</ele><time>2026-09-18T14:46:32Z</time></rtept><rtept lat="38.979573" lon="-79.373883"><ele>866.0</ele><time>2026-09-18T14:46:32Z</time></rtept><rtept lat="38.979577" lon="-79.374017"><ele>863.4000000000015</ele><time>2026-09-18T14:46:32Z</time></rtept><rtept lat="38.979521" lon="-79.374213"><ele>863.8000000000011</ele><time>2026-09-18T14:46:32Z</time></rtept><rtept lat="38.979448" lon="-79.374533"><ele>861.8000000000011</ele><time>2026-09-18T14:46:32Z</time></rtept><rtept lat="38.979419" lon="-79.374806"><ele>861.2000000000007</ele><time>2026-09-18T14:46:32Z</time></rtept><rtept lat="38.979392" lon="-79.374995"><ele>859.4000000000015</ele><time>2026-09-18T14:46:32Z</time></rtept><rtept lat="38.979426" lon="-79.375316"><ele>857.2000000000007</ele><time>2026-09-18T14:46:32Z</time></rtept><rtept lat="38.979504" lon="-79.375586"><ele>850.8000000000011</ele><time>2026-09-18T14:46:32Z</time></rtept><rtept lat="38.979648" lon="-79.37582"><ele>845.4000000000015</ele><time>2026-09-18T14:46:32Z</time></rtept><rtept lat="38.979668" lon="-79.375952"><ele>845.2000000000007</ele><time>2026-09-18T14:46:32Z</time></rtept><rtept lat="38.979744" lon="-79.376063"><ele>843.2000000000007</ele><time>2026-09-18T14:46:32Z</time></rtept><rtept lat="38.97972" lon="-79.376249"><ele>842.6000000000004</ele><time>2026-09-18T14:46:32Z</time></rtept><rtept lat="38.979646" lon="-79.376399"><ele>842.0</ele><time>2026-09-18T14:46:32Z</time></rtept><rtept lat="38.979437" lon="-79.376847"><ele>841.8000000000011</ele><time>2026-09-18T14:46:32Z</time></rtept><rtept lat="38.979376" lon="-79.3772"><ele>841.0</ele><time>2026-09-18T14:46:32Z</time></rtept><rtept lat="38.979235" lon="-79.377555"><ele>840.2000000000007</ele><time>2026-09-18T14:46:32Z</time></rtept><rtept lat="38.978995" lon="-79.377981"><ele>839.6000000000004</ele><time>2026-09-18T14:46:32Z</time></rtept><rtept lat="38.978843" lon="-79.378418"><ele>838.4000000000015</ele><time>2026-09-18T14:46:32Z</time></rtept><rtept lat="38.978752" lon="-79.379219"><ele>838.6000000000004</ele><time>2026-09-18T14:46:32Z</time></rtept><rtept lat="38.978689" lon="-79.379595"><ele>838.0</ele><time>2026-09-18T14:46:32Z</time></rtept><rtept lat="38.978528" lon="-79.380083"><ele>837.4000000000015</ele><time>2026-09-18T14:46:32Z</time></rtept><rtept lat="38.978453" lon="-79.380546"><ele>836.8000000000011</ele><time>2026-09-18T14:46:32Z</time></rtept><rtept lat="38.97835" lon="-79.381448"><ele>834.2000000000007</ele><time>2026-09-18T14:46:32Z</time></rtept><rtept lat="38.978126" lon="-79.382054"><ele>832.4000000000015</ele><time>2026-09-18T14:46:32Z</time></rtept><rtept lat="38.978078" lon="-79.382285"><ele>831.4000000000015</ele><time>2026-09-18T14:46:32Z</time></rtept><rtept lat="38.977862" lon="-79.382942"><ele>829.8000000000011</ele><time>2026-09-18T14:46:32Z</time></rtept><rtept lat="38.977763" lon="-79.383386"><ele>828.8000000000011</ele><time>2026-09-18T14:46:32Z</time></rtept><rtept lat="38.977652" lon="-79.383688"><ele>828.6000000000004</ele><time>2026-09-18T14:46:32Z</time></rtept><rtept lat="38.977613" lon="-79.384087"><ele>827.8000000000011</ele><time>2026-09-18T14:46:32Z</time></rtept><rtept lat="38.977586" lon="-79.384644"><ele>826.4000000000015</ele><time>2026-09-18T14:46:32Z</time></rtept><rtept lat="38.977551" lon="-79.385368"><ele>825.4000000000015</ele><time>2026-09-18T14:46:32Z</time></rtept><rtept lat="38.977635" lon="-79.385827"><ele>825.2000000000007</ele><time>2026-09-18T14:46:32Z</time></rtept><rtept lat="38.977667" lon="-79.386333"><ele>823.8000000000011</ele><time>2026-09-18T14:46:32Z</time></rtept><rtept lat="38.977705" lon="-79.386563"><ele>823.0</ele><time>2026-09-18T14:46:32Z</time></rtept><rtept lat="38.977666" lon="-79.386728"><ele>822.0</ele><time>2026-09-18T14:46:32Z</time></rtept><rtept lat="38.977544" lon="-79.386925"><ele>821.2000000000007</ele><time>2026-09-18T14:46:32Z</time></rtept><rtept lat="38.977329" lon="-79.387409"><ele>820.4000000000015</ele><time>2026-09-18T14:46:32Z</time></rtept><rtept lat="38.97726" lon="-79.387566"><ele>820.4000000000015</ele><time>2026-09-18T14:46:32Z</time></rtept><rtept lat="38.977212" lon="-79.387719"><ele>820.0</ele><time>2026-09-18T14:46:32Z</time></rtept><rtept lat="38.977262" lon="-79.387869"><ele>820.8000000000011</ele><time>2026-09-18T14:46:32Z</time></rtept><rtept lat="38.977267" lon="-79.387993"><ele>820.6000000000004</ele><time>2026-09-18T14:46:32Z</time></rtept><rtept lat="38.977282" lon="-79.38817"><ele>820.2000000000007</ele><time>2026-09-18T14:46:32Z</time></rtept><rtept lat="38.977184" lon="-79.38838"><ele>819.8000000000011</ele><time>2026-09-18T14:46:32Z</time></rtept><rtept lat="38.977199" lon="-79.388507"><ele>819.2000000000007</ele><time>2026-09-18T14:46:32Z</time></rtept><rtept lat="38.977175" lon="-79.388585"><ele>819.0</ele><time>2026-09-18T14:46:32Z</time></rtept><rtept lat="38.977074" lon="-79.388691"><ele>818.0</ele><time>2026-09-18T14:46:32Z</time></rtept><rtept lat="38.977043" lon="-79.388811"><ele>817.8000000000011</ele><time>2026-09-18T14:46:32Z</time></rtept><rtept lat="38.977014" lon="-79.38906"><ele>817.8000000000011</ele><time>2026-09-18T14:46:32Z</time></rtept><rtept lat="38.976978" lon="-79.389115"><ele>817.6000000000004</ele><time>2026-09-18T14:46:32Z</time></rtept><rtept lat="38.976877" lon="-79.389169"><ele>816.8000000000011</ele><time>2026-09-18T14:46:32Z</time></rtept><rtept lat="38.976845" lon="-79.389271"><ele>816.4000000000015</ele><time>2026-09-18T14:46:32Z</time></rtept><rtept lat="38.976804" lon="-79.389426"><ele>815.6000000000004</ele><time>2026-09-18T14:46:32Z</time></rtept><rtept lat="38.97673" lon="-79.389537"><ele>814.8000000000011</ele><time>2026-09-18T14:46:32Z</time></rtept><rtept lat="38.976662" lon="-79.38969"><ele>814.0</ele><time>2026-09-18T14:46:32Z</time></rtept><rtept lat="38.976615" lon="-79.389912"><ele>813.8000000000011</ele><time>2026-09-18T14:46:32Z</time></rtept><rtept lat="38.976538" lon="-79.390097"><ele>813.0</ele><time>2026-09-18T14:46:32Z</time></rtept><rtept lat="38.9765" lon="-79.390251"><ele>813.4000000000015</ele><time>2026-09-18T14:46:32Z</time></rtept><rtept lat="38.976495" lon="-79.390385"><ele>813.4000000000015</ele><time>2026-09-18T14:46:32Z</time></rtept><rtept lat="38.976521" lon="-79.39049"><ele>813.4000000000015</ele><time>2026-09-18T14:46:32Z</time></rtept><rtept lat="38.976484" lon="-79.390647"><ele>811.6000000000004</ele><time>2026-09-18T14:46:32Z</time></rtept><rtept lat="38.976425" lon="-79.390793"><ele>812.0</ele><time>2026-09-18T14:46:32Z</time></rtept><rtept lat="38.976333" lon="-79.390958"><ele>813.6000000000004</ele><time>2026-09-18T14:46:32Z</time></rtept><rtept lat="38.976329" lon="-79.391165"><ele>813.0</ele><time>2026-09-18T14:46:32Z</time></rtept><rtept lat="38.976242" lon="-79.391549"><ele>812.8000000000011</ele><time>2026-09-18T14:46:32Z</time></rtept><rtept lat="38.975948" lon="-79.392335"><ele>811.6000000000004</ele><time>2026-09-18T14:46:32Z</time></rtept><rtept lat="38.975609" lon="-79.392983"><ele>810.2000000000007</ele><time>2026-09-18T14:46:32Z</time></rtept><rtept lat="38.975197" lon="-79.393424"><ele>809.4000000000015</ele><time>2026-09-18T14:46:32Z</time></rtept><rtept lat="38.974823" lon="-79.394002"><ele>808.2000000000007</ele><time>2026-09-18T14:46:32Z</time></rtept><rtept lat="38.974635" lon="-79.394327"><ele>808.0</ele><time>2026-09-18T14:46:32Z</time></rtept><rtept lat="38.974279" lon="-79.395142"><ele>805.2000000000007</ele><time>2026-09-18T14:46:32Z</time></rtept><rtept lat="38.973847" lon="-79.395745"><ele>803.8000000000011</ele><time>2026-09-18T14:46:32Z</time></rtept><rtept lat="38.973847" lon="-79.395745"><ele>803.8000000000011</ele><time>2026-09-18T14:46:32Z</time></rtept><rtept lat="38.973783" lon="-79.395835"><ele>803.6000000000004</ele><time>2026-09-18T14:46:32Z</time></rtept><rtept lat="38.973606" lon="-79.396028"><ele>803.6000000000004</ele><time>2026-09-18T14:46:32Z</time></rtept><rtept lat="38.973513" lon="-79.396161"><ele>803.2000000000007</ele><time>2026-09-18T14:46:32Z</time></rtept><rtept lat="38.973272" lon="-79.396505"><ele>802.8000000000011</ele><time>2026-09-18T14:46:32Z</time></rtept><rtept lat="38.973009" lon="-79.397058"><ele>801.2000000000007</ele><time>2026-09-18T14:46:32Z</time></rtept><rtept lat="38.972959" lon="-79.397153"><ele>800.6000000000004</ele><time>2026-09-18T14:46:32Z</time></rtept></rte></gpx>