<?xml version="1.0" ?><gpx xmlns="http://www.topografix.com/GPX/1/1" creator="GaiaGPS" version="1.1" xmlns:xsi="http://www.w3.org/2001/XMLSchema-instance" xsi:schemaLocation="http://www.topografix.com/GPX/1/1 http://www.topografix.com/GPX/1/1/gpx.xsd"><wpt lat="46.023276096538666" lon="-114.33731559978324"><time>2026-09-18T03:59:22Z</time><name>Night campsite</name><sym>emoji-⛺</sym></wpt><rte><name>Little Rock Creek In 'n Out route</name><desc>Camped by the lake at night. Got some snow flurries during the day.</desc><extensions><line xmlns="http://www.topografix.com/GPX/gpx_style/0/2"><color>FF6200</color></line></extensions><rtept lat="46.041018" lon="-114.26671"><ele>1581.4</ele><time>2026-09-18T03:57:25Z</time></rtept><rtept lat="46.04103" lon="-114.26669"><ele>1581.4</ele><time>2026-09-18T03:57:25Z</time></rtept><rtept lat="46.041037" lon="-114.266849"><ele>1581.2</ele><time>2026-09-18T03:57:25Z</time></rtept><rtept lat="46.041027" lon="-114.267054"><ele>1581.2</ele><time>2026-09-18T03:57:25Z</time></rtept><rtept lat="46.040934" lon="-114.267377"><ele>1584.8</ele><time>2026-09-18T03:57:25Z</time></rtept><rtept lat="46.040883" lon="-114.267642"><ele>1585.8</ele><time>2026-09-18T03:57:25Z</time></rtept><rtept lat="46.040873" lon="-114.26779"><ele>1585.6</ele><time>2026-09-18T03:57:25Z</time></rtept><rtept lat="46.040897" lon="-114.267964"><ele>1583.2</ele><time>2026-09-18T03:57:25Z</time></rtept><rtept lat="46.040926" lon="-114.268131"><ele>1585.4</ele><time>2026-09-18T03:57:25Z</time></rtept><rtept lat="46.040912" lon="-114.268264"><ele>1587.0</ele><time>2026-09-18T03:57:25Z</time></rtept><rtept lat="46.040792" lon="-114.26842"><ele>1595.8</ele><time>2026-09-18T03:57:25Z</time></rtept><rtept lat="46.040712" lon="-114.268548"><ele>1598.8</ele><time>2026-09-18T03:57:25Z</time></rtept><rtept lat="46.040673" lon="-114.268724"><ele>1599.6</ele><time>2026-09-18T03:57:25Z</time></rtept><rtept lat="46.040679" lon="-114.26916"><ele>1601.0</ele><time>2026-09-18T03:57:25Z</time></rtept><rtept lat="46.040712" lon="-114.269622"><ele>1600.8</ele><time>2026-09-18T03:57:25Z</time></rtept><rtept lat="46.040666" lon="-114.269794"><ele>1601.2</ele><time>2026-09-18T03:57:25Z</time></rtept><rtept lat="46.040628" lon="-114.270175"><ele>1602.4</ele><time>2026-09-18T03:57:25Z</time></rtept><rtept lat="46.040537" lon="-114.270437"><ele>1605.8</ele><time>2026-09-18T03:57:25Z</time></rtept><rtept lat="46.040499" lon="-114.270598"><ele>1608.8</ele><time>2026-09-18T03:57:25Z</time></rtept><rtept lat="46.040414" lon="-114.270854"><ele>1611.4</ele><time>2026-09-18T03:57:25Z</time></rtept><rtept lat="46.040377" lon="-114.271006"><ele>1613.2</ele><time>2026-09-18T03:57:25Z</time></rtept><rtept lat="46.040412" lon="-114.271277"><ele>1614.2</ele><time>2026-09-18T03:57:25Z</time></rtept><rtept lat="46.040432" lon="-114.271341"><ele>1611.8</ele><time>2026-09-18T03:57:25Z</time></rtept><rtept lat="46.040446" lon="-114.271402"><ele>1611.6</ele><time>2026-09-18T03:57:25Z</time></rtept><rtept lat="46.04045" lon="-114.271439"><ele>1611.6</ele><time>2026-09-18T03:57:25Z</time></rtept><rtept lat="46.040457" lon="-114.271477"><ele>1611.6</ele><time>2026-09-18T03:57:25Z</time></rtept><rtept lat="46.040482" lon="-114.271518"><ele>1609.0</ele><time>2026-09-18T03:57:25Z</time></rtept><rtept lat="46.040503" lon="-114.271685"><ele>1608.8</ele><time>2026-09-18T03:57:25Z</time></rtept><rtept lat="46.040488" lon="-114.271853"><ele>1608.6</ele><time>2026-09-18T03:57:25Z</time></rtept><rtept lat="46.040446" lon="-114.271946"><ele>1611.2</ele><time>2026-09-18T03:57:25Z</time></rtept><rtept lat="46.040489" lon="-114.272038"><ele>1607.8</ele><time>2026-09-18T03:57:25Z</time></rtept><rtept lat="46.040492" lon="-114.272141"><ele>1607.0</ele><time>2026-09-18T03:57:25Z</time></rtept><rtept lat="46.040393" lon="-114.272334"><ele>1606.0</ele><time>2026-09-18T03:57:25Z</time></rtept><rtept lat="46.040276" lon="-114.272544"><ele>1603.2</ele><time>2026-09-18T03:57:25Z</time></rtept><rtept lat="46.040192" lon="-114.272644"><ele>1601.6</ele><time>2026-09-18T03:57:25Z</time></rtept><rtept lat="46.040124" lon="-114.272745"><ele>1600.2</ele><time>2026-09-18T03:57:25Z</time></rtept><rtept lat="46.040071" lon="-114.273023"><ele>1590.2</ele><time>2026-09-18T03:57:25Z</time></rtept><rtept lat="46.040013" lon="-114.273172"><ele>1590.2</ele><time>2026-09-18T03:57:25Z</time></rtept><rtept lat="46.039914" lon="-114.273434"><ele>1584.2</ele><time>2026-09-18T03:57:25Z</time></rtept><rtept lat="46.039815" lon="-114.27351"><ele>1589.4</ele><time>2026-09-18T03:57:25Z</time></rtept><rtept lat="46.039793" lon="-114.273528"><ele>1585.2</ele><time>2026-09-18T03:57:25Z</time></rtept><rtept lat="46.039755" lon="-114.273565"><ele>1586.6</ele><time>2026-09-18T03:57:25Z</time></rtept><rtept lat="46.039732" lon="-114.273604"><ele>1586.6</ele><time>2026-09-18T03:57:25Z</time></rtept><rtept lat="46.039704" lon="-114.273639"><ele>1582.4</ele><time>2026-09-18T03:57:25Z</time></rtept><rtept lat="46.039618" lon="-114.273702"><ele>1580.8</ele><time>2026-09-18T03:57:25Z</time></rtept><rtept lat="46.039571" lon="-114.273755"><ele>1581.8</ele><time>2026-09-18T03:57:25Z</time></rtept><rtept lat="46.039555" lon="-114.273772"><ele>1581.8</ele><time>2026-09-18T03:57:25Z</time></rtept><rtept lat="46.039503" lon="-114.273847"><ele>1579.2</ele><time>2026-09-18T03:57:25Z</time></rtept><rtept lat="46.039473" lon="-114.273874"><ele>1575.6</ele><time>2026-09-18T03:57:25Z</time></rtept><rtept lat="46.03944" lon="-114.273892"><ele>1576.6</ele><time>2026-09-18T03:57:25Z</time></rtept><rtept lat="46.039355" lon="-114.273997"><ele>1574.0</ele><time>2026-09-18T03:57:25Z</time></rtept><rtept lat="46.03933" lon="-114.274047"><ele>1571.2</ele><time>2026-09-18T03:57:25Z</time></rtept><rtept lat="46.039089" lon="-114.274387"><ele>1559.4</ele><time>2026-09-18T03:57:25Z</time></rtept><rtept lat="46.039056" lon="-114.274411"><ele>1559.4</ele><time>2026-09-18T03:57:25Z</time></rtept><rtept lat="46.038968" lon="-114.274457"><ele>1561.8</ele><time>2026-09-18T03:57:25Z</time></rtept><rtept lat="46.038872" lon="-114.274607"><ele>1554.0</ele><time>2026-09-18T03:57:25Z</time></rtept><rtept lat="46.038607" lon="-114.274904"><ele>1543.4</ele><time>2026-09-18T03:57:25Z</time></rtept><rtept lat="46.038533" lon="-114.275017"><ele>1541.0</ele><time>2026-09-18T03:57:25Z</time></rtept><rtept lat="46.038325" lon="-114.275334"><ele>1533.0</ele><time>2026-09-18T03:57:25Z</time></rtept><rtept lat="46.038269" lon="-114.275387"><ele>1533.0</ele><time>2026-09-18T03:57:25Z</time></rtept><rtept lat="46.038188" lon="-114.275428"><ele>1533.4</ele><time>2026-09-18T03:57:25Z</time></rtept><rtept lat="46.038062" lon="-114.275653"><ele>1530.6</ele><time>2026-09-18T03:57:25Z</time></rtept><rtept lat="46.037877" lon="-114.275874"><ele>1527.4</ele><time>2026-09-18T03:57:25Z</time></rtept><rtept lat="46.037801" lon="-114.276026"><ele>1524.2</ele><time>2026-09-18T03:57:25Z</time></rtept><rtept lat="46.037756" lon="-114.27606"><ele>1526.4</ele><time>2026-09-18T03:57:25Z</time></rtept><rtept lat="46.037651" lon="-114.276135"><ele>1528.2</ele><time>2026-09-18T03:57:25Z</time></rtept><rtept lat="46.037541" lon="-114.276268"><ele>1527.4</ele><time>2026-09-18T03:57:25Z</time></rtept><rtept lat="46.037336" lon="-114.276295"><ele>1535.2</ele><time>2026-09-18T03:57:25Z</time></rtept><rtept lat="46.037292" lon="-114.276426"><ele>1535.6</ele><time>2026-09-18T03:57:25Z</time></rtept><rtept lat="46.037218" lon="-114.276564"><ele>1533.2</ele><time>2026-09-18T03:57:25Z</time></rtept><rtept lat="46.036855" lon="-114.277"><ele>1534.8</ele><time>2026-09-18T03:57:25Z</time></rtept><rtept lat="46.036582" lon="-114.277391"><ele>1534.6</ele><time>2026-09-18T03:57:25Z</time></rtept><rtept lat="46.03637" lon="-114.277688"><ele>1534.4</ele><time>2026-09-18T03:57:25Z</time></rtept><rtept lat="46.036262" lon="-114.277971"><ele>1530.4</ele><time>2026-09-18T03:57:25Z</time></rtept><rtept lat="46.036196" lon="-114.278195"><ele>1522.8</ele><time>2026-09-18T03:57:25Z</time></rtept><rtept lat="46.036157" lon="-114.278555"><ele>1517.8</ele><time>2026-09-18T03:57:25Z</time></rtept><rtept lat="46.036099" lon="-114.278689"><ele>1517.2</ele><time>2026-09-18T03:57:25Z</time></rtept><rtept lat="46.036098" lon="-114.278855"><ele>1514.4</ele><time>2026-09-18T03:57:25Z</time></rtept><rtept lat="46.036033" lon="-114.279132"><ele>1513.4</ele><time>2026-09-18T03:57:25Z</time></rtept><rtept lat="46.036031" lon="-114.279332"><ele>1511.6</ele><time>2026-09-18T03:57:25Z</time></rtept><rtept lat="46.036065" lon="-114.279436"><ele>1509.2</ele><time>2026-09-18T03:57:25Z</time></rtept><rtept lat="46.036058" lon="-114.279627"><ele>1510.2</ele><time>2026-09-18T03:57:25Z</time></rtept><rtept lat="46.036068" lon="-114.279704"><ele>1508.0</ele><time>2026-09-18T03:57:25Z</time></rtept><rtept lat="46.036099" lon="-114.279766"><ele>1508.0</ele><time>2026-09-18T03:57:25Z</time></rtept><rtept lat="46.036089" lon="-114.279914"><ele>1507.2</ele><time>2026-09-18T03:57:25Z</time></rtept><rtept lat="46.036069" lon="-114.280081"><ele>1506.0</ele><time>2026-09-18T03:57:25Z</time></rtept><rtept lat="46.036011" lon="-114.280237"><ele>1505.8</ele><time>2026-09-18T03:57:25Z</time></rtept><rtept lat="46.035979" lon="-114.280494"><ele>1502.6</ele><time>2026-09-18T03:57:25Z</time></rtept><rtept lat="46.035992" lon="-114.280854"><ele>1496.0</ele><time>2026-09-18T03:57:25Z</time></rtept><rtept lat="46.035929" lon="-114.281052"><ele>1498.0</ele><time>2026-09-18T03:57:25Z</time></rtept><rtept lat="46.035915" lon="-114.281346"><ele>1499.4</ele><time>2026-09-18T03:57:25Z</time></rtept><rtept lat="46.035826" lon="-114.281654"><ele>1500.8</ele><time>2026-09-18T03:57:25Z</time></rtept><rtept lat="46.035721" lon="-114.281947"><ele>1499.8</ele><time>2026-09-18T03:57:25Z</time></rtept><rtept lat="46.035673" lon="-114.28203"><ele>1499.8</ele><time>2026-09-18T03:57:25Z</time></rtept><rtept lat="46.035604" lon="-114.282095"><ele>1500.4</ele><time>2026-09-18T03:57:25Z</time></rtept><rtept lat="46.035515" lon="-114.282191"><ele>1499.8</ele><time>2026-09-18T03:57:25Z</time></rtept><rtept lat="46.035432" lon="-114.282383"><ele>1499.0</ele><time>2026-09-18T03:57:25Z</time></rtept><rtept lat="46.035318" lon="-114.282753"><ele>1497.6</ele><time>2026-09-18T03:57:25Z</time></rtept><rtept lat="46.035184" lon="-114.283001"><ele>1496.8</ele><time>2026-09-18T03:57:25Z</time></rtept><rtept lat="46.034992" lon="-114.283186"><ele>1497.0</ele><time>2026-09-18T03:57:25Z</time></rtept><rtept lat="46.034785" lon="-114.283399"><ele>1497.4</ele><time>2026-09-18T03:57:25Z</time></rtept><rtept lat="46.034733" lon="-114.283461"><ele>1498.0</ele><time>2026-09-18T03:57:25Z</time></rtept><rtept lat="46.034618" lon="-114.283558"><ele>1498.6</ele><time>2026-09-18T03:57:25Z</time></rtept><rtept lat="46.034543" lon="-114.283699"><ele>1498.4</ele><time>2026-09-18T03:57:25Z</time></rtept><rtept lat="46.034578" lon="-114.283892"><ele>1497.2</ele><time>2026-09-18T03:57:25Z</time></rtept><rtept lat="46.034541" lon="-114.283955"><ele>1497.6</ele><time>2026-09-18T03:57:25Z</time></rtept><rtept lat="46.034349" lon="-114.284027"><ele>1499.0</ele><time>2026-09-18T03:57:25Z</time></rtept><rtept lat="46.034318" lon="-114.284216"><ele>1499.2</ele><time>2026-09-18T03:57:25Z</time></rtept><rtept lat="46.034206" lon="-114.284291"><ele>1500.0</ele><time>2026-09-18T03:57:25Z</time></rtept><rtept lat="46.034134" lon="-114.284642"><ele>1499.8</ele><time>2026-09-18T03:57:25Z</time></rtept><rtept lat="46.034243" lon="-114.28519"><ele>1497.8</ele><time>2026-09-18T03:57:25Z</time></rtept><rtept lat="46.03422" lon="-114.285336"><ele>1497.6</ele><time>2026-09-18T03:57:25Z</time></rtept><rtept lat="46.034231" lon="-114.285533"><ele>1497.4</ele><time>2026-09-18T03:57:25Z</time></rtept><rtept lat="46.034159" lon="-114.285727"><ele>1498.4</ele><time>2026-09-18T03:57:25Z</time></rtept><rtept lat="46.034118" lon="-114.285897"><ele>1499.8</ele><time>2026-09-18T03:57:25Z</time></rtept><rtept lat="46.034221" lon="-114.286049"><ele>1498.6</ele><time>2026-09-18T03:57:25Z</time></rtept><rtept lat="46.034206" lon="-114.286271"><ele>1500.6</ele><time>2026-09-18T03:57:25Z</time></rtept><rtept lat="46.034286" lon="-114.286546"><ele>1499.6</ele><time>2026-09-18T03:57:25Z</time></rtept><rtept lat="46.034279" lon="-114.286718"><ele>1499.8</ele><time>2026-09-18T03:57:25Z</time></rtept><rtept lat="46.034205" lon="-114.286846"><ele>1501.8</ele><time>2026-09-18T03:57:25Z</time></rtept><rtept lat="46.034116" lon="-114.2871"><ele>1502.8</ele><time>2026-09-18T03:57:25Z</time></rtept><rtept lat="46.03391" lon="-114.287143"><ele>1506.2</ele><time>2026-09-18T03:57:25Z</time></rtept><rtept lat="46.033755" lon="-114.287176"><ele>1507.8</ele><time>2026-09-18T03:57:25Z</time></rtept><rtept lat="46.03371" lon="-114.287284"><ele>1508.6</ele><time>2026-09-18T03:57:25Z</time></rtept><rtept lat="46.033584" lon="-114.287476"><ele>1510.0</ele><time>2026-09-18T03:57:25Z</time></rtept><rtept lat="46.033557" lon="-114.287568"><ele>1510.6</ele><time>2026-09-18T03:57:25Z</time></rtept><rtept lat="46.033367" lon="-114.287855"><ele>1513.6</ele><time>2026-09-18T03:57:25Z</time></rtept><rtept lat="46.033261" lon="-114.288019"><ele>1516.4</ele><time>2026-09-18T03:57:25Z</time></rtept><rtept lat="46.033152" lon="-114.288318"><ele>1517.4</ele><time>2026-09-18T03:57:25Z</time></rtept><rtept lat="46.032981" lon="-114.288731"><ele>1520.2</ele><time>2026-09-18T03:57:25Z</time></rtept><rtept lat="46.03278" lon="-114.289225"><ele>1522.6</ele><time>2026-09-18T03:57:25Z</time></rtept><rtept lat="46.032599" lon="-114.289333"><ele>1526.2</ele><time>2026-09-18T03:57:25Z</time></rtept><rtept lat="46.032462" lon="-114.289613"><ele>1530.4</ele><time>2026-09-18T03:57:25Z</time></rtept><rtept lat="46.03233" lon="-114.290166"><ele>1529.2</ele><time>2026-09-18T03:57:25Z</time></rtept><rtept lat="46.032321" lon="-114.290222"><ele>1528.4</ele><time>2026-09-18T03:57:25Z</time></rtept><rtept lat="46.032296" lon="-114.290247"><ele>1529.8</ele><time>2026-09-18T03:57:25Z</time></rtept><rtept lat="46.03212" lon="-114.290274"><ele>1534.6</ele><time>2026-09-18T03:57:25Z</time></rtept><rtept lat="46.031999" lon="-114.290387"><ele>1538.2</ele><time>2026-09-18T03:57:25Z</time></rtept><rtept lat="46.031935" lon="-114.290432"><ele>1539.6</ele><time>2026-09-18T03:57:25Z</time></rtept><rtept lat="46.031822" lon="-114.290529"><ele>1543.4</ele><time>2026-09-18T03:57:25Z</time></rtept><rtept lat="46.031742" lon="-114.290536"><ele>1546.6</ele><time>2026-09-18T03:57:25Z</time></rtept><rtept lat="46.031665" lon="-114.290473"><ele>1550.6</ele><time>2026-09-18T03:57:25Z</time></rtept><rtept lat="46.031566" lon="-114.290532"><ele>1552.2</ele><time>2026-09-18T03:57:25Z</time></rtept><rtept lat="46.031441" lon="-114.290644"><ele>1552.0</ele><time>2026-09-18T03:57:25Z</time></rtept><rtept lat="46.031304" lon="-114.290699"><ele>1550.2</ele><time>2026-09-18T03:57:25Z</time></rtept><rtept lat="46.031173" lon="-114.29076"><ele>1550.0</ele><time>2026-09-18T03:57:25Z</time></rtept><rtept lat="46.031048" lon="-114.290921"><ele>1547.6</ele><time>2026-09-18T03:57:25Z</time></rtept><rtept lat="46.030933" lon="-114.29097"><ele>1551.0</ele><time>2026-09-18T03:57:25Z</time></rtept><rtept lat="46.030918" lon="-114.291254"><ele>1541.8</ele><time>2026-09-18T03:57:25Z</time></rtept><rtept lat="46.030885" lon="-114.291384"><ele>1537.6</ele><time>2026-09-18T03:57:25Z</time></rtept><rtept lat="46.030841" lon="-114.29145"><ele>1539.6</ele><time>2026-09-18T03:57:25Z</time></rtept><rtept lat="46.030831" lon="-114.291704"><ele>1537.8</ele><time>2026-09-18T03:57:25Z</time></rtept><rtept lat="46.030834" lon="-114.291831"><ele>1537.2</ele><time>2026-09-18T03:57:25Z</time></rtept><rtept lat="46.030699" lon="-114.292223"><ele>1538.6</ele><time>2026-09-18T03:57:25Z</time></rtept><rtept lat="46.03053" lon="-114.292334"><ele>1539.4</ele><time>2026-09-18T03:57:25Z</time></rtept><rtept lat="46.030391" lon="-114.292426"><ele>1542.4</ele><time>2026-09-18T03:57:25Z</time></rtept><rtept lat="46.030136" lon="-114.292681"><ele>1543.4</ele><time>2026-09-18T03:57:25Z</time></rtept><rtept lat="46.029639" lon="-114.292841"><ele>1548.4</ele><time>2026-09-18T03:57:25Z</time></rtept><rtept lat="46.029515" lon="-114.29305"><ele>1548.4</ele><time>2026-09-18T03:57:25Z</time></rtept><rtept lat="46.029456" lon="-114.293334"><ele>1548.8</ele><time>2026-09-18T03:57:25Z</time></rtept><rtept lat="46.029206" lon="-114.293457"><ele>1558.0</ele><time>2026-09-18T03:57:25Z</time></rtept><rtept lat="46.029225" lon="-114.293727"><ele>1553.4</ele><time>2026-09-18T03:57:25Z</time></rtept><rtept lat="46.029164" lon="-114.293857"><ele>1554.4</ele><time>2026-09-18T03:57:25Z</time></rtept><rtept lat="46.029089" lon="-114.294201"><ele>1554.4</ele><time>2026-09-18T03:57:25Z</time></rtept><rtept lat="46.028942" lon="-114.29436"><ele>1555.8</ele><time>2026-09-18T03:57:25Z</time></rtept><rtept lat="46.028868" lon="-114.294502"><ele>1556.4</ele><time>2026-09-18T03:57:25Z</time></rtept><rtept lat="46.02871" lon="-114.294591"><ele>1561.6</ele><time>2026-09-18T03:57:25Z</time></rtept><rtept lat="46.028322" lon="-114.29516"><ele>1567.4</ele><time>2026-09-18T03:57:25Z</time></rtept><rtept lat="46.028235" lon="-114.295373"><ele>1568.2</ele><time>2026-09-18T03:57:25Z</time></rtept><rtept lat="46.028181" lon="-114.29565"><ele>1567.6</ele><time>2026-09-18T03:57:25Z</time></rtept><rtept lat="46.027972" lon="-114.295994"><ele>1569.0</ele><time>2026-09-18T03:57:25Z</time></rtept><rtept lat="46.027942" lon="-114.296302"><ele>1569.8</ele><time>2026-09-18T03:57:25Z</time></rtept><rtept lat="46.027861" lon="-114.296417"><ele>1571.2</ele><time>2026-09-18T03:57:25Z</time></rtept><rtept lat="46.027704" lon="-114.296725"><ele>1575.4</ele><time>2026-09-18T03:57:25Z</time></rtept><rtept lat="46.027327" lon="-114.29699"><ele>1585.0</ele><time>2026-09-18T03:57:25Z</time></rtept><rtept lat="46.027266" lon="-114.297174"><ele>1586.2</ele><time>2026-09-18T03:57:25Z</time></rtept><rtept lat="46.027157" lon="-114.29724"><ele>1588.8</ele><time>2026-09-18T03:57:25Z</time></rtept><rtept lat="46.027005" lon="-114.297558"><ele>1591.8</ele><time>2026-09-18T03:57:25Z</time></rtept><rtept lat="46.026742" lon="-114.297722"><ele>1597.2</ele><time>2026-09-18T03:57:25Z</time></rtept><rtept lat="46.026613" lon="-114.298029"><ele>1600.6</ele><time>2026-09-18T03:57:25Z</time></rtept><rtept lat="46.026577" lon="-114.298158"><ele>1603.4</ele><time>2026-09-18T03:57:25Z</time></rtept><rtept lat="46.026451" lon="-114.298435"><ele>1609.2</ele><time>2026-09-18T03:57:25Z</time></rtept><rtept lat="46.026403" lon="-114.298483"><ele>1610.6</ele><time>2026-09-18T03:57:25Z</time></rtept><rtept lat="46.026379" lon="-114.298559"><ele>1611.6</ele><time>2026-09-18T03:57:25Z</time></rtept><rtept lat="46.026367" lon="-114.298665"><ele>1612.4</ele><time>2026-09-18T03:57:25Z</time></rtept><rtept lat="46.026379" lon="-114.298819"><ele>1613.4</ele><time>2026-09-18T03:57:25Z</time></rtept><rtept lat="46.026368" lon="-114.298983"><ele>1613.6</ele><time>2026-09-18T03:57:25Z</time></rtept><rtept lat="46.026394" lon="-114.299144"><ele>1613.4</ele><time>2026-09-18T03:57:25Z</time></rtept><rtept lat="46.026376" lon="-114.299271"><ele>1612.8</ele><time>2026-09-18T03:57:25Z</time></rtept><rtept lat="46.026118" lon="-114.299687"><ele>1620.4</ele><time>2026-09-18T03:57:25Z</time></rtept><rtept lat="46.026011" lon="-114.299869"><ele>1624.2</ele><time>2026-09-18T03:57:25Z</time></rtept><rtept lat="46.025936" lon="-114.300067"><ele>1624.6</ele><time>2026-09-18T03:57:25Z</time></rtept><rtept lat="46.025667" lon="-114.300224"><ele>1633.6</ele><time>2026-09-18T03:57:25Z</time></rtept><rtept lat="46.025565" lon="-114.300394"><ele>1636.6</ele><time>2026-09-18T03:57:25Z</time></rtept><rtept lat="46.02553" lon="-114.300479"><ele>1636.0</ele><time>2026-09-18T03:57:25Z</time></rtept><rtept lat="46.025407" lon="-114.300752"><ele>1638.0</ele><time>2026-09-18T03:57:25Z</time></rtept><rtept lat="46.025379" lon="-114.300893"><ele>1639.0</ele><time>2026-09-18T03:57:25Z</time></rtept><rtept lat="46.02535" lon="-114.301054"><ele>1638.2</ele><time>2026-09-18T03:57:25Z</time></rtept><rtept lat="46.025275" lon="-114.30132"><ele>1640.2</ele><time>2026-09-18T03:57:25Z</time></rtept><rtept lat="46.025269" lon="-114.301376"><ele>1640.0</ele><time>2026-09-18T03:57:25Z</time></rtept><rtept lat="46.025183" lon="-114.301541"><ele>1641.6</ele><time>2026-09-18T03:57:25Z</time></rtept><rtept lat="46.025053" lon="-114.301715"><ele>1645.4</ele><time>2026-09-18T03:57:25Z</time></rtept><rtept lat="46.025041" lon="-114.301809"><ele>1645.2</ele><time>2026-09-18T03:57:25Z</time></rtept><rtept lat="46.025066" lon="-114.30211"><ele>1645.2</ele><time>2026-09-18T03:57:25Z</time></rtept><rtept lat="46.025019" lon="-114.302472"><ele>1646.6</ele><time>2026-09-18T03:57:25Z</time></rtept><rtept lat="46.024971" lon="-114.302778"><ele>1650.0</ele><time>2026-09-18T03:57:25Z</time></rtept><rtept lat="46.024979" lon="-114.30314"><ele>1650.4</ele><time>2026-09-18T03:57:25Z</time></rtept><rtept lat="46.024923" lon="-114.303839"><ele>1655.2</ele><time>2026-09-18T03:57:25Z</time></rtept><rtept lat="46.024926" lon="-114.304028"><ele>1656.2</ele><time>2026-09-18T03:57:25Z</time></rtept><rtept lat="46.024888" lon="-114.304196"><ele>1657.8</ele><time>2026-09-18T03:57:25Z</time></rtept><rtept lat="46.024901" lon="-114.304339"><ele>1659.0</ele><time>2026-09-18T03:57:25Z</time></rtept><rtept lat="46.024819" lon="-114.304864"><ele>1668.6</ele><time>2026-09-18T03:57:25Z</time></rtept><rtept lat="46.024805" lon="-114.304906"><ele>1668.6</ele><time>2026-09-18T03:57:25Z</time></rtept><rtept lat="46.024799" lon="-114.305009"><ele>1670.6</ele><time>2026-09-18T03:57:25Z</time></rtept><rtept lat="46.024839" lon="-114.305455"><ele>1675.4</ele><time>2026-09-18T03:57:25Z</time></rtept><rtept lat="46.024856" lon="-114.305523"><ele>1675.4</ele><time>2026-09-18T03:57:25Z</time></rtept><rtept lat="46.02487" lon="-114.305695"><ele>1675.8</ele><time>2026-09-18T03:57:25Z</time></rtept><rtept lat="46.024882" lon="-114.306119"><ele>1681.0</ele><time>2026-09-18T03:57:25Z</time></rtept><rtept lat="46.024819" lon="-114.306413"><ele>1686.6</ele><time>2026-09-18T03:57:25Z</time></rtept><rtept lat="46.024815" lon="-114.306473"><ele>1686.6</ele><time>2026-09-18T03:57:25Z</time></rtept><rtept lat="46.024832" lon="-114.306646"><ele>1688.6</ele><time>2026-09-18T03:57:25Z</time></rtept><rtept lat="46.024851" lon="-114.306785"><ele>1690.2</ele><time>2026-09-18T03:57:25Z</time></rtept><rtept lat="46.024879" lon="-114.306962"><ele>1690.4</ele><time>2026-09-18T03:57:25Z</time></rtept><rtept lat="46.02472" lon="-114.307361"><ele>1696.2</ele><time>2026-09-18T03:57:25Z</time></rtept><rtept lat="46.024707" lon="-114.307428"><ele>1696.6</ele><time>2026-09-18T03:57:25Z</time></rtept><rtept lat="46.02454" lon="-114.307834"><ele>1701.8</ele><time>2026-09-18T03:57:25Z</time></rtept><rtept lat="46.024497" lon="-114.308073"><ele>1705.0</ele><time>2026-09-18T03:57:25Z</time></rtept><rtept lat="46.024484" lon="-114.308151"><ele>1706.0</ele><time>2026-09-18T03:57:25Z</time></rtept><rtept lat="46.024488" lon="-114.308293"><ele>1708.2</ele><time>2026-09-18T03:57:25Z</time></rtept><rtept lat="46.024514" lon="-114.308713"><ele>1710.4</ele><time>2026-09-18T03:57:25Z</time></rtept><rtept lat="46.024488" lon="-114.308966"><ele>1712.0</ele><time>2026-09-18T03:57:25Z</time></rtept><rtept lat="46.024463" lon="-114.30911"><ele>1713.0</ele><time>2026-09-18T03:57:25Z</time></rtept><rtept lat="46.024369" lon="-114.309262"><ele>1716.2</ele><time>2026-09-18T03:57:25Z</time></rtept><rtept lat="46.024326" lon="-114.309361"><ele>1716.6</ele><time>2026-09-18T03:57:25Z</time></rtept><rtept lat="46.024307" lon="-114.309544"><ele>1718.6</ele><time>2026-09-18T03:57:25Z</time></rtept><rtept lat="46.024257" lon="-114.309697"><ele>1720.6</ele><time>2026-09-18T03:57:25Z</time></rtept><rtept lat="46.024189" lon="-114.309888"><ele>1722.8</ele><time>2026-09-18T03:57:25Z</time></rtept><rtept lat="46.024116" lon="-114.310139"><ele>1725.4</ele><time>2026-09-18T03:57:25Z</time></rtept><rtept lat="46.024006" lon="-114.31031"><ele>1730.4</ele><time>2026-09-18T03:57:25Z</time></rtept><rtept lat="46.023923" lon="-114.310474"><ele>1732.8</ele><time>2026-09-18T03:57:25Z</time></rtept><rtept lat="46.023906" lon="-114.310534"><ele>1734.4</ele><time>2026-09-18T03:57:25Z</time></rtept><rtept lat="46.023841" lon="-114.310814"><ele>1736.2</ele><time>2026-09-18T03:57:25Z</time></rtept><rtept lat="46.023837" lon="-114.310998"><ele>1736.2</ele><time>2026-09-18T03:57:25Z</time></rtept><rtept lat="46.023822" lon="-114.311139"><ele>1736.2</ele><time>2026-09-18T03:57:25Z</time></rtept><rtept lat="46.023772" lon="-114.311354"><ele>1737.6</ele><time>2026-09-18T03:57:25Z</time></rtept><rtept lat="46.023701" lon="-114.311471"><ele>1739.2</ele><time>2026-09-18T03:57:25Z</time></rtept><rtept lat="46.02361" lon="-114.311631"><ele>1741.0</ele><time>2026-09-18T03:57:25Z</time></rtept><rtept lat="46.023409" lon="-114.312147"><ele>1746.4</ele><time>2026-09-18T03:57:25Z</time></rtept><rtept lat="46.023367" lon="-114.312684"><ele>1750.8</ele><time>2026-09-18T03:57:25Z</time></rtept><rtept lat="46.023266" lon="-114.313111"><ele>1756.2</ele><time>2026-09-18T03:57:25Z</time></rtept><rtept lat="46.023144" lon="-114.313556"><ele>1763.4</ele><time>2026-09-18T03:57:25Z</time></rtept><rtept lat="46.02284" lon="-114.314067"><ele>1773.4</ele><time>2026-09-18T03:57:25Z</time></rtept><rtept lat="46.022845" lon="-114.314436"><ele>1778.0</ele><time>2026-09-18T03:57:25Z</time></rtept><rtept lat="46.022881" lon="-114.314501"><ele>1778.8</ele><time>2026-09-18T03:57:25Z</time></rtept><rtept lat="46.022877" lon="-114.314578"><ele>1779.4</ele><time>2026-09-18T03:57:25Z</time></rtept><rtept lat="46.022784" lon="-114.314725"><ele>1781.4</ele><time>2026-09-18T03:57:25Z</time></rtept><rtept lat="46.022765" lon="-114.314792"><ele>1782.6</ele><time>2026-09-18T03:57:25Z</time></rtept><rtept lat="46.022753" lon="-114.31494"><ele>1782.6</ele><time>2026-09-18T03:57:25Z</time></rtept><rtept lat="46.022726" lon="-114.315017"><ele>1782.4</ele><time>2026-09-18T03:57:25Z</time></rtept><rtept lat="46.022685" lon="-114.315105"><ele>1783.2</ele><time>2026-09-18T03:57:25Z</time></rtept><rtept lat="46.02263" lon="-114.315165"><ele>1784.2</ele><time>2026-09-18T03:57:25Z</time></rtept><rtept lat="46.022457" lon="-114.315318"><ele>1788.8</ele><time>2026-09-18T03:57:25Z</time></rtept><rtept lat="46.022381" lon="-114.315382"><ele>1790.6</ele><time>2026-09-18T03:57:25Z</time></rtept><rtept lat="46.022282" lon="-114.315518"><ele>1793.0</ele><time>2026-09-18T03:57:25Z</time></rtept><rtept lat="46.022234" lon="-114.315616"><ele>1793.4</ele><time>2026-09-18T03:57:25Z</time></rtept><rtept lat="46.02217" lon="-114.315821"><ele>1794.0</ele><time>2026-09-18T03:57:25Z</time></rtept><rtept lat="46.022136" lon="-114.315977"><ele>1796.0</ele><time>2026-09-18T03:57:25Z</time></rtept><rtept lat="46.022167" lon="-114.316251"><ele>1798.6</ele><time>2026-09-18T03:57:25Z</time></rtept><rtept lat="46.022184" lon="-114.316369"><ele>1798.4</ele><time>2026-09-18T03:57:25Z</time></rtept><rtept lat="46.022188" lon="-114.316463"><ele>1798.6</ele><time>2026-09-18T03:57:25Z</time></rtept><rtept lat="46.022172" lon="-114.316589"><ele>1800.2</ele><time>2026-09-18T03:57:25Z</time></rtept><rtept lat="46.022186" lon="-114.31669"><ele>1799.2</ele><time>2026-09-18T03:57:25Z</time></rtept><rtept lat="46.022193" lon="-114.316801"><ele>1799.8</ele><time>2026-09-18T03:57:25Z</time></rtept><rtept lat="46.022198" lon="-114.316986"><ele>1800.6</ele><time>2026-09-18T03:57:25Z</time></rtept><rtept lat="46.022251" lon="-114.317203"><ele>1801.2</ele><time>2026-09-18T03:57:25Z</time></rtept><rtept lat="46.022364" lon="-114.31763"><ele>1806.6</ele><time>2026-09-18T03:57:25Z</time></rtept><rtept lat="46.022496" lon="-114.317877"><ele>1811.4</ele><time>2026-09-18T03:57:25Z</time></rtept><rtept lat="46.022593" lon="-114.317979"><ele>1813.4</ele><time>2026-09-18T03:57:25Z</time></rtept><rtept lat="46.022516" lon="-114.318135"><ele>1818.6</ele><time>2026-09-18T03:57:25Z</time></rtept><rtept lat="46.022433" lon="-114.318415"><ele>1825.4</ele><time>2026-09-18T03:57:25Z</time></rtept><rtept lat="46.022199" lon="-114.31872"><ele>1832.8</ele><time>2026-09-18T03:57:25Z</time></rtept><rtept lat="46.022022" lon="-114.318951"><ele>1841.8</ele><time>2026-09-18T03:57:25Z</time></rtept><rtept lat="46.022004" lon="-114.319317"><ele>1845.8</ele><time>2026-09-18T03:57:25Z</time></rtept><rtept lat="46.022041" lon="-114.319615"><ele>1850.4</ele><time>2026-09-18T03:57:25Z</time></rtept><rtept lat="46.022095" lon="-114.319744"><ele>1850.8</ele><time>2026-09-18T03:57:25Z</time></rtept><rtept lat="46.022138" lon="-114.319878"><ele>1853.0</ele><time>2026-09-18T03:57:25Z</time></rtept><rtept lat="46.022209" lon="-114.320099"><ele>1855.4</ele><time>2026-09-18T03:57:25Z</time></rtept><rtept lat="46.02221" lon="-114.32025"><ele>1856.6</ele><time>2026-09-18T03:57:25Z</time></rtept><rtept lat="46.022167" lon="-114.320345"><ele>1857.0</ele><time>2026-09-18T03:57:25Z</time></rtept><rtept lat="46.022084" lon="-114.3208"><ele>1860.8</ele><time>2026-09-18T03:57:25Z</time></rtept><rtept lat="46.022102" lon="-114.320851"><ele>1861.6</ele><time>2026-09-18T03:57:25Z</time></rtept><rtept lat="46.022087" lon="-114.320931"><ele>1862.4</ele><time>2026-09-18T03:57:25Z</time></rtept><rtept lat="46.022029" lon="-114.321026"><ele>1864.0</ele><time>2026-09-18T03:57:25Z</time></rtept><rtept lat="46.021994" lon="-114.321171"><ele>1866.2</ele><time>2026-09-18T03:57:25Z</time></rtept><rtept lat="46.021936" lon="-114.321308"><ele>1867.6</ele><time>2026-09-18T03:57:25Z</time></rtept><rtept lat="46.021764" lon="-114.321675"><ele>1873.2</ele><time>2026-09-18T03:57:25Z</time></rtept><rtept lat="46.021754" lon="-114.322175"><ele>1879.2</ele><time>2026-09-18T03:57:25Z</time></rtept><rtept lat="46.021733" lon="-114.322426"><ele>1880.4</ele><time>2026-09-18T03:57:25Z</time></rtept><rtept lat="46.021784" lon="-114.32268"><ele>1879.2</ele><time>2026-09-18T03:57:25Z</time></rtept><rtept lat="46.021825" lon="-114.322885"><ele>1877.8</ele><time>2026-09-18T03:57:25Z</time></rtept><rtept lat="46.021777" lon="-114.323108"><ele>1879.8</ele><time>2026-09-18T03:57:25Z</time></rtept><rtept lat="46.021796" lon="-114.323324"><ele>1879.2</ele><time>2026-09-18T03:57:25Z</time></rtept><rtept lat="46.021665" lon="-114.323606"><ele>1876.8</ele><time>2026-09-18T03:57:25Z</time></rtept><rtept lat="46.02165" lon="-114.323769"><ele>1873.6</ele><time>2026-09-18T03:57:25Z</time></rtept><rtept lat="46.021651" lon="-114.324231"><ele>1871.8</ele><time>2026-09-18T03:57:25Z</time></rtept><rtept lat="46.021654" lon="-114.324375"><ele>1873.0</ele><time>2026-09-18T03:57:25Z</time></rtept><rtept lat="46.02163" lon="-114.324467"><ele>1875.4</ele><time>2026-09-18T03:57:25Z</time></rtept><rtept lat="46.021885" lon="-114.32501"><ele>1873.0</ele><time>2026-09-18T03:57:25Z</time></rtept><rtept lat="46.022027" lon="-114.325253"><ele>1873.0</ele><time>2026-09-18T03:57:25Z</time></rtept><rtept lat="46.022155" lon="-114.325525"><ele>1873.4</ele><time>2026-09-18T03:57:25Z</time></rtept><rtept lat="46.022222" lon="-114.325681"><ele>1874.2</ele><time>2026-09-18T03:57:25Z</time></rtept><rtept lat="46.022233" lon="-114.326006"><ele>1876.4</ele><time>2026-09-18T03:57:25Z</time></rtept><rtept lat="46.022276" lon="-114.326203"><ele>1877.0</ele><time>2026-09-18T03:57:25Z</time></rtept><rtept lat="46.022297" lon="-114.326411"><ele>1879.6</ele><time>2026-09-18T03:57:25Z</time></rtept><rtept lat="46.022331" lon="-114.326829"><ele>1884.6</ele><time>2026-09-18T03:57:25Z</time></rtept><rtept lat="46.022259" lon="-114.327211"><ele>1888.6</ele><time>2026-09-18T03:57:25Z</time></rtept><rtept lat="46.022296" lon="-114.327421"><ele>1890.6</ele><time>2026-09-18T03:57:25Z</time></rtept><rtept lat="46.022236" lon="-114.3275"><ele>1892.0</ele><time>2026-09-18T03:57:25Z</time></rtept><rtept lat="46.022345" lon="-114.327628"><ele>1893.0</ele><time>2026-09-18T03:57:25Z</time></rtept><rtept lat="46.022496" lon="-114.327873"><ele>1893.4</ele><time>2026-09-18T03:57:25Z</time></rtept><rtept lat="46.022545" lon="-114.327973"><ele>1893.2</ele><time>2026-09-18T03:57:25Z</time></rtept><rtept lat="46.022491" lon="-114.328233"><ele>1896.2</ele><time>2026-09-18T03:57:25Z</time></rtept><rtept lat="46.022556" lon="-114.3283"><ele>1896.2</ele><time>2026-09-18T03:57:25Z</time></rtept><rtept lat="46.022639" lon="-114.328264"><ele>1894.6</ele><time>2026-09-18T03:57:25Z</time></rtept><rtept lat="46.022681" lon="-114.32829"><ele>1894.8</ele><time>2026-09-18T03:57:25Z</time></rtept><rtept lat="46.022775" lon="-114.328404"><ele>1894.4</ele><time>2026-09-18T03:57:25Z</time></rtept><rtept lat="46.022772" lon="-114.328715"><ele>1898.6</ele><time>2026-09-18T03:57:25Z</time></rtept><rtept lat="46.022814" lon="-114.328892"><ele>1899.4</ele><time>2026-09-18T03:57:25Z</time></rtept><rtept lat="46.023063" lon="-114.329107"><ele>1899.0</ele><time>2026-09-18T03:57:25Z</time></rtept><rtept lat="46.02317" lon="-114.32944"><ele>1901.2</ele><time>2026-09-18T03:57:25Z</time></rtept><rtept lat="46.023215" lon="-114.329702"><ele>1902.8</ele><time>2026-09-18T03:57:25Z</time></rtept><rtept lat="46.023208" lon="-114.329972"><ele>1905.8</ele><time>2026-09-18T03:57:25Z</time></rtept><rtept lat="46.023301" lon="-114.330253"><ele>1909.8</ele><time>2026-09-18T03:57:25Z</time></rtept><rtept lat="46.023392" lon="-114.330487"><ele>1913.4</ele><time>2026-09-18T03:57:25Z</time></rtept><rtept lat="46.023534" lon="-114.330686"><ele>1918.6</ele><time>2026-09-18T03:57:25Z</time></rtept><rtept lat="46.023572" lon="-114.330808"><ele>1922.0</ele><time>2026-09-18T03:57:25Z</time></rtept><rtept lat="46.023659" lon="-114.330907"><ele>1924.6</ele><time>2026-09-18T03:57:25Z</time></rtept><rtept lat="46.023684" lon="-114.331014"><ele>1926.6</ele><time>2026-09-18T03:57:25Z</time></rtept><rtept lat="46.023595" lon="-114.331103"><ele>1927.0</ele><time>2026-09-18T03:57:25Z</time></rtept><rtept lat="46.023567" lon="-114.331171"><ele>1928.6</ele><time>2026-09-18T03:57:25Z</time></rtept><rtept lat="46.023616" lon="-114.3312"><ele>1930.6</ele><time>2026-09-18T03:57:25Z</time></rtept><rtept lat="46.023718" lon="-114.33117"><ele>1929.0</ele><time>2026-09-18T03:57:25Z</time></rtept><rtept lat="46.023928" lon="-114.331334"><ele>1934.6</ele><time>2026-09-18T03:57:25Z</time></rtept><rtept lat="46.023987" lon="-114.331324"><ele>1934.8</ele><time>2026-09-18T03:57:25Z</time></rtept><rtept lat="46.024031" lon="-114.33134"><ele>1934.8</ele><time>2026-09-18T03:57:25Z</time></rtept><rtept lat="46.024038" lon="-114.331467"><ele>1938.4</ele><time>2026-09-18T03:57:25Z</time></rtept><rtept lat="46.024049" lon="-114.331553"><ele>1939.6</ele><time>2026-09-18T03:57:25Z</time></rtept><rtept lat="46.024079" lon="-114.331652"><ele>1940.2</ele><time>2026-09-18T03:57:25Z</time></rtept><rtept lat="46.024101" lon="-114.331722"><ele>1940.0</ele><time>2026-09-18T03:57:25Z</time></rtept><rtept lat="46.02411" lon="-114.331792"><ele>1940.0</ele><time>2026-09-18T03:57:25Z</time></rtept><rtept lat="46.024095" lon="-114.33186"><ele>1940.0</ele><time>2026-09-18T03:57:25Z</time></rtept><rtept lat="46.024063" lon="-114.331891"><ele>1941.0</ele><time>2026-09-18T03:57:25Z</time></rtept><rtept lat="46.023939" lon="-114.332084"><ele>1942.0</ele><time>2026-09-18T03:57:25Z</time></rtept><rtept lat="46.023825" lon="-114.332314"><ele>1944.2</ele><time>2026-09-18T03:57:25Z</time></rtept><rtept lat="46.023534" lon="-114.332853"><ele>1954.0</ele><time>2026-09-18T03:57:25Z</time></rtept><rtept lat="46.023481" lon="-114.332904"><ele>1955.0</ele><time>2026-09-18T03:57:25Z</time></rtept><rtept lat="46.023456" lon="-114.333005"><ele>1955.8</ele><time>2026-09-18T03:57:25Z</time></rtept><rtept lat="46.023425" lon="-114.333078"><ele>1957.4</ele><time>2026-09-18T03:57:25Z</time></rtept><rtept lat="46.0234" lon="-114.333173"><ele>1957.8</ele><time>2026-09-18T03:57:25Z</time></rtept><rtept lat="46.023348" lon="-114.333252"><ele>1959.6</ele><time>2026-09-18T03:57:25Z</time></rtept><rtept lat="46.023291" lon="-114.333452"><ele>1960.2</ele><time>2026-09-18T03:57:25Z</time></rtept><rtept lat="46.023185" lon="-114.333799"><ele>1959.8</ele><time>2026-09-18T03:57:25Z</time></rtept><rtept lat="46.023099" lon="-114.333994"><ele>1960.2</ele><time>2026-09-18T03:57:25Z</time></rtept><rtept lat="46.023156" lon="-114.334222"><ele>1960.4</ele><time>2026-09-18T03:57:25Z</time></rtept><rtept lat="46.023157" lon="-114.334439"><ele>1962.4</ele><time>2026-09-18T03:57:25Z</time></rtept><rtept lat="46.023126" lon="-114.334555"><ele>1966.4</ele><time>2026-09-18T03:57:25Z</time></rtept><rtept lat="46.023223" lon="-114.334749"><ele>1970.0</ele><time>2026-09-18T03:57:25Z</time></rtept><rtept lat="46.023259" lon="-114.334859"><ele>1971.2</ele><time>2026-09-18T03:57:25Z</time></rtept><rtept lat="46.023282" lon="-114.334935"><ele>1973.0</ele><time>2026-09-18T03:57:25Z</time></rtept><rtept lat="46.023282" lon="-114.334989"><ele>1974.6</ele><time>2026-09-18T03:57:25Z</time></rtept><rtept lat="46.02334" lon="-114.335148"><ele>1974.8</ele><time>2026-09-18T03:57:25Z</time></rtept><rtept lat="46.023377" lon="-114.335337"><ele>1975.6</ele><time>2026-09-18T03:57:25Z</time></rtept><rtept lat="46.023393" lon="-114.335492"><ele>1978.2</ele><time>2026-09-18T03:57:25Z</time></rtept><rtept lat="46.023347" lon="-114.335678"><ele>1982.0</ele><time>2026-09-18T03:57:25Z</time></rtept><rtept lat="46.02335" lon="-114.335917"><ele>1984.4</ele><time>2026-09-18T03:57:25Z</time></rtept><rtept lat="46.023373" lon="-114.336061"><ele>1986.0</ele><time>2026-09-18T03:57:25Z</time></rtept><rtept lat="46.023375" lon="-114.336416"><ele>1989.8</ele><time>2026-09-18T03:57:25Z</time></rtept><rtept lat="46.023224" lon="-114.336478"><ele>1992.0</ele><time>2026-09-18T03:57:25Z</time></rtept><rtept lat="46.02317" lon="-114.336515"><ele>1993.6</ele><time>2026-09-18T03:57:25Z</time></rtept><rtept lat="46.023143" lon="-114.336586"><ele>1995.6</ele><time>2026-09-18T03:57:25Z</time></rtept><rtept lat="46.023101" lon="-114.336687"><ele>1998.4</ele><time>2026-09-18T03:57:25Z</time></rtept><rtept lat="46.023115" lon="-114.336928"><ele>1999.6</ele><time>2026-09-18T03:57:25Z</time></rtept><rtept lat="46.023143" lon="-114.337059"><ele>1999.2</ele><time>2026-09-18T03:57:25Z</time></rtept><rtept lat="46.023219" lon="-114.337147"><ele>1998.6</ele><time>2026-09-18T03:57:25Z</time></rtept><rtept lat="46.023337" lon="-114.337131"><ele>1997.2</ele><time>2026-09-18T03:57:25Z</time></rtept><rtept lat="46.023337" lon="-114.337131"><ele>1997.2</ele><time>2026-09-18T03:57:25Z</time></rtept><rtept lat="46.023219" lon="-114.337147"><ele>1998.6</ele><time>2026-09-18T03:57:25Z</time></rtept><rtept lat="46.023143" lon="-114.337059"><ele>1999.2</ele><time>2026-09-18T03:57:25Z</time></rtept><rtept lat="46.023115" lon="-114.336928"><ele>1999.6</ele><time>2026-09-18T03:57:25Z</time></rtept><rtept lat="46.023101" lon="-114.336687"><ele>1998.4</ele><time>2026-09-18T03:57:25Z</time></rtept><rtept lat="46.023143" lon="-114.336586"><ele>1995.6</ele><time>2026-09-18T03:57:25Z</time></rtept><rtept lat="46.02317" lon="-114.336515"><ele>1993.6</ele><time>2026-09-18T03:57:25Z</time></rtept><rtept lat="46.023224" lon="-114.336478"><ele>1992.0</ele><time>2026-09-18T03:57:25Z</time></rtept><rtept lat="46.023375" lon="-114.336416"><ele>1989.8</ele><time>2026-09-18T03:57:25Z</time></rtept><rtept lat="46.023373" lon="-114.336061"><ele>1986.0</ele><time>2026-09-18T03:57:25Z</time></rtept><rtept lat="46.02335" lon="-114.335917"><ele>1984.4</ele><time>2026-09-18T03:57:25Z</time></rtept><rtept lat="46.023347" lon="-114.335678"><ele>1982.0</ele><time>2026-09-18T03:57:25Z</time></rtept><rtept lat="46.023393" lon="-114.335492"><ele>1978.2</ele><time>2026-09-18T03:57:25Z</time></rtept><rtept lat="46.023377" lon="-114.335337"><ele>1975.6</ele><time>2026-09-18T03:57:25Z</time></rtept><rtept lat="46.02334" lon="-114.335148"><ele>1974.8</ele><time>2026-09-18T03:57:25Z</time></rtept><rtept lat="46.023282" lon="-114.334989"><ele>1974.6</ele><time>2026-09-18T03:57:25Z</time></rtept><rtept lat="46.023282" lon="-114.334935"><ele>1973.0</ele><time>2026-09-18T03:57:25Z</time></rtept><rtept lat="46.023259" lon="-114.334859"><ele>1971.2</ele><time>2026-09-18T03:57:25Z</time></rtept><rtept lat="46.023223" lon="-114.334749"><ele>1970.0</ele><time>2026-09-18T03:57:25Z</time></rtept><rtept lat="46.023126" lon="-114.334555"><ele>1966.4</ele><time>2026-09-18T03:57:25Z</time></rtept><rtept lat="46.023157" lon="-114.334439"><ele>1962.4</ele><time>2026-09-18T03:57:25Z</time></rtept><rtept lat="46.023156" lon="-114.334222"><ele>1960.4</ele><time>2026-09-18T03:57:25Z</time></rtept><rtept lat="46.023099" lon="-114.333994"><ele>1960.2</ele><time>2026-09-18T03:57:25Z</time></rtept><rtept lat="46.023185" lon="-114.333799"><ele>1959.8</ele><time>2026-09-18T03:57:25Z</time></rtept><rtept lat="46.023291" lon="-114.333452"><ele>1960.2</ele><time>2026-09-18T03:57:25Z</time></rtept><rtept lat="46.023348" lon="-114.333252"><ele>1959.6</ele><time>2026-09-18T03:57:25Z</time></rtept><rtept lat="46.0234" lon="-114.333173"><ele>1957.8</ele><time>2026-09-18T03:57:25Z</time></rtept><rtept lat="46.023425" lon="-114.333078"><ele>1957.4</ele><time>2026-09-18T03:57:25Z</time></rtept><rtept lat="46.023456" lon="-114.333005"><ele>1955.8</ele><time>2026-09-18T03:57:25Z</time></rtept><rtept lat="46.023481" lon="-114.332904"><ele>1955.0</ele><time>2026-09-18T03:57:25Z</time></rtept><rtept lat="46.023534" lon="-114.332853"><ele>1954.0</ele><time>2026-09-18T03:57:25Z</time></rtept><rtept lat="46.023825" lon="-114.332314"><ele>1944.2</ele><time>2026-09-18T03:57:25Z</time></rtept><rtept lat="46.023939" lon="-114.332084"><ele>1942.0</ele><time>2026-09-18T03:57:25Z</time></rtept><rtept lat="46.024063" lon="-114.331891"><ele>1941.0</ele><time>2026-09-18T03:57:25Z</time></rtept><rtept lat="46.024095" lon="-114.33186"><ele>1940.0</ele><time>2026-09-18T03:57:25Z</time></rtept><rtept lat="46.02411" lon="-114.331792"><ele>1940.0</ele><time>2026-09-18T03:57:25Z</time></rtept><rtept lat="46.024101" lon="-114.331722"><ele>1940.0</ele><time>2026-09-18T03:57:25Z</time></rtept><rtept lat="46.024079" lon="-114.331652"><ele>1940.2</ele><time>2026-09-18T03:57:25Z</time></rtept><rtept lat="46.024049" lon="-114.331553"><ele>1939.6</ele><time>2026-09-18T03:57:25Z</time></rtept><rtept lat="46.024038" lon="-114.331467"><ele>1938.4</ele><time>2026-09-18T03:57:25Z</time></rtept><rtept lat="46.024031" lon="-114.33134"><ele>1934.8</ele><time>2026-09-18T03:57:25Z</time></rtept><rtept lat="46.023987" lon="-114.331324"><ele>1934.8</ele><time>2026-09-18T03:57:25Z</time></rtept><rtept lat="46.023928" lon="-114.331334"><ele>1934.6</ele><time>2026-09-18T03:57:25Z</time></rtept><rtept lat="46.023718" lon="-114.33117"><ele>1929.0</ele><time>2026-09-18T03:57:25Z</time></rtept><rtept lat="46.023616" lon="-114.3312"><ele>1930.6</ele><time>2026-09-18T03:57:25Z</time></rtept><rtept lat="46.023567" lon="-114.331171"><ele>1928.6</ele><time>2026-09-18T03:57:25Z</time></rtept><rtept lat="46.023595" lon="-114.331103"><ele>1927.0</ele><time>2026-09-18T03:57:25Z</time></rtept><rtept lat="46.023684" lon="-114.331014"><ele>1926.6</ele><time>2026-09-18T03:57:25Z</time></rtept><rtept lat="46.023659" lon="-114.330907"><ele>1924.6</ele><time>2026-09-18T03:57:25Z</time></rtept><rtept lat="46.023572" lon="-114.330808"><ele>1922.0</ele><time>2026-09-18T03:57:25Z</time></rtept><rtept lat="46.023534" lon="-114.330686"><ele>1918.6</ele><time>2026-09-18T03:57:25Z</time></rtept><rtept lat="46.023392" lon="-114.330487"><ele>1913.4</ele><time>2026-09-18T03:57:25Z</time></rtept><rtept lat="46.023301" lon="-114.330253"><ele>1909.8</ele><time>2026-09-18T03:57:25Z</time></rtept><rtept lat="46.023208" lon="-114.329972"><ele>1905.8</ele><time>2026-09-18T03:57:25Z</time></rtept><rtept lat="46.023215" lon="-114.329702"><ele>1902.8</ele><time>2026-09-18T03:57:25Z</time></rtept><rtept lat="46.02317" lon="-114.32944"><ele>1901.2</ele><time>2026-09-18T03:57:25Z</time></rtept><rtept lat="46.023063" lon="-114.329107"><ele>1899.0</ele><time>2026-09-18T03:57:25Z</time></rtept><rtept lat="46.022814" lon="-114.328892"><ele>1899.4</ele><time>2026-09-18T03:57:25Z</time></rtept><rtept lat="46.022772" lon="-114.328715"><ele>1898.6</ele><time>2026-09-18T03:57:25Z</time></rtept><rtept lat="46.022775" lon="-114.328404"><ele>1894.4</ele><time>2026-09-18T03:57:25Z</time></rtept><rtept lat="46.022681" lon="-114.32829"><ele>1894.8</ele><time>2026-09-18T03:57:25Z</time></rtept><rtept lat="46.022639" lon="-114.328264"><ele>1894.6</ele><time>2026-09-18T03:57:25Z</time></rtept><rtept lat="46.022556" lon="-114.3283"><ele>1896.2</ele><time>2026-09-18T03:57:25Z</time></rtept><rtept lat="46.022491" lon="-114.328233"><ele>1896.2</ele><time>2026-09-18T03:57:25Z</time></rtept><rtept lat="46.022545" lon="-114.327973"><ele>1893.2</ele><time>2026-09-18T03:57:25Z</time></rtept><rtept lat="46.022496" lon="-114.327873"><ele>1893.4</ele><time>2026-09-18T03:57:25Z</time></rtept><rtept lat="46.022345" lon="-114.327628"><ele>1893.0</ele><time>2026-09-18T03:57:25Z</time></rtept><rtept lat="46.022236" lon="-114.3275"><ele>1892.0</ele><time>2026-09-18T03:57:25Z</time></rtept><rtept lat="46.022296" lon="-114.327421"><ele>1890.6</ele><time>2026-09-18T03:57:25Z</time></rtept><rtept lat="46.022259" lon="-114.327211"><ele>1888.6</ele><time>2026-09-18T03:57:25Z</time></rtept><rtept lat="46.022331" lon="-114.326829"><ele>1884.6</ele><time>2026-09-18T03:57:25Z</time></rtept><rtept lat="46.022297" lon="-114.326411"><ele>1879.6</ele><time>2026-09-18T03:57:25Z</time></rtept><rtept lat="46.022276" lon="-114.326203"><ele>1877.0</ele><time>2026-09-18T03:57:25Z</time></rtept><rtept lat="46.022233" lon="-114.326006"><ele>1876.4</ele><time>2026-09-18T03:57:25Z</time></rtept><rtept lat="46.022222" lon="-114.325681"><ele>1874.2</ele><time>2026-09-18T03:57:25Z</time></rtept><rtept lat="46.022155" lon="-114.325525"><ele>1873.4</ele><time>2026-09-18T03:57:25Z</time></rtept><rtept lat="46.022027" lon="-114.325253"><ele>1873.0</ele><time>2026-09-18T03:57:25Z</time></rtept><rtept lat="46.021885" lon="-114.32501"><ele>1873.0</ele><time>2026-09-18T03:57:25Z</time></rtept><rtept lat="46.02163" lon="-114.324467"><ele>1875.4</ele><time>2026-09-18T03:57:25Z</time></rtept><rtept lat="46.021654" lon="-114.324375"><ele>1873.0</ele><time>2026-09-18T03:57:25Z</time></rtept><rtept lat="46.021651" lon="-114.324231"><ele>1871.8</ele><time>2026-09-18T03:57:25Z</time></rtept><rtept lat="46.02165" lon="-114.323769"><ele>1873.6</ele><time>2026-09-18T03:57:25Z</time></rtept><rtept lat="46.021665" lon="-114.323606"><ele>1876.8</ele><time>2026-09-18T03:57:25Z</time></rtept><rtept lat="46.021796" lon="-114.323324"><ele>1879.2</ele><time>2026-09-18T03:57:25Z</time></rtept><rtept lat="46.021777" lon="-114.323108"><ele>1879.8</ele><time>2026-09-18T03:57:25Z</time></rtept><rtept lat="46.021825" lon="-114.322885"><ele>1877.8</ele><time>2026-09-18T03:57:25Z</time></rtept><rtept lat="46.021784" lon="-114.32268"><ele>1879.2</ele><time>2026-09-18T03:57:25Z</time></rtept><rtept lat="46.021733" lon="-114.322426"><ele>1880.4</ele><time>2026-09-18T03:57:25Z</time></rtept><rtept lat="46.021754" lon="-114.322175"><ele>1879.2</ele><time>2026-09-18T03:57:25Z</time></rtept><rtept lat="46.021764" lon="-114.321675"><ele>1873.2</ele><time>2026-09-18T03:57:25Z</time></rtept><rtept lat="46.021936" lon="-114.321308"><ele>1867.6</ele><time>2026-09-18T03:57:25Z</time></rtept><rtept lat="46.021994" lon="-114.321171"><ele>1866.2</ele><time>2026-09-18T03:57:25Z</time></rtept><rtept lat="46.022029" lon="-114.321026"><ele>1864.0</ele><time>2026-09-18T03:57:25Z</time></rtept><rtept lat="46.022087" lon="-114.320931"><ele>1862.4</ele><time>2026-09-18T03:57:25Z</time></rtept><rtept lat="46.022102" lon="-114.320851"><ele>1861.6</ele><time>2026-09-18T03:57:25Z</time></rtept><rtept lat="46.022084" lon="-114.3208"><ele>1860.8</ele><time>2026-09-18T03:57:25Z</time></rtept><rtept lat="46.022167" lon="-114.320345"><ele>1857.0</ele><time>2026-09-18T03:57:25Z</time></rtept><rtept lat="46.02221" lon="-114.32025"><ele>1856.6</ele><time>2026-09-18T03:57:25Z</time></rtept><rtept lat="46.022209" lon="-114.320099"><ele>1855.4</ele><time>2026-09-18T03:57:25Z</time></rtept><rtept lat="46.022138" lon="-114.319878"><ele>1853.0</ele><time>2026-09-18T03:57:25Z</time></rtept><rtept lat="46.022095" lon="-114.319744"><ele>1850.8</ele><time>2026-09-18T03:57:25Z</time></rtept><rtept lat="46.022041" lon="-114.319615"><ele>1850.4</ele><time>2026-09-18T03:57:25Z</time></rtept><rtept lat="46.022004" lon="-114.319317"><ele>1845.8</ele><time>2026-09-18T03:57:25Z</time></rtept><rtept lat="46.022022" lon="-114.318951"><ele>1841.8</ele><time>2026-09-18T03:57:25Z</time></rtept><rtept lat="46.022199" lon="-114.31872"><ele>1832.8</ele><time>2026-09-18T03:57:25Z</time></rtept><rtept lat="46.022433" lon="-114.318415"><ele>1825.4</ele><time>2026-09-18T03:57:25Z</time></rtept><rtept lat="46.022516" lon="-114.318135"><ele>1818.6</ele><time>2026-09-18T03:57:25Z</time></rtept><rtept lat="46.022593" lon="-114.317979"><ele>1813.4</ele><time>2026-09-18T03:57:25Z</time></rtept><rtept lat="46.022496" lon="-114.317877"><ele>1811.4</ele><time>2026-09-18T03:57:25Z</time></rtept><rtept lat="46.022364" lon="-114.31763"><ele>1806.6</ele><time>2026-09-18T03:57:25Z</time></rtept><rtept lat="46.022251" lon="-114.317203"><ele>1801.2</ele><time>2026-09-18T03:57:25Z</time></rtept><rtept lat="46.022198" lon="-114.316986"><ele>1800.6</ele><time>2026-09-18T03:57:25Z</time></rtept><rtept lat="46.022193" lon="-114.316801"><ele>1799.8</ele><time>2026-09-18T03:57:25Z</time></rtept><rtept lat="46.022186" lon="-114.31669"><ele>1799.2</ele><time>2026-09-18T03:57:25Z</time></rtept><rtept lat="46.022172" lon="-114.316589"><ele>1800.2</ele><time>2026-09-18T03:57:25Z</time></rtept><rtept lat="46.022188" lon="-114.316463"><ele>1798.6</ele><time>2026-09-18T03:57:25Z</time></rtept><rtept lat="46.022184" lon="-114.316369"><ele>1798.4</ele><time>2026-09-18T03:57:25Z</time></rtept><rtept lat="46.022167" lon="-114.316251"><ele>1798.6</ele><time>2026-09-18T03:57:25Z</time></rtept><rtept lat="46.022136" lon="-114.315977"><ele>1796.0</ele><time>2026-09-18T03:57:25Z</time></rtept><rtept lat="46.02217" lon="-114.315821"><ele>1794.0</ele><time>2026-09-18T03:57:25Z</time></rtept><rtept lat="46.022234" lon="-114.315616"><ele>1793.4</ele><time>2026-09-18T03:57:25Z</time></rtept><rtept lat="46.022282" lon="-114.315518"><ele>1793.0</ele><time>2026-09-18T03:57:25Z</time></rtept><rtept lat="46.022381" lon="-114.315382"><ele>1790.6</ele><time>2026-09-18T03:57:25Z</time></rtept><rtept lat="46.022457" lon="-114.315318"><ele>1788.8</ele><time>2026-09-18T03:57:25Z</time></rtept><rtept lat="46.02263" lon="-114.315165"><ele>1784.2</ele><time>2026-09-18T03:57:25Z</time></rtept><rtept lat="46.022685" lon="-114.315105"><ele>1783.2</ele><time>2026-09-18T03:57:25Z</time></rtept><rtept lat="46.022726" lon="-114.315017"><ele>1782.4</ele><time>2026-09-18T03:57:25Z</time></rtept><rtept lat="46.022753" lon="-114.31494"><ele>1782.6</ele><time>2026-09-18T03:57:25Z</time></rtept><rtept lat="46.022765" lon="-114.314792"><ele>1782.6</ele><time>2026-09-18T03:57:25Z</time></rtept><rtept lat="46.022784" lon="-114.314725"><ele>1781.4</ele><time>2026-09-18T03:57:25Z</time></rtept><rtept lat="46.022877" lon="-114.314578"><ele>1779.4</ele><time>2026-09-18T03:57:25Z</time></rtept><rtept lat="46.022881" lon="-114.314501"><ele>1778.8</ele><time>2026-09-18T03:57:25Z</time></rtept><rtept lat="46.022845" lon="-114.314436"><ele>1778.0</ele><time>2026-09-18T03:57:25Z</time></rtept><rtept lat="46.02284" lon="-114.314067"><ele>1773.4</ele><time>2026-09-18T03:57:25Z</time></rtept><rtept lat="46.023144" lon="-114.313556"><ele>1763.4</ele><time>2026-09-18T03:57:25Z</time></rtept><rtept lat="46.023266" lon="-114.313111"><ele>1756.2</ele><time>2026-09-18T03:57:25Z</time></rtept><rtept lat="46.023367" lon="-114.312684"><ele>1750.8</ele><time>2026-09-18T03:57:25Z</time></rtept><rtept lat="46.023409" lon="-114.312147"><ele>1746.4</ele><time>2026-09-18T03:57:25Z</time></rtept><rtept lat="46.02361" lon="-114.311631"><ele>1741.0</ele><time>2026-09-18T03:57:25Z</time></rtept><rtept lat="46.023701" lon="-114.311471"><ele>1739.2</ele><time>2026-09-18T03:57:25Z</time></rtept><rtept lat="46.023772" lon="-114.311354"><ele>1737.6</ele><time>2026-09-18T03:57:25Z</time></rtept><rtept lat="46.023822" lon="-114.311139"><ele>1736.2</ele><time>2026-09-18T03:57:25Z</time></rtept><rtept lat="46.023837" lon="-114.310998"><ele>1736.2</ele><time>2026-09-18T03:57:25Z</time></rtept><rtept lat="46.023841" lon="-114.310814"><ele>1736.2</ele><time>2026-09-18T03:57:25Z</time></rtept><rtept lat="46.023906" lon="-114.310534"><ele>1734.4</ele><time>2026-09-18T03:57:25Z</time></rtept><rtept lat="46.023923" lon="-114.310474"><ele>1732.8</ele><time>2026-09-18T03:57:25Z</time></rtept><rtept lat="46.024006" lon="-114.31031"><ele>1730.4</ele><time>2026-09-18T03:57:25Z</time></rtept><rtept lat="46.024116" lon="-114.310139"><ele>1725.4</ele><time>2026-09-18T03:57:25Z</time></rtept><rtept lat="46.024189" lon="-114.309888"><ele>1722.8</ele><time>2026-09-18T03:57:25Z</time></rtept><rtept lat="46.024257" lon="-114.309697"><ele>1720.6</ele><time>2026-09-18T03:57:25Z</time></rtept><rtept lat="46.024307" lon="-114.309544"><ele>1718.6</ele><time>2026-09-18T03:57:25Z</time></rtept><rtept lat="46.024326" lon="-114.309361"><ele>1716.6</ele><time>2026-09-18T03:57:25Z</time></rtept><rtept lat="46.024369" lon="-114.309262"><ele>1716.2</ele><time>2026-09-18T03:57:25Z</time></rtept><rtept lat="46.024463" lon="-114.30911"><ele>1713.0</ele><time>2026-09-18T03:57:25Z</time></rtept><rtept lat="46.024488" lon="-114.308966"><ele>1712.0</ele><time>2026-09-18T03:57:25Z</time></rtept><rtept lat="46.024514" lon="-114.308713"><ele>1710.4</ele><time>2026-09-18T03:57:25Z</time></rtept><rtept lat="46.024488" lon="-114.308293"><ele>1708.2</ele><time>2026-09-18T03:57:25Z</time></rtept><rtept lat="46.024484" lon="-114.308151"><ele>1706.0</ele><time>2026-09-18T03:57:25Z</time></rtept><rtept lat="46.024497" lon="-114.308073"><ele>1705.0</ele><time>2026-09-18T03:57:25Z</time></rtept><rtept lat="46.02454" lon="-114.307834"><ele>1701.8</ele><time>2026-09-18T03:57:25Z</time></rtept><rtept lat="46.024707" lon="-114.307428"><ele>1696.6</ele><time>2026-09-18T03:57:25Z</time></rtept><rtept lat="46.02472" lon="-114.307361"><ele>1696.2</ele><time>2026-09-18T03:57:25Z</time></rtept><rtept lat="46.024879" lon="-114.306962"><ele>1690.4</ele><time>2026-09-18T03:57:25Z</time></rtept><rtept lat="46.024851" lon="-114.306785"><ele>1690.2</ele><time>2026-09-18T03:57:25Z</time></rtept><rtept lat="46.024832" lon="-114.306646"><ele>1688.6</ele><time>2026-09-18T03:57:25Z</time></rtept><rtept lat="46.024815" lon="-114.306473"><ele>1686.6</ele><time>2026-09-18T03:57:25Z</time></rtept><rtept lat="46.024819" lon="-114.306413"><ele>1686.6</ele><time>2026-09-18T03:57:25Z</time></rtept><rtept lat="46.024882" lon="-114.306119"><ele>1681.0</ele><time>2026-09-18T03:57:25Z</time></rtept><rtept lat="46.02487" lon="-114.305695"><ele>1675.8</ele><time>2026-09-18T03:57:25Z</time></rtept><rtept lat="46.024856" lon="-114.305523"><ele>1675.4</ele><time>2026-09-18T03:57:25Z</time></rtept><rtept lat="46.024839" lon="-114.305455"><ele>1675.4</ele><time>2026-09-18T03:57:25Z</time></rtept><rtept lat="46.024799" lon="-114.305009"><ele>1670.6</ele><time>2026-09-18T03:57:25Z</time></rtept><rtept lat="46.024805" lon="-114.304906"><ele>1668.6</ele><time>2026-09-18T03:57:25Z</time></rtept><rtept lat="46.024819" lon="-114.304864"><ele>1668.6</ele><time>2026-09-18T03:57:25Z</time></rtept><rtept lat="46.024901" lon="-114.304339"><ele>1659.0</ele><time>2026-09-18T03:57:25Z</time></rtept><rtept lat="46.024888" lon="-114.304196"><ele>1657.8</ele><time>2026-09-18T03:57:25Z</time></rtept><rtept lat="46.024926" lon="-114.304028"><ele>1656.2</ele><time>2026-09-18T03:57:25Z</time></rtept><rtept lat="46.024923" lon="-114.303839"><ele>1655.2</ele><time>2026-09-18T03:57:25Z</time></rtept><rtept lat="46.024979" lon="-114.30314"><ele>1650.4</ele><time>2026-09-18T03:57:25Z</time></rtept><rtept lat="46.024971" lon="-114.302778"><ele>1650.0</ele><time>2026-09-18T03:57:25Z</time></rtept><rtept lat="46.025019" lon="-114.302472"><ele>1646.6</ele><time>2026-09-18T03:57:25Z</time></rtept><rtept lat="46.025066" lon="-114.30211"><ele>1645.2</ele><time>2026-09-18T03:57:25Z</time></rtept><rtept lat="46.025041" lon="-114.301809"><ele>1645.2</ele><time>2026-09-18T03:57:25Z</time></rtept><rtept lat="46.025053" lon="-114.301715"><ele>1645.4</ele><time>2026-09-18T03:57:25Z</time></rtept><rtept lat="46.025183" lon="-114.301541"><ele>1641.6</ele><time>2026-09-18T03:57:25Z</time></rtept><rtept lat="46.025269" lon="-114.301376"><ele>1640.0</ele><time>2026-09-18T03:57:25Z</time></rtept><rtept lat="46.025275" lon="-114.30132"><ele>1640.2</ele><time>2026-09-18T03:57:25Z</time></rtept><rtept lat="46.02535" lon="-114.301054"><ele>1638.2</ele><time>2026-09-18T03:57:25Z</time></rtept><rtept lat="46.025379" lon="-114.300893"><ele>1639.0</ele><time>2026-09-18T03:57:25Z</time></rtept><rtept lat="46.025407" lon="-114.300752"><ele>1638.0</ele><time>2026-09-18T03:57:25Z</time></rtept><rtept lat="46.02553" lon="-114.300479"><ele>1636.0</ele><time>2026-09-18T03:57:25Z</time></rtept><rtept lat="46.025565" lon="-114.300394"><ele>1636.6</ele><time>2026-09-18T03:57:25Z</time></rtept><rtept lat="46.025667" lon="-114.300224"><ele>1633.6</ele><time>2026-09-18T03:57:25Z</time></rtept><rtept lat="46.025936" lon="-114.300067"><ele>1624.6</ele><time>2026-09-18T03:57:25Z</time></rtept><rtept lat="46.026011" lon="-114.299869"><ele>1624.2</ele><time>2026-09-18T03:57:25Z</time></rtept><rtept lat="46.026118" lon="-114.299687"><ele>1620.4</ele><time>2026-09-18T03:57:25Z</time></rtept><rtept lat="46.026376" lon="-114.299271"><ele>1612.8</ele><time>2026-09-18T03:57:25Z</time></rtept><rtept lat="46.026394" lon="-114.299144"><ele>1613.4</ele><time>2026-09-18T03:57:25Z</time></rtept><rtept lat="46.026368" lon="-114.298983"><ele>1613.6</ele><time>2026-09-18T03:57:25Z</time></rtept><rtept lat="46.026379" lon="-114.298819"><ele>1613.4</ele><time>2026-09-18T03:57:25Z</time></rtept><rtept lat="46.026367" lon="-114.298665"><ele>1612.4</ele><time>2026-09-18T03:57:25Z</time></rtept><rtept lat="46.026379" lon="-114.298559"><ele>1611.6</ele><time>2026-09-18T03:57:25Z</time></rtept><rtept lat="46.026403" lon="-114.298483"><ele>1610.6</ele><time>2026-09-18T03:57:25Z</time></rtept><rtept lat="46.026451" lon="-114.298435"><ele>1609.2</ele><time>2026-09-18T03:57:25Z</time></rtept><rtept lat="46.026577" lon="-114.298158"><ele>1603.4</ele><time>2026-09-18T03:57:25Z</time></rtept><rtept lat="46.026613" lon="-114.298029"><ele>1600.6</ele><time>2026-09-18T03:57:25Z</time></rtept><rtept lat="46.026742" lon="-114.297722"><ele>1597.2</ele><time>2026-09-18T03:57:25Z</time></rtept><rtept lat="46.027005" lon="-114.297558"><ele>1591.8</ele><time>2026-09-18T03:57:25Z</time></rtept><rtept lat="46.027157" lon="-114.29724"><ele>1588.8</ele><time>2026-09-18T03:57:25Z</time></rtept><rtept lat="46.027266" lon="-114.297174"><ele>1586.2</ele><time>2026-09-18T03:57:25Z</time></rtept><rtept lat="46.027327" lon="-114.29699"><ele>1585.0</ele><time>2026-09-18T03:57:25Z</time></rtept><rtept lat="46.027704" lon="-114.296725"><ele>1575.4</ele><time>2026-09-18T03:57:25Z</time></rtept><rtept lat="46.027861" lon="-114.296417"><ele>1571.2</ele><time>2026-09-18T03:57:25Z</time></rtept><rtept lat="46.027942" lon="-114.296302"><ele>1569.8</ele><time>2026-09-18T03:57:25Z</time></rtept><rtept lat="46.027972" lon="-114.295994"><ele>1569.0</ele><time>2026-09-18T03:57:25Z</time></rtept><rtept lat="46.028181" lon="-114.29565"><ele>1567.6</ele><time>2026-09-18T03:57:25Z</time></rtept><rtept lat="46.028235" lon="-114.295373"><ele>1568.2</ele><time>2026-09-18T03:57:25Z</time></rtept><rtept lat="46.028322" lon="-114.29516"><ele>1567.4</ele><time>2026-09-18T03:57:25Z</time></rtept><rtept lat="46.02871" lon="-114.294591"><ele>1561.6</ele><time>2026-09-18T03:57:25Z</time></rtept><rtept lat="46.028868" lon="-114.294502"><ele>1556.4</ele><time>2026-09-18T03:57:25Z</time></rtept><rtept lat="46.028942" lon="-114.29436"><ele>1555.8</ele><time>2026-09-18T03:57:25Z</time></rtept><rtept lat="46.029089" lon="-114.294201"><ele>1554.4</ele><time>2026-09-18T03:57:25Z</time></rtept><rtept lat="46.029164" lon="-114.293857"><ele>1554.4</ele><time>2026-09-18T03:57:25Z</time></rtept><rtept lat="46.029225" lon="-114.293727"><ele>1553.4</ele><time>2026-09-18T03:57:25Z</time></rtept><rtept lat="46.029206" lon="-114.293457"><ele>1558.0</ele><time>2026-09-18T03:57:25Z</time></rtept><rtept lat="46.029456" lon="-114.293334"><ele>1548.8</ele><time>2026-09-18T03:57:25Z</time></rtept><rtept lat="46.029515" lon="-114.29305"><ele>1548.4</ele><time>2026-09-18T03:57:25Z</time></rtept><rtept lat="46.029639" lon="-114.292841"><ele>1548.4</ele><time>2026-09-18T03:57:25Z</time></rtept><rtept lat="46.030136" lon="-114.292681"><ele>1543.4</ele><time>2026-09-18T03:57:25Z</time></rtept><rtept lat="46.030391" lon="-114.292426"><ele>1542.4</ele><time>2026-09-18T03:57:25Z</time></rtept><rtept lat="46.03053" lon="-114.292334"><ele>1539.4</ele><time>2026-09-18T03:57:25Z</time></rtept><rtept lat="46.030699" lon="-114.292223"><ele>1538.6</ele><time>2026-09-18T03:57:25Z</time></rtept><rtept lat="46.030834" lon="-114.291831"><ele>1537.2</ele><time>2026-09-18T03:57:25Z</time></rtept><rtept lat="46.030831" lon="-114.291704"><ele>1537.8</ele><time>2026-09-18T03:57:25Z</time></rtept><rtept lat="46.030841" lon="-114.29145"><ele>1539.6</ele><time>2026-09-18T03:57:25Z</time></rtept><rtept lat="46.030885" lon="-114.291384"><ele>1537.6</ele><time>2026-09-18T03:57:25Z</time></rtept><rtept lat="46.030918" lon="-114.291254"><ele>1541.8</ele><time>2026-09-18T03:57:25Z</time></rtept><rtept lat="46.030933" lon="-114.29097"><ele>1551.0</ele><time>2026-09-18T03:57:25Z</time></rtept><rtept lat="46.031048" lon="-114.290921"><ele>1547.6</ele><time>2026-09-18T03:57:25Z</time></rtept><rtept lat="46.031173" lon="-114.29076"><ele>1550.0</ele><time>2026-09-18T03:57:25Z</time></rtept><rtept lat="46.031304" lon="-114.290699"><ele>1550.2</ele><time>2026-09-18T03:57:25Z</time></rtept><rtept lat="46.031441" lon="-114.290644"><ele>1552.0</ele><time>2026-09-18T03:57:25Z</time></rtept><rtept lat="46.031566" lon="-114.290532"><ele>1552.2</ele><time>2026-09-18T03:57:25Z</time></rtept><rtept lat="46.031665" lon="-114.290473"><ele>1550.6</ele><time>2026-09-18T03:57:25Z</time></rtept><rtept lat="46.031742" lon="-114.290536"><ele>1546.6</ele><time>2026-09-18T03:57:25Z</time></rtept><rtept lat="46.031822" lon="-114.290529"><ele>1543.4</ele><time>2026-09-18T03:57:25Z</time></rtept><rtept lat="46.031935" lon="-114.290432"><ele>1539.6</ele><time>2026-09-18T03:57:25Z</time></rtept><rtept lat="46.031999" lon="-114.290387"><ele>1538.2</ele><time>2026-09-18T03:57:25Z</time></rtept><rtept lat="46.03212" lon="-114.290274"><ele>1534.6</ele><time>2026-09-18T03:57:25Z</time></rtept><rtept lat="46.032296" lon="-114.290247"><ele>1529.8</ele><time>2026-09-18T03:57:25Z</time></rtept><rtept lat="46.032321" lon="-114.290222"><ele>1528.4</ele><time>2026-09-18T03:57:25Z</time></rtept><rtept lat="46.03233" lon="-114.290166"><ele>1529.2</ele><time>2026-09-18T03:57:25Z</time></rtept><rtept lat="46.032462" lon="-114.289613"><ele>1530.4</ele><time>2026-09-18T03:57:25Z</time></rtept><rtept lat="46.032599" lon="-114.289333"><ele>1526.2</ele><time>2026-09-18T03:57:25Z</time></rtept><rtept lat="46.03278" lon="-114.289225"><ele>1522.6</ele><time>2026-09-18T03:57:25Z</time></rtept><rtept lat="46.032981" lon="-114.288731"><ele>1520.2</ele><time>2026-09-18T03:57:25Z</time></rtept><rtept lat="46.033152" lon="-114.288318"><ele>1517.4</ele><time>2026-09-18T03:57:25Z</time></rtept><rtept lat="46.033261" lon="-114.288019"><ele>1516.4</ele><time>2026-09-18T03:57:25Z</time></rtept><rtept lat="46.033367" lon="-114.287855"><ele>1513.6</ele><time>2026-09-18T03:57:25Z</time></rtept><rtept lat="46.033557" lon="-114.287568"><ele>1510.6</ele><time>2026-09-18T03:57:25Z</time></rtept><rtept lat="46.033584" lon="-114.287476"><ele>1510.0</ele><time>2026-09-18T03:57:25Z</time></rtept><rtept lat="46.03371" lon="-114.287284"><ele>1508.6</ele><time>2026-09-18T03:57:25Z</time></rtept><rtept lat="46.033755" lon="-114.287176"><ele>1507.8</ele><time>2026-09-18T03:57:25Z</time></rtept><rtept lat="46.03391" lon="-114.287143"><ele>1506.2</ele><time>2026-09-18T03:57:25Z</time></rtept><rtept lat="46.034116" lon="-114.2871"><ele>1502.8</ele><time>2026-09-18T03:57:25Z</time></rtept><rtept lat="46.034205" lon="-114.286846"><ele>1501.8</ele><time>2026-09-18T03:57:25Z</time></rtept><rtept lat="46.034279" lon="-114.286718"><ele>1499.8</ele><time>2026-09-18T03:57:25Z</time></rtept><rtept lat="46.034286" lon="-114.286546"><ele>1499.6</ele><time>2026-09-18T03:57:25Z</time></rtept><rtept lat="46.034206" lon="-114.286271"><ele>1500.6</ele><time>2026-09-18T03:57:25Z</time></rtept><rtept lat="46.034221" lon="-114.286049"><ele>1498.6</ele><time>2026-09-18T03:57:25Z</time></rtept><rtept lat="46.034118" lon="-114.285897"><ele>1499.8</ele><time>2026-09-18T03:57:25Z</time></rtept><rtept lat="46.034159" lon="-114.285727"><ele>1498.4</ele><time>2026-09-18T03:57:25Z</time></rtept><rtept lat="46.034231" lon="-114.285533"><ele>1497.4</ele><time>2026-09-18T03:57:25Z</time></rtept><rtept lat="46.03422" lon="-114.285336"><ele>1497.6</ele><time>2026-09-18T03:57:25Z</time></rtept><rtept lat="46.034243" lon="-114.28519"><ele>1497.8</ele><time>2026-09-18T03:57:25Z</time></rtept><rtept lat="46.034134" lon="-114.284642"><ele>1499.8</ele><time>2026-09-18T03:57:25Z</time></rtept><rtept lat="46.034206" lon="-114.284291"><ele>1500.0</ele><time>2026-09-18T03:57:25Z</time></rtept><rtept lat="46.034318" lon="-114.284216"><ele>1499.2</ele><time>2026-09-18T03:57:25Z</time></rtept><rtept lat="46.034349" lon="-114.284027"><ele>1499.0</ele><time>2026-09-18T03:57:25Z</time></rtept><rtept lat="46.034541" lon="-114.283955"><ele>1497.6</ele><time>2026-09-18T03:57:25Z</time></rtept><rtept lat="46.034578" lon="-114.283892"><ele>1497.2</ele><time>2026-09-18T03:57:25Z</time></rtept><rtept lat="46.034543" lon="-114.283699"><ele>1498.4</ele><time>2026-09-18T03:57:25Z</time></rtept><rtept lat="46.034618" lon="-114.283558"><ele>1498.6</ele><time>2026-09-18T03:57:25Z</time></rtept><rtept lat="46.034733" lon="-114.283461"><ele>1498.0</ele><time>2026-09-18T03:57:25Z</time></rtept><rtept lat="46.034785" lon="-114.283399"><ele>1497.4</ele><time>2026-09-18T03:57:25Z</time></rtept><rtept lat="46.034992" lon="-114.283186"><ele>1497.0</ele><time>2026-09-18T03:57:25Z</time></rtept><rtept lat="46.035184" lon="-114.283001"><ele>1496.8</ele><time>2026-09-18T03:57:25Z</time></rtept><rtept lat="46.035318" lon="-114.282753"><ele>1497.6</ele><time>2026-09-18T03:57:25Z</time></rtept><rtept lat="46.035432" lon="-114.282383"><ele>1499.0</ele><time>2026-09-18T03:57:25Z</time></rtept><rtept lat="46.035515" lon="-114.282191"><ele>1499.8</ele><time>2026-09-18T03:57:25Z</time></rtept><rtept lat="46.035604" lon="-114.282095"><ele>1500.4</ele><time>2026-09-18T03:57:25Z</time></rtept><rtept lat="46.035673" lon="-114.28203"><ele>1499.8</ele><time>2026-09-18T03:57:25Z</time></rtept><rtept lat="46.035721" lon="-114.281947"><ele>1499.8</ele><time>2026-09-18T03:57:25Z</time></rtept><rtept lat="46.035826" lon="-114.281654"><ele>1500.8</ele><time>2026-09-18T03:57:25Z</time></rtept><rtept lat="46.035915" lon="-114.281346"><ele>1499.4</ele><time>2026-09-18T03:57:25Z</time></rtept><rtept lat="46.035929" lon="-114.281052"><ele>1498.0</ele><time>2026-09-18T03:57:25Z</time></rtept><rtept lat="46.035992" lon="-114.280854"><ele>1496.0</ele><time>2026-09-18T03:57:25Z</time></rtept><rtept lat="46.035979" lon="-114.280494"><ele>1502.6</ele><time>2026-09-18T03:57:25Z</time></rtept><rtept lat="46.036011" lon="-114.280237"><ele>1505.8</ele><time>2026-09-18T03:57:25Z</time></rtept><rtept lat="46.036069" lon="-114.280081"><ele>1506.0</ele><time>2026-09-18T03:57:25Z</time></rtept><rtept lat="46.036089" lon="-114.279914"><ele>1507.2</ele><time>2026-09-18T03:57:25Z</time></rtept><rtept lat="46.036099" lon="-114.279766"><ele>1508.0</ele><time>2026-09-18T03:57:25Z</time></rtept><rtept lat="46.036068" lon="-114.279704"><ele>1508.0</ele><time>2026-09-18T03:57:25Z</time></rtept><rtept lat="46.036058" lon="-114.279627"><ele>1510.2</ele><time>2026-09-18T03:57:25Z</time></rtept><rtept lat="46.036065" lon="-114.279436"><ele>1509.2</ele><time>2026-09-18T03:57:25Z</time></rtept><rtept lat="46.036031" lon="-114.279332"><ele>1511.6</ele><time>2026-09-18T03:57:25Z</time></rtept><rtept lat="46.036033" lon="-114.279132"><ele>1513.4</ele><time>2026-09-18T03:57:25Z</time></rtept><rtept lat="46.036098" lon="-114.278855"><ele>1514.4</ele><time>2026-09-18T03:57:25Z</time></rtept><rtept lat="46.036099" lon="-114.278689"><ele>1517.2</ele><time>2026-09-18T03:57:25Z</time></rtept><rtept lat="46.036157" lon="-114.278555"><ele>1517.8</ele><time>2026-09-18T03:57:25Z</time></rtept><rtept lat="46.036196" lon="-114.278195"><ele>1522.8</ele><time>2026-09-18T03:57:25Z</time></rtept><rtept lat="46.036262" lon="-114.277971"><ele>1530.4</ele><time>2026-09-18T03:57:25Z</time></rtept><rtept lat="46.03637" lon="-114.277688"><ele>1534.4</ele><time>2026-09-18T03:57:25Z</time></rtept><rtept lat="46.036582" lon="-114.277391"><ele>1534.6</ele><time>2026-09-18T03:57:25Z</time></rtept><rtept lat="46.036855" lon="-114.277"><ele>1534.8</ele><time>2026-09-18T03:57:25Z</time></rtept><rtept lat="46.037218" lon="-114.276564"><ele>1533.2</ele><time>2026-09-18T03:57:25Z</time></rtept><rtept lat="46.037292" lon="-114.276426"><ele>1535.6</ele><time>2026-09-18T03:57:25Z</time></rtept><rtept lat="46.037336" lon="-114.276295"><ele>1535.2</ele><time>2026-09-18T03:57:25Z</time></rtept><rtept lat="46.037541" lon="-114.276268"><ele>1527.4</ele><time>2026-09-18T03:57:25Z</time></rtept><rtept lat="46.037651" lon="-114.276135"><ele>1528.2</ele><time>2026-09-18T03:57:25Z</time></rtept><rtept lat="46.037756" lon="-114.27606"><ele>1526.4</ele><time>2026-09-18T03:57:25Z</time></rtept><rtept lat="46.037801" lon="-114.276026"><ele>1524.2</ele><time>2026-09-18T03:57:25Z</time></rtept><rtept lat="46.037877" lon="-114.275874"><ele>1527.4</ele><time>2026-09-18T03:57:25Z</time></rtept><rtept lat="46.038062" lon="-114.275653"><ele>1530.6</ele><time>2026-09-18T03:57:25Z</time></rtept><rtept lat="46.038188" lon="-114.275428"><ele>1533.4</ele><time>2026-09-18T03:57:25Z</time></rtept><rtept lat="46.038269" lon="-114.275387"><ele>1533.0</ele><time>2026-09-18T03:57:25Z</time></rtept><rtept lat="46.038325" lon="-114.275334"><ele>1533.0</ele><time>2026-09-18T03:57:25Z</time></rtept><rtept lat="46.038533" lon="-114.275017"><ele>1541.0</ele><time>2026-09-18T03:57:25Z</time></rtept><rtept lat="46.038607" lon="-114.274904"><ele>1543.4</ele><time>2026-09-18T03:57:25Z</time></rtept><rtept lat="46.038872" lon="-114.274607"><ele>1554.0</ele><time>2026-09-18T03:57:25Z</time></rtept><rtept lat="46.038968" lon="-114.274457"><ele>1561.8</ele><time>2026-09-18T03:57:25Z</time></rtept><rtept lat="46.039056" lon="-114.274411"><ele>1559.4</ele><time>2026-09-18T03:57:25Z</time></rtept><rtept lat="46.039089" lon="-114.274387"><ele>1559.4</ele><time>2026-09-18T03:57:25Z</time></rtept><rtept lat="46.03933" lon="-114.274047"><ele>1571.2</ele><time>2026-09-18T03:57:25Z</time></rtept><rtept lat="46.039355" lon="-114.273997"><ele>1574.0</ele><time>2026-09-18T03:57:25Z</time></rtept><rtept lat="46.03944" lon="-114.273892"><ele>1576.6</ele><time>2026-09-18T03:57:25Z</time></rtept><rtept lat="46.039473" lon="-114.273874"><ele>1575.6</ele><time>2026-09-18T03:57:25Z</time></rtept><rtept lat="46.039503" lon="-114.273847"><ele>1579.2</ele><time>2026-09-18T03:57:25Z</time></rtept><rtept lat="46.039555" lon="-114.273772"><ele>1581.8</ele><time>2026-09-18T03:57:25Z</time></rtept><rtept lat="46.039571" lon="-114.273755"><ele>1581.8</ele><time>2026-09-18T03:57:25Z</time></rtept><rtept lat="46.039618" lon="-114.273702"><ele>1580.8</ele><time>2026-09-18T03:57:25Z</time></rtept><rtept lat="46.039704" lon="-114.273639"><ele>1582.4</ele><time>2026-09-18T03:57:25Z</time></rtept><rtept lat="46.039732" lon="-114.273604"><ele>1586.6</ele><time>2026-09-18T03:57:25Z</time></rtept><rtept lat="46.039755" lon="-114.273565"><ele>1586.6</ele><time>2026-09-18T03:57:25Z</time></rtept><rtept lat="46.039793" lon="-114.273528"><ele>1585.2</ele><time>2026-09-18T03:57:25Z</time></rtept><rtept lat="46.039815" lon="-114.27351"><ele>1589.4</ele><time>2026-09-18T03:57:25Z</time></rtept><rtept lat="46.039914" lon="-114.273434"><ele>1584.2</ele><time>2026-09-18T03:57:25Z</time></rtept><rtept lat="46.040013" lon="-114.273172"><ele>1590.2</ele><time>2026-09-18T03:57:25Z</time></rtept><rtept lat="46.040071" lon="-114.273023"><ele>1590.2</ele><time>2026-09-18T03:57:25Z</time></rtept><rtept lat="46.040124" lon="-114.272745"><ele>1600.2</ele><time>2026-09-18T03:57:25Z</time></rtept><rtept lat="46.040192" lon="-114.272644"><ele>1601.6</ele><time>2026-09-18T03:57:25Z</time></rtept><rtept lat="46.040276" lon="-114.272544"><ele>1603.2</ele><time>2026-09-18T03:57:25Z</time></rtept><rtept lat="46.040393" lon="-114.272334"><ele>1606.0</ele><time>2026-09-18T03:57:25Z</time></rtept><rtept lat="46.040492" lon="-114.272141"><ele>1607.0</ele><time>2026-09-18T03:57:25Z</time></rtept><rtept lat="46.040489" lon="-114.272038"><ele>1607.8</ele><time>2026-09-18T03:57:25Z</time></rtept><rtept lat="46.040446" lon="-114.271946"><ele>1611.2</ele><time>2026-09-18T03:57:25Z</time></rtept><rtept lat="46.040488" lon="-114.271853"><ele>1608.6</ele><time>2026-09-18T03:57:25Z</time></rtept><rtept lat="46.040503" lon="-114.271685"><ele>1608.8</ele><time>2026-09-18T03:57:25Z</time></rtept><rtept lat="46.040482" lon="-114.271518"><ele>1609.0</ele><time>2026-09-18T03:57:25Z</time></rtept><rtept lat="46.040457" lon="-114.271477"><ele>1611.6</ele><time>2026-09-18T03:57:25Z</time></rtept><rtept lat="46.04045" lon="-114.271439"><ele>1611.6</ele><time>2026-09-18T03:57:25Z</time></rtept><rtept lat="46.040446" lon="-114.271402"><ele>1611.6</ele><time>2026-09-18T03:57:25Z</time></rtept><rtept lat="46.040432" lon="-114.271341"><ele>1611.8</ele><time>2026-09-18T03:57:25Z</time></rtept><rtept lat="46.040412" lon="-114.271277"><ele>1614.2</ele><time>2026-09-18T03:57:25Z</time></rtept><rtept lat="46.040377" lon="-114.271006"><ele>1613.2</ele><time>2026-09-18T03:57:25Z</time></rtept><rtept lat="46.040414" lon="-114.270854"><ele>1611.4</ele><time>2026-09-18T03:57:25Z</time></rtept><rtept lat="46.040499" lon="-114.270598"><ele>1608.8</ele><time>2026-09-18T03:57:25Z</time></rtept><rtept lat="46.040537" lon="-114.270437"><ele>1605.8</ele><time>2026-09-18T03:57:25Z</time></rtept><rtept lat="46.040628" lon="-114.270175"><ele>1602.4</ele><time>2026-09-18T03:57:25Z</time></rtept><rtept lat="46.040666" lon="-114.269794"><ele>1601.2</ele><time>2026-09-18T03:57:25Z</time></rtept><rtept lat="46.040712" lon="-114.269622"><ele>1600.8</ele><time>2026-09-18T03:57:25Z</time></rtept><rtept lat="46.040679" lon="-114.26916"><ele>1601.0</ele><time>2026-09-18T03:57:25Z</time></rtept><rtept lat="46.040673" lon="-114.268724"><ele>1599.6</ele><time>2026-09-18T03:57:25Z</time></rtept><rtept lat="46.040712" lon="-114.268548"><ele>1598.8</ele><time>2026-09-18T03:57:25Z</time></rtept><rtept lat="46.040792" lon="-114.26842"><ele>1595.8</ele><time>2026-09-18T03:57:25Z</time></rtept><rtept lat="46.040912" lon="-114.268264"><ele>1587.0</ele><time>2026-09-18T03:57:25Z</time></rtept><rtept lat="46.040926" lon="-114.268131"><ele>1585.4</ele><time>2026-09-18T03:57:25Z</time></rtept><rtept lat="46.040897" lon="-114.267964"><ele>1583.2</ele><time>2026-09-18T03:57:25Z</time></rtept><rtept lat="46.040873" lon="-114.26779"><ele>1585.6</ele><time>2026-09-18T03:57:25Z</time></rtept><rtept lat="46.040883" lon="-114.267642"><ele>1585.8</ele><time>2026-09-18T03:57:25Z</time></rtept><rtept lat="46.040934" lon="-114.267377"><ele>1584.8</ele><time>2026-09-18T03:57:25Z</time></rtept><rtept lat="46.041027" lon="-114.267054"><ele>1581.2</ele><time>2026-09-18T03:57:25Z</time></rtept><rtept lat="46.041037" lon="-114.266849"><ele>1581.2</ele><time>2026-09-18T03:57:25Z</time></rtept><rtept lat="46.041035" lon="-114.266793"><ele>1581.2</ele><time>2026-09-18T03:57:25Z</time></rtept></rte></gpx>