<?xml version="1.0" ?><gpx xmlns="http://www.topografix.com/GPX/1/1" creator="GaiaGPS" version="1.1" xmlns:xsi="http://www.w3.org/2001/XMLSchema-instance" xsi:schemaLocation="http://www.topografix.com/GPX/1/1 http://www.topografix.com/GPX/1/1/gpx.xsd"><wpt lat="39.04470518459337" lon="-79.60685364787072"><time>2026-09-18T14:32:04Z</time><name>Loop Start/End</name><sym>car-24</sym></wpt><wpt lat="39.009560748888276" lon="-79.61638038649626"><time>2026-09-18T14:35:06Z</time><name>Night 1 Campsite</name><sym>emoji-⛺</sym></wpt><wpt lat="38.97220504538163" lon="-79.63767718343942"><time>2026-09-18T14:39:18Z</time><name>Camp Night 2</name><sym>emoji-⛺</sym></wpt><rte><name>Loop Route</name><desc></desc><extensions><line xmlns="http://www.topografix.com/GPX/gpx_style/0/2"><color>F42410</color></line></extensions><rtept lat="39.044557" lon="-79.60687"><ele>559.8</ele><time>2026-09-18T14:34:04Z</time></rtept><rtept lat="39.044578" lon="-79.606871"><ele>559.8</ele><time>2026-09-18T14:34:04Z</time></rtept><rtept lat="39.044518" lon="-79.606876"><ele>559.6</ele><time>2026-09-18T14:34:04Z</time></rtept><rtept lat="39.044353" lon="-79.606898"><ele>559.6</ele><time>2026-09-18T14:34:04Z</time></rtept><rtept lat="39.04427" lon="-79.606994"><ele>558.0</ele><time>2026-09-18T14:34:04Z</time></rtept><rtept lat="39.044162" lon="-79.607123"><ele>553.4</ele><time>2026-09-18T14:34:04Z</time></rtept><rtept lat="39.044012" lon="-79.607225"><ele>550.8</ele><time>2026-09-18T14:34:04Z</time></rtept><rtept lat="39.043928" lon="-79.607402"><ele>547.6</ele><time>2026-09-18T14:34:04Z</time></rtept><rtept lat="39.043874" lon="-79.607595"><ele>545.6</ele><time>2026-09-18T14:34:04Z</time></rtept><rtept lat="39.043749" lon="-79.607686"><ele>544.8</ele><time>2026-09-18T14:34:04Z</time></rtept><rtept lat="39.043599" lon="-79.607708"><ele>544.2</ele><time>2026-09-18T14:34:04Z</time></rtept><rtept lat="39.043374" lon="-79.607815"><ele>543.8</ele><time>2026-09-18T14:34:04Z</time></rtept><rtept lat="39.043193" lon="-79.607872"><ele>543.4</ele><time>2026-09-18T14:34:04Z</time></rtept><rtept lat="39.043037" lon="-79.607952"><ele>543.8</ele><time>2026-09-18T14:34:04Z</time></rtept><rtept lat="39.042908" lon="-79.607982"><ele>544.4</ele><time>2026-09-18T14:34:04Z</time></rtept><rtept lat="39.042637" lon="-79.608013"><ele>543.0</ele><time>2026-09-18T14:34:04Z</time></rtept><rtept lat="39.042557" lon="-79.608129"><ele>541.8</ele><time>2026-09-18T14:34:04Z</time></rtept><rtept lat="39.042334" lon="-79.608399"><ele>540.2</ele><time>2026-09-18T14:34:04Z</time></rtept><rtept lat="39.042213" lon="-79.608501"><ele>547.4</ele><time>2026-09-18T14:34:04Z</time></rtept><rtept lat="39.042374" lon="-79.60884"><ele>552.4</ele><time>2026-09-18T14:34:04Z</time></rtept><rtept lat="39.042333" lon="-79.608931"><ele>550.8</ele><time>2026-09-18T14:34:04Z</time></rtept><rtept lat="39.042212" lon="-79.609146"><ele>552.2</ele><time>2026-09-18T14:34:04Z</time></rtept><rtept lat="39.042045" lon="-79.609462"><ele>553.6</ele><time>2026-09-18T14:34:04Z</time></rtept><rtept lat="39.042045" lon="-79.609462"><ele>553.6</ele><time>2026-09-18T14:34:04Z</time></rtept><rtept lat="39.042012" lon="-79.609526"><ele>550.6</ele><time>2026-09-18T14:34:04Z</time></rtept><rtept lat="39.041833" lon="-79.609886"><ele>548.8</ele><time>2026-09-18T14:34:04Z</time></rtept><rtept lat="39.041754" lon="-79.610326"><ele>544.6</ele><time>2026-09-18T14:34:04Z</time></rtept><rtept lat="39.041729" lon="-79.610782"><ele>545.4</ele><time>2026-09-18T14:34:04Z</time></rtept><rtept lat="39.041774" lon="-79.610959"><ele>545.8</ele><time>2026-09-18T14:34:04Z</time></rtept><rtept lat="39.041808" lon="-79.611088"><ele>546.0</ele><time>2026-09-18T14:34:04Z</time></rtept><rtept lat="39.041979" lon="-79.611651"><ele>548.0</ele><time>2026-09-18T14:34:04Z</time></rtept><rtept lat="39.042074" lon="-79.612021"><ele>549.6</ele><time>2026-09-18T14:34:04Z</time></rtept><rtept lat="39.042054" lon="-79.612246"><ele>550.2</ele><time>2026-09-18T14:34:04Z</time></rtept><rtept lat="39.042016" lon="-79.612573"><ele>550.4</ele><time>2026-09-18T14:34:04Z</time></rtept><rtept lat="39.042103" lon="-79.613239"><ele>551.6</ele><time>2026-09-18T14:34:04Z</time></rtept><rtept lat="39.04217" lon="-79.613823"><ele>552.2</ele><time>2026-09-18T14:34:04Z</time></rtept><rtept lat="39.042091" lon="-79.614145"><ele>552.8</ele><time>2026-09-18T14:34:04Z</time></rtept><rtept lat="39.042024" lon="-79.614376"><ele>554.2</ele><time>2026-09-18T14:34:04Z</time></rtept><rtept lat="39.041783" lon="-79.614735"><ele>560.8</ele><time>2026-09-18T14:34:04Z</time></rtept><rtept lat="39.041137" lon="-79.615368"><ele>560.6</ele><time>2026-09-18T14:34:04Z</time></rtept><rtept lat="39.040631" lon="-79.61584"><ele>562.6</ele><time>2026-09-18T14:34:04Z</time></rtept><rtept lat="39.040625" lon="-79.615846"><ele>562.6</ele><time>2026-09-18T14:34:04Z</time></rtept><rtept lat="39.040329" lon="-79.616114"><ele>559.6</ele><time>2026-09-18T14:34:04Z</time></rtept><rtept lat="39.040224" lon="-79.616224"><ele>557.6</ele><time>2026-09-18T14:34:04Z</time></rtept><rtept lat="39.039954" lon="-79.616511"><ele>559.0</ele><time>2026-09-18T14:34:04Z</time></rtept><rtept lat="39.039583" lon="-79.61686"><ele>564.6</ele><time>2026-09-18T14:34:04Z</time></rtept><rtept lat="39.039379" lon="-79.617203"><ele>565.2</ele><time>2026-09-18T14:34:04Z</time></rtept><rtept lat="39.039221" lon="-79.617493"><ele>561.8</ele><time>2026-09-18T14:34:04Z</time></rtept><rtept lat="39.039175" lon="-79.617578"><ele>562.4</ele><time>2026-09-18T14:34:04Z</time></rtept><rtept lat="39.038868" lon="-79.618179"><ele>565.6</ele><time>2026-09-18T14:34:04Z</time></rtept><rtept lat="39.038805" lon="-79.618549"><ele>566.6</ele><time>2026-09-18T14:34:04Z</time></rtept><rtept lat="39.038848" lon="-79.618947"><ele>565.8</ele><time>2026-09-18T14:34:04Z</time></rtept><rtept lat="39.038848" lon="-79.618947"><ele>565.8</ele><time>2026-09-18T14:34:04Z</time></rtept><rtept lat="39.038849" lon="-79.618957"><ele>565.8</ele><time>2026-09-18T14:34:04Z</time></rtept><rtept lat="39.038941" lon="-79.619231"><ele>565.2</ele><time>2026-09-18T14:34:04Z</time></rtept><rtept lat="39.039041" lon="-79.61959"><ele>579.0</ele><time>2026-09-18T14:34:04Z</time></rtept><rtept lat="39.039166" lon="-79.619847"><ele>568.0</ele><time>2026-09-18T14:34:04Z</time></rtept><rtept lat="39.039379" lon="-79.620084"><ele>576.0</ele><time>2026-09-18T14:34:04Z</time></rtept><rtept lat="39.039541" lon="-79.620175"><ele>571.2</ele><time>2026-09-18T14:34:04Z</time></rtept><rtept lat="39.039904" lon="-79.620282"><ele>568.4</ele><time>2026-09-18T14:34:04Z</time></rtept><rtept lat="39.040216" lon="-79.620395"><ele>569.2</ele><time>2026-09-18T14:34:04Z</time></rtept><rtept lat="39.040479" lon="-79.62062"><ele>570.2</ele><time>2026-09-18T14:34:04Z</time></rtept><rtept lat="39.040916" lon="-79.620947"><ele>573.6</ele><time>2026-09-18T14:34:04Z</time></rtept><rtept lat="39.041341" lon="-79.621344"><ele>571.8</ele><time>2026-09-18T14:34:04Z</time></rtept><rtept lat="39.041574" lon="-79.621768"><ele>572.8</ele><time>2026-09-18T14:34:04Z</time></rtept><rtept lat="39.041779" lon="-79.622176"><ele>573.2</ele><time>2026-09-18T14:34:04Z</time></rtept><rtept lat="39.041995" lon="-79.622648"><ele>573.0</ele><time>2026-09-18T14:34:04Z</time></rtept><rtept lat="39.042458" lon="-79.62363"><ele>575.0</ele><time>2026-09-18T14:34:04Z</time></rtept><rtept lat="39.042649" lon="-79.624134"><ele>578.0</ele><time>2026-09-18T14:34:04Z</time></rtept><rtept lat="39.042812" lon="-79.624729"><ele>576.6</ele><time>2026-09-18T14:34:04Z</time></rtept><rtept lat="39.042824" lon="-79.625126"><ele>579.0</ele><time>2026-09-18T14:34:04Z</time></rtept><rtept lat="39.042895" lon="-79.625544"><ele>579.8</ele><time>2026-09-18T14:34:04Z</time></rtept><rtept lat="39.042933" lon="-79.626065"><ele>580.6</ele><time>2026-09-18T14:34:04Z</time></rtept><rtept lat="39.043041" lon="-79.626634"><ele>581.0</ele><time>2026-09-18T14:34:04Z</time></rtept><rtept lat="39.043116" lon="-79.627358"><ele>582.6</ele><time>2026-09-18T14:34:04Z</time></rtept><rtept lat="39.043199" lon="-79.627942"><ele>583.4</ele><time>2026-09-18T14:34:04Z</time></rtept><rtept lat="39.043237" lon="-79.62837"><ele>585.0</ele><time>2026-09-18T14:34:04Z</time></rtept><rtept lat="39.04327" lon="-79.628828"><ele>584.2</ele><time>2026-09-18T14:34:04Z</time></rtept><rtept lat="39.043166" lon="-79.629294"><ele>586.8</ele><time>2026-09-18T14:34:04Z</time></rtept><rtept lat="39.043091" lon="-79.629616"><ele>589.0</ele><time>2026-09-18T14:34:04Z</time></rtept><rtept lat="39.042953" lon="-79.629985"><ele>596.0</ele><time>2026-09-18T14:34:04Z</time></rtept><rtept lat="39.04284" lon="-79.630554"><ele>598.0</ele><time>2026-09-18T14:34:04Z</time></rtept><rtept lat="39.042702" lon="-79.63127"><ele>594.0</ele><time>2026-09-18T14:34:04Z</time></rtept><rtept lat="39.042608" lon="-79.63187"><ele>591.2</ele><time>2026-09-18T14:34:04Z</time></rtept><rtept lat="39.04262" lon="-79.632341"><ele>591.8</ele><time>2026-09-18T14:34:04Z</time></rtept><rtept lat="39.042699" lon="-79.632867"><ele>594.0</ele><time>2026-09-18T14:34:04Z</time></rtept><rtept lat="39.042858" lon="-79.633532"><ele>594.6</ele><time>2026-09-18T14:34:04Z</time></rtept><rtept lat="39.043003" lon="-79.633918"><ele>597.0</ele><time>2026-09-18T14:34:04Z</time></rtept><rtept lat="39.043103" lon="-79.634278"><ele>598.6</ele><time>2026-09-18T14:34:04Z</time></rtept><rtept lat="39.043166" lon="-79.634584"><ele>596.6</ele><time>2026-09-18T14:34:04Z</time></rtept><rtept lat="39.043133" lon="-79.634932"><ele>595.6</ele><time>2026-09-18T14:34:04Z</time></rtept><rtept lat="39.042999" lon="-79.635265"><ele>595.8</ele><time>2026-09-18T14:34:04Z</time></rtept><rtept lat="39.042795" lon="-79.63564"><ele>597.6</ele><time>2026-09-18T14:34:04Z</time></rtept><rtept lat="39.042566" lon="-79.636225"><ele>604.0</ele><time>2026-09-18T14:34:04Z</time></rtept><rtept lat="39.042466" lon="-79.636697"><ele>604.8</ele><time>2026-09-18T14:34:04Z</time></rtept><rtept lat="39.042471" lon="-79.636776"><ele>604.4</ele><time>2026-09-18T14:34:04Z</time></rtept><rtept lat="39.042463" lon="-79.637329"><ele>602.0</ele><time>2026-09-18T14:34:04Z</time></rtept><rtept lat="39.04257" lon="-79.638289"><ele>606.2</ele><time>2026-09-18T14:34:04Z</time></rtept><rtept lat="39.042531" lon="-79.638609"><ele>608.2</ele><time>2026-09-18T14:34:04Z</time></rtept><rtept lat="39.042385" lon="-79.639676"><ele>611.2</ele><time>2026-09-18T14:34:04Z</time></rtept><rtept lat="39.042404" lon="-79.640624"><ele>607.8</ele><time>2026-09-18T14:34:04Z</time></rtept><rtept lat="39.042241" lon="-79.641386"><ele>609.6</ele><time>2026-09-18T14:34:04Z</time></rtept><rtept lat="39.042045" lon="-79.64197"><ele>610.4</ele><time>2026-09-18T14:34:04Z</time></rtept><rtept lat="39.041741" lon="-79.642582"><ele>611.0</ele><time>2026-09-18T14:34:04Z</time></rtept><rtept lat="39.041266" lon="-79.643043"><ele>614.4</ele><time>2026-09-18T14:34:04Z</time></rtept><rtept lat="39.040891" lon="-79.643252"><ele>621.0</ele><time>2026-09-18T14:34:04Z</time></rtept><rtept lat="39.040683" lon="-79.643633"><ele>620.8</ele><time>2026-09-18T14:34:04Z</time></rtept><rtept lat="39.040554" lon="-79.644053"><ele>627.6</ele><time>2026-09-18T14:34:04Z</time></rtept><rtept lat="39.040553" lon="-79.644597"><ele>626.0</ele><time>2026-09-18T14:34:04Z</time></rtept><rtept lat="39.040657" lon="-79.644855"><ele>622.4</ele><time>2026-09-18T14:34:04Z</time></rtept><rtept lat="39.040816" lon="-79.645087"><ele>620.4</ele><time>2026-09-18T14:34:04Z</time></rtept><rtept lat="39.04097" lon="-79.645393"><ele>622.2</ele><time>2026-09-18T14:34:04Z</time></rtept><rtept lat="39.041237" lon="-79.645962"><ele>622.6</ele><time>2026-09-18T14:34:04Z</time></rtept><rtept lat="39.041658" lon="-79.64668"><ele>623.6</ele><time>2026-09-18T14:34:04Z</time></rtept><rtept lat="39.042033" lon="-79.647581"><ele>623.8</ele><time>2026-09-18T14:34:04Z</time></rtept><rtept lat="39.042137" lon="-79.647925"><ele>623.8</ele><time>2026-09-18T14:34:04Z</time></rtept><rtept lat="39.042156" lon="-79.648216"><ele>623.6</ele><time>2026-09-18T14:34:04Z</time></rtept><rtept lat="39.042156" lon="-79.648216"><ele>623.6</ele><time>2026-09-18T14:34:04Z</time></rtept><rtept lat="39.042162" lon="-79.6483"><ele>622.4</ele><time>2026-09-18T14:34:04Z</time></rtept><rtept lat="39.042079" lon="-79.648713"><ele>623.8</ele><time>2026-09-18T14:34:04Z</time></rtept><rtept lat="39.041837" lon="-79.649239"><ele>624.6</ele><time>2026-09-18T14:34:04Z</time></rtept><rtept lat="39.041574" lon="-79.649561"><ele>625.4</ele><time>2026-09-18T14:34:04Z</time></rtept><rtept lat="39.041074" lon="-79.649963"><ele>626.6</ele><time>2026-09-18T14:34:04Z</time></rtept><rtept lat="39.040445" lon="-79.650403"><ele>628.6</ele><time>2026-09-18T14:34:04Z</time></rtept><rtept lat="39.039895" lon="-79.650682"><ele>636.4</ele><time>2026-09-18T14:34:04Z</time></rtept><rtept lat="39.039154" lon="-79.650983"><ele>633.4</ele><time>2026-09-18T14:34:04Z</time></rtept><rtept lat="39.038833" lon="-79.651063"><ele>636.0</ele><time>2026-09-18T14:34:04Z</time></rtept><rtept lat="39.03847" lon="-79.65131"><ele>630.4</ele><time>2026-09-18T14:34:04Z</time></rtept><rtept lat="39.038262" lon="-79.651546"><ele>630.8</ele><time>2026-09-18T14:34:04Z</time></rtept><rtept lat="39.037999" lon="-79.651927"><ele>631.2</ele><time>2026-09-18T14:34:04Z</time></rtept><rtept lat="39.03767" lon="-79.652404"><ele>632.4</ele><time>2026-09-18T14:34:04Z</time></rtept><rtept lat="39.037312" lon="-79.652828"><ele>636.2</ele><time>2026-09-18T14:34:04Z</time></rtept><rtept lat="39.036954" lon="-79.653048"><ele>636.4</ele><time>2026-09-18T14:34:04Z</time></rtept><rtept lat="39.036583" lon="-79.653171"><ele>635.6</ele><time>2026-09-18T14:34:04Z</time></rtept><rtept lat="39.035862" lon="-79.65308"><ele>637.6</ele><time>2026-09-18T14:34:04Z</time></rtept><rtept lat="39.03527" lon="-79.653042"><ele>638.8</ele><time>2026-09-18T14:34:04Z</time></rtept><rtept lat="39.034258" lon="-79.652941"><ele>644.2</ele><time>2026-09-18T14:34:04Z</time></rtept><rtept lat="39.033945" lon="-79.65301"><ele>648.6</ele><time>2026-09-18T14:34:04Z</time></rtept><rtept lat="39.033333" lon="-79.653112"><ele>649.2</ele><time>2026-09-18T14:34:04Z</time></rtept><rtept lat="39.032724" lon="-79.653273"><ele>648.6</ele><time>2026-09-18T14:34:04Z</time></rtept><rtept lat="39.032062" lon="-79.653515"><ele>647.4</ele><time>2026-09-18T14:34:04Z</time></rtept><rtept lat="39.031232" lon="-79.65374"><ele>649.6</ele><time>2026-09-18T14:34:04Z</time></rtept><rtept lat="39.030632" lon="-79.653734"><ele>650.4</ele><time>2026-09-18T14:34:04Z</time></rtept><rtept lat="39.030116" lon="-79.65381"><ele>650.0</ele><time>2026-09-18T14:34:04Z</time></rtept><rtept lat="39.029478" lon="-79.654099"><ele>652.2</ele><time>2026-09-18T14:34:04Z</time></rtept><rtept lat="39.029203" lon="-79.654239"><ele>652.4</ele><time>2026-09-18T14:34:04Z</time></rtept><rtept lat="39.028778" lon="-79.654443"><ele>653.2</ele><time>2026-09-18T14:34:04Z</time></rtept><rtept lat="39.02842" lon="-79.654518"><ele>654.2</ele><time>2026-09-18T14:34:04Z</time></rtept><rtept lat="39.028107" lon="-79.654443"><ele>656.6</ele><time>2026-09-18T14:34:04Z</time></rtept><rtept lat="39.027795" lon="-79.654212"><ele>658.0</ele><time>2026-09-18T14:34:04Z</time></rtept><rtept lat="39.027278" lon="-79.653869"><ele>661.0</ele><time>2026-09-18T14:34:04Z</time></rtept><rtept lat="39.026636" lon="-79.653338"><ele>663.2</ele><time>2026-09-18T14:34:04Z</time></rtept><rtept lat="39.026549" lon="-79.653266"><ele>663.2</ele><time>2026-09-18T14:34:04Z</time></rtept><rtept lat="39.026549" lon="-79.653266"><ele>663.2</ele><time>2026-09-18T14:34:04Z</time></rtept><rtept lat="39.026094" lon="-79.652887"><ele>665.4</ele><time>2026-09-18T14:34:04Z</time></rtept><rtept lat="39.025703" lon="-79.652603"><ele>666.4</ele><time>2026-09-18T14:34:04Z</time></rtept><rtept lat="39.02529" lon="-79.652372"><ele>668.2</ele><time>2026-09-18T14:34:04Z</time></rtept><rtept lat="39.024936" lon="-79.652318"><ele>670.2</ele><time>2026-09-18T14:34:04Z</time></rtept><rtept lat="39.024815" lon="-79.652346"><ele>670.4</ele><time>2026-09-18T14:34:04Z</time></rtept><rtept lat="39.024561" lon="-79.652404"><ele>672.4</ele><time>2026-09-18T14:34:04Z</time></rtept><rtept lat="39.024198" lon="-79.652302"><ele>674.6</ele><time>2026-09-18T14:34:04Z</time></rtept><rtept lat="39.023969" lon="-79.652168"><ele>674.8</ele><time>2026-09-18T14:34:04Z</time></rtept><rtept lat="39.023635" lon="-79.651911"><ele>677.8</ele><time>2026-09-18T14:34:04Z</time></rtept><rtept lat="39.023302" lon="-79.651557"><ele>680.4</ele><time>2026-09-18T14:34:04Z</time></rtept><rtept lat="39.023181" lon="-79.651347"><ele>681.6</ele><time>2026-09-18T14:34:04Z</time></rtept><rtept lat="39.023056" lon="-79.651052"><ele>685.0</ele><time>2026-09-18T14:34:04Z</time></rtept><rtept lat="39.022844" lon="-79.650687"><ele>692.6</ele><time>2026-09-18T14:34:04Z</time></rtept><rtept lat="39.022331" lon="-79.650409"><ele>696.4</ele><time>2026-09-18T14:34:04Z</time></rtept><rtept lat="39.021998" lon="-79.650065"><ele>710.8</ele><time>2026-09-18T14:34:04Z</time></rtept><rtept lat="39.021714" lon="-79.649717"><ele>714.0</ele><time>2026-09-18T14:34:04Z</time></rtept><rtept lat="39.021597" lon="-79.649454"><ele>719.0</ele><time>2026-09-18T14:34:04Z</time></rtept><rtept lat="39.021306" lon="-79.648697"><ele>733.6</ele><time>2026-09-18T14:34:04Z</time></rtept><rtept lat="39.021018" lon="-79.648381"><ele>743.2</ele><time>2026-09-18T14:34:04Z</time></rtept><rtept lat="39.020864" lon="-79.64808"><ele>745.4</ele><time>2026-09-18T14:34:04Z</time></rtept><rtept lat="39.020681" lon="-79.647877"><ele>746.8</ele><time>2026-09-18T14:34:04Z</time></rtept><rtept lat="39.020443" lon="-79.647673"><ele>754.0</ele><time>2026-09-18T14:34:04Z</time></rtept><rtept lat="39.019793" lon="-79.646906"><ele>777.0</ele><time>2026-09-18T14:34:04Z</time></rtept><rtept lat="39.018726" lon="-79.645736"><ele>804.0</ele><time>2026-09-18T14:34:04Z</time></rtept><rtept lat="39.017809" lon="-79.64476"><ele>820.0</ele><time>2026-09-18T14:34:04Z</time></rtept><rtept lat="39.01768" lon="-79.644604"><ele>826.0</ele><time>2026-09-18T14:34:04Z</time></rtept><rtept lat="39.017605" lon="-79.644357"><ele>828.6</ele><time>2026-09-18T14:34:04Z</time></rtept><rtept lat="39.017496" lon="-79.64403"><ele>833.6</ele><time>2026-09-18T14:34:04Z</time></rtept><rtept lat="39.017317" lon="-79.643665"><ele>842.6</ele><time>2026-09-18T14:34:04Z</time></rtept><rtept lat="39.01683" lon="-79.643183"><ele>849.6</ele><time>2026-09-18T14:34:04Z</time></rtept><rtept lat="39.016421" lon="-79.642539"><ele>863.4</ele><time>2026-09-18T14:34:04Z</time></rtept><rtept lat="39.015633" lon="-79.641187"><ele>896.6</ele><time>2026-09-18T14:34:04Z</time></rtept><rtept lat="39.015" lon="-79.640039"><ele>930.4</ele><time>2026-09-18T14:34:04Z</time></rtept><rtept lat="39.014258" lon="-79.638569"><ele>967.8</ele><time>2026-09-18T14:34:04Z</time></rtept><rtept lat="39.01372" lon="-79.637636"><ele>986.0</ele><time>2026-09-18T14:34:04Z</time></rtept><rtept lat="39.013366" lon="-79.6371"><ele>1001.0</ele><time>2026-09-18T14:34:04Z</time></rtept><rtept lat="39.01327" lon="-79.636853"><ele>1005.4</ele><time>2026-09-18T14:34:04Z</time></rtept><rtept lat="39.013324" lon="-79.636574"><ele>1006.0</ele><time>2026-09-18T14:34:04Z</time></rtept><rtept lat="39.013312" lon="-79.636327"><ele>1005.8</ele><time>2026-09-18T14:34:04Z</time></rtept><rtept lat="39.013287" lon="-79.636"><ele>1006.0</ele><time>2026-09-18T14:34:04Z</time></rtept><rtept lat="39.013349" lon="-79.635689"><ele>1006.2</ele><time>2026-09-18T14:34:04Z</time></rtept><rtept lat="39.013424" lon="-79.635378"><ele>1007.0</ele><time>2026-09-18T14:34:04Z</time></rtept><rtept lat="39.013608" lon="-79.635007"><ele>1009.2</ele><time>2026-09-18T14:34:04Z</time></rtept><rtept lat="39.013737" lon="-79.634712"><ele>1010.0</ele><time>2026-09-18T14:34:04Z</time></rtept><rtept lat="39.013708" lon="-79.634508"><ele>1009.2</ele><time>2026-09-18T14:34:04Z</time></rtept><rtept lat="39.013603" lon="-79.634112"><ele>1007.4</ele><time>2026-09-18T14:34:04Z</time></rtept><rtept lat="39.013453" lon="-79.633768"><ele>1005.8</ele><time>2026-09-18T14:34:04Z</time></rtept><rtept lat="39.013266" lon="-79.633623"><ele>1005.4</ele><time>2026-09-18T14:34:04Z</time></rtept><rtept lat="39.013132" lon="-79.633382"><ele>1005.6</ele><time>2026-09-18T14:34:04Z</time></rtept><rtept lat="39.012924" lon="-79.633194"><ele>1003.8</ele><time>2026-09-18T14:34:04Z</time></rtept><rtept lat="39.012716" lon="-79.63314"><ele>1002.8</ele><time>2026-09-18T14:34:04Z</time></rtept><rtept lat="39.012591" lon="-79.63314"><ele>1002.2</ele><time>2026-09-18T14:34:04Z</time></rtept><rtept lat="39.012541" lon="-79.632985"><ele>1001.4</ele><time>2026-09-18T14:34:04Z</time></rtept><rtept lat="39.01242" lon="-79.632561"><ele>998.4</ele><time>2026-09-18T14:34:04Z</time></rtept><rtept lat="39.01227" lon="-79.632019"><ele>994.4</ele><time>2026-09-18T14:34:04Z</time></rtept><rtept lat="39.01214" lon="-79.631853"><ele>993.4</ele><time>2026-09-18T14:34:04Z</time></rtept><rtept lat="39.011986" lon="-79.631746"><ele>992.4</ele><time>2026-09-18T14:34:04Z</time></rtept><rtept lat="39.011961" lon="-79.631644"><ele>991.6</ele><time>2026-09-18T14:34:04Z</time></rtept><rtept lat="39.012007" lon="-79.631547"><ele>991.8</ele><time>2026-09-18T14:34:04Z</time></rtept><rtept lat="39.012161" lon="-79.631343"><ele>992.2</ele><time>2026-09-18T14:34:04Z</time></rtept><rtept lat="39.012395" lon="-79.631081"><ele>994.4</ele><time>2026-09-18T14:34:04Z</time></rtept><rtept lat="39.01252" lon="-79.630759"><ele>995.2</ele><time>2026-09-18T14:34:04Z</time></rtept><rtept lat="39.012578" lon="-79.63056"><ele>995.0</ele><time>2026-09-18T14:34:04Z</time></rtept><rtept lat="39.012611" lon="-79.630287"><ele>995.0</ele><time>2026-09-18T14:34:04Z</time></rtept><rtept lat="39.012895" lon="-79.629697"><ele>998.4</ele><time>2026-09-18T14:34:04Z</time></rtept><rtept lat="39.013087" lon="-79.629251"><ele>1000.6</ele><time>2026-09-18T14:34:04Z</time></rtept><rtept lat="39.013258" lon="-79.628897"><ele>1003.4</ele><time>2026-09-18T14:34:04Z</time></rtept><rtept lat="39.013291" lon="-79.628484"><ele>1005.4</ele><time>2026-09-18T14:34:04Z</time></rtept><rtept lat="39.013383" lon="-79.627647"><ele>1011.2</ele><time>2026-09-18T14:34:04Z</time></rtept><rtept lat="39.013466" lon="-79.627395"><ele>1013.0</ele><time>2026-09-18T14:34:04Z</time></rtept><rtept lat="39.013624" lon="-79.626939"><ele>1015.8</ele><time>2026-09-18T14:34:04Z</time></rtept><rtept lat="39.014024" lon="-79.625963"><ele>1022.2</ele><time>2026-09-18T14:34:04Z</time></rtept><rtept lat="39.014204" lon="-79.62525"><ele>1025.2</ele><time>2026-09-18T14:34:04Z</time></rtept><rtept lat="39.014408" lon="-79.624311"><ele>1028.4</ele><time>2026-09-18T14:34:04Z</time></rtept><rtept lat="39.0146" lon="-79.62341"><ele>1031.4</ele><time>2026-09-18T14:34:04Z</time></rtept><rtept lat="39.014779" lon="-79.622476"><ele>1032.8</ele><time>2026-09-18T14:34:04Z</time></rtept><rtept lat="39.014775" lon="-79.622213"><ele>1032.6</ele><time>2026-09-18T14:34:04Z</time></rtept><rtept lat="39.014591" lon="-79.621956"><ele>1032.8</ele><time>2026-09-18T14:34:04Z</time></rtept><rtept lat="39.01437" lon="-79.621623"><ele>1033.8</ele><time>2026-09-18T14:34:04Z</time></rtept><rtept lat="39.014204" lon="-79.621124"><ele>1036.0</ele><time>2026-09-18T14:34:04Z</time></rtept><rtept lat="39.014079" lon="-79.620743"><ele>1038.0</ele><time>2026-09-18T14:34:04Z</time></rtept><rtept lat="39.013916" lon="-79.620625"><ele>1039.0</ele><time>2026-09-18T14:34:04Z</time></rtept><rtept lat="39.013283" lon="-79.62055"><ele>1040.6</ele><time>2026-09-18T14:34:04Z</time></rtept><rtept lat="39.012945" lon="-79.62047"><ele>1040.0</ele><time>2026-09-18T14:34:04Z</time></rtept><rtept lat="39.012432" lon="-79.620352"><ele>1041.2</ele><time>2026-09-18T14:34:04Z</time></rtept><rtept lat="39.012207" lon="-79.620245"><ele>1041.6</ele><time>2026-09-18T14:34:04Z</time></rtept><rtept lat="39.011686" lon="-79.61996"><ele>1043.6</ele><time>2026-09-18T14:34:04Z</time></rtept><rtept lat="39.011007" lon="-79.619617"><ele>1044.8</ele><time>2026-09-18T14:34:04Z</time></rtept><rtept lat="39.010773" lon="-79.619461"><ele>1044.6</ele><time>2026-09-18T14:34:04Z</time></rtept><rtept lat="39.010615" lon="-79.619252"><ele>1044.2</ele><time>2026-09-18T14:34:04Z</time></rtept><rtept lat="39.010527" lon="-79.61908"><ele>1045.0</ele><time>2026-09-18T14:34:04Z</time></rtept><rtept lat="39.010531" lon="-79.618759"><ele>1045.2</ele><time>2026-09-18T14:34:04Z</time></rtept><rtept lat="39.010523" lon="-79.618281"><ele>1045.2</ele><time>2026-09-18T14:34:04Z</time></rtept><rtept lat="39.010498" lon="-79.617873"><ele>1045.2</ele><time>2026-09-18T14:34:04Z</time></rtept><rtept lat="39.010448" lon="-79.617396"><ele>1046.6</ele><time>2026-09-18T14:34:04Z</time></rtept><rtept lat="39.010319" lon="-79.616881"><ele>1043.6</ele><time>2026-09-18T14:34:04Z</time></rtept><rtept lat="39.01024" lon="-79.616613"><ele>1040.6</ele><time>2026-09-18T14:34:04Z</time></rtept><rtept lat="39.01022" lon="-79.6166"><ele>1040.6</ele><time>2026-09-18T14:34:04Z</time></rtept><rtept lat="39.01022" lon="-79.6166"><ele>1040.6</ele><time>2026-09-18T14:34:04Z</time></rtept><rtept lat="39.010018" lon="-79.616466"><ele>1039.2</ele><time>2026-09-18T14:34:04Z</time></rtept><rtept lat="39.009949" lon="-79.61642"><ele>1041.6</ele><time>2026-09-18T14:34:04Z</time></rtept><rtept lat="39.009557" lon="-79.616401"><ele>1043.4</ele><time>2026-09-18T14:34:04Z</time></rtept><rtept lat="39.009557" lon="-79.616401"><ele>1043.4</ele><time>2026-09-18T14:34:04Z</time></rtept><rtept lat="39.009057" lon="-79.616144"><ele>1048.8</ele><time>2026-09-18T14:34:04Z</time></rtept><rtept lat="39.008723" lon="-79.615822"><ele>1055.6</ele><time>2026-09-18T14:34:04Z</time></rtept><rtept lat="39.008023" lon="-79.614899"><ele>1061.6</ele><time>2026-09-18T14:34:04Z</time></rtept><rtept lat="39.00799" lon="-79.614213"><ele>1067.8</ele><time>2026-09-18T14:34:04Z</time></rtept><rtept lat="39.007689" lon="-79.613333"><ele>1070.4</ele><time>2026-09-18T14:34:04Z</time></rtept><rtept lat="39.007456" lon="-79.612904"><ele>1074.4</ele><time>2026-09-18T14:34:04Z</time></rtept><rtept lat="39.007256" lon="-79.61226"><ele>1078.2</ele><time>2026-09-18T14:34:04Z</time></rtept><rtept lat="39.006789" lon="-79.611574"><ele>1083.8</ele><time>2026-09-18T14:34:04Z</time></rtept><rtept lat="39.006822" lon="-79.61108"><ele>1087.8</ele><time>2026-09-18T14:34:04Z</time></rtept><rtept lat="39.006505" lon="-79.60975"><ele>1097.6</ele><time>2026-09-18T14:34:04Z</time></rtept><rtept lat="39.005822" lon="-79.608999"><ele>1101.6</ele><time>2026-09-18T14:34:04Z</time></rtept><rtept lat="39.005455" lon="-79.60887"><ele>1100.6</ele><time>2026-09-18T14:34:04Z</time></rtept><rtept lat="39.005288" lon="-79.608569"><ele>1099.6</ele><time>2026-09-18T14:34:04Z</time></rtept><rtept lat="39.004538" lon="-79.607475"><ele>1092.6</ele><time>2026-09-18T14:34:04Z</time></rtept><rtept lat="39.003887" lon="-79.607153"><ele>1090.4</ele><time>2026-09-18T14:34:04Z</time></rtept><rtept lat="39.003804" lon="-79.606767"><ele>1088.6</ele><time>2026-09-18T14:34:04Z</time></rtept><rtept lat="39.003887" lon="-79.605952"><ele>1086.0</ele><time>2026-09-18T14:34:04Z</time></rtept><rtept lat="39.003721" lon="-79.605351"><ele>1087.0</ele><time>2026-09-18T14:34:04Z</time></rtept><rtept lat="39.00247" lon="-79.603441"><ele>1097.0</ele><time>2026-09-18T14:34:04Z</time></rtept><rtept lat="39.002203" lon="-79.602325"><ele>1097.8</ele><time>2026-09-18T14:34:04Z</time></rtept><rtept lat="39.00137" lon="-79.601124"><ele>1097.8</ele><time>2026-09-18T14:34:04Z</time></rtept><rtept lat="39.000152" lon="-79.600051"><ele>1098.2</ele><time>2026-09-18T14:34:04Z</time></rtept><rtept lat="38.999679" lon="-79.59968"><ele>1100.0</ele><time>2026-09-18T14:34:04Z</time></rtept><rtept lat="38.998702" lon="-79.598913"><ele>1099.8</ele><time>2026-09-18T14:34:04Z</time></rtept><rtept lat="38.998702" lon="-79.598913"><ele>1099.8</ele><time>2026-09-18T14:34:04Z</time></rtept><rtept lat="38.998101" lon="-79.599278"><ele>1110.6</ele><time>2026-09-18T14:34:04Z</time></rtept><rtept lat="38.99685" lon="-79.599643"><ele>1127.8</ele><time>2026-09-18T14:34:04Z</time></rtept><rtept lat="38.9962" lon="-79.599621"><ele>1132.2</ele><time>2026-09-18T14:34:04Z</time></rtept><rtept lat="38.995833" lon="-79.600029"><ele>1136.4</ele><time>2026-09-18T14:34:04Z</time></rtept><rtept lat="38.995407" lon="-79.600298"><ele>1136.0</ele><time>2026-09-18T14:34:04Z</time></rtept><rtept lat="38.995049" lon="-79.600523"><ele>1134.6</ele><time>2026-09-18T14:34:04Z</time></rtept><rtept lat="38.994049" lon="-79.602154"><ele>1129.0</ele><time>2026-09-18T14:34:04Z</time></rtept><rtept lat="38.992164" lon="-79.604149"><ele>1138.8</ele><time>2026-09-18T14:34:04Z</time></rtept><rtept lat="38.991548" lon="-79.604634"><ele>1139.8</ele><time>2026-09-18T14:34:04Z</time></rtept><rtept lat="38.991047" lon="-79.605029"><ele>1137.2</ele><time>2026-09-18T14:34:04Z</time></rtept><rtept lat="38.989608" lon="-79.606049"><ele>1131.2</ele><time>2026-09-18T14:34:04Z</time></rtept><rtept lat="38.989412" lon="-79.606188"><ele>1128.2</ele><time>2026-09-18T14:34:04Z</time></rtept><rtept lat="38.988295" lon="-79.606381"><ele>1112.6</ele><time>2026-09-18T14:34:04Z</time></rtept><rtept lat="38.987778" lon="-79.606917"><ele>1115.2</ele><time>2026-09-18T14:34:04Z</time></rtept><rtept lat="38.987485" lon="-79.607743"><ele>1115.2</ele><time>2026-09-18T14:34:04Z</time></rtept><rtept lat="38.987485" lon="-79.607743"><ele>1115.2</ele><time>2026-09-18T14:34:04Z</time></rtept><rtept lat="38.98666" lon="-79.610071"><ele>1122.2</ele><time>2026-09-18T14:34:04Z</time></rtept><rtept lat="38.984025" lon="-79.612131"><ele>1127.0</ele><time>2026-09-18T14:34:04Z</time></rtept><rtept lat="38.98174" lon="-79.613462"><ele>1113.4</ele><time>2026-09-18T14:34:04Z</time></rtept><rtept lat="38.981339" lon="-79.614642"><ele>1105.8</ele><time>2026-09-18T14:34:04Z</time></rtept><rtept lat="38.981006" lon="-79.614921"><ele>1101.0</ele><time>2026-09-18T14:34:04Z</time></rtept><rtept lat="38.979421" lon="-79.616337"><ele>1091.2</ele><time>2026-09-18T14:34:04Z</time></rtept><rtept lat="38.978591" lon="-79.616965"><ele>1085.4</ele><time>2026-09-18T14:34:04Z</time></rtept><rtept lat="38.977803" lon="-79.61756"><ele>1079.0</ele><time>2026-09-18T14:34:04Z</time></rtept><rtept lat="38.97727" lon="-79.618637"><ele>1071.6</ele><time>2026-09-18T14:34:04Z</time></rtept><rtept lat="38.977069" lon="-79.619041"><ele>1069.8</ele><time>2026-09-18T14:34:04Z</time></rtept><rtept lat="38.976819" lon="-79.621015"><ele>1059.0</ele><time>2026-09-18T14:34:04Z</time></rtept><rtept lat="38.976561" lon="-79.621402"><ele>1058.4</ele><time>2026-09-18T14:34:04Z</time></rtept><rtept lat="38.975291" lon="-79.622219"><ele>1022.8</ele><time>2026-09-18T14:34:04Z</time></rtept><rtept lat="38.973972" lon="-79.623824"><ele>1000.0</ele><time>2026-09-18T14:34:04Z</time></rtept><rtept lat="38.973274" lon="-79.624876"><ele>979.6</ele><time>2026-09-18T14:34:04Z</time></rtept><rtept lat="38.973274" lon="-79.624876"><ele>979.6</ele><time>2026-09-18T14:34:04Z</time></rtept><rtept lat="38.972756" lon="-79.625657"><ele>977.0</ele><time>2026-09-18T14:34:04Z</time></rtept><rtept lat="38.97177" lon="-79.626485"><ele>966.6</ele><time>2026-09-18T14:34:04Z</time></rtept><rtept lat="38.97172" lon="-79.626527"><ele>966.8</ele><time>2026-09-18T14:34:04Z</time></rtept><rtept lat="38.97154" lon="-79.626993"><ele>965.8</ele><time>2026-09-18T14:34:04Z</time></rtept><rtept lat="38.971056" lon="-79.627892"><ele>959.8</ele><time>2026-09-18T14:34:04Z</time></rtept><rtept lat="38.970707" lon="-79.628686"><ele>951.8</ele><time>2026-09-18T14:34:04Z</time></rtept><rtept lat="38.970595" lon="-79.629384"><ele>942.2</ele><time>2026-09-18T14:34:04Z</time></rtept><rtept lat="38.970496" lon="-79.629648"><ele>938.8</ele><time>2026-09-18T14:34:04Z</time></rtept><rtept lat="38.970476" lon="-79.629699"><ele>938.0</ele><time>2026-09-18T14:34:04Z</time></rtept><rtept lat="38.970365" lon="-79.6299"><ele>936.8</ele><time>2026-09-18T14:34:04Z</time></rtept><rtept lat="38.970417" lon="-79.630053"><ele>937.6</ele><time>2026-09-18T14:34:04Z</time></rtept><rtept lat="38.970677" lon="-79.630091"><ele>933.8</ele><time>2026-09-18T14:34:04Z</time></rtept><rtept lat="38.970885" lon="-79.630732"><ele>931.0</ele><time>2026-09-18T14:34:04Z</time></rtept><rtept lat="38.9709" lon="-79.631153"><ele>928.8</ele><time>2026-09-18T14:34:04Z</time></rtept><rtept lat="38.970974" lon="-79.631335"><ele>926.6</ele><time>2026-09-18T14:34:04Z</time></rtept><rtept lat="38.970922" lon="-79.631535"><ele>926.4</ele><time>2026-09-18T14:34:04Z</time></rtept><rtept lat="38.971041" lon="-79.631985"><ele>921.4</ele><time>2026-09-18T14:34:04Z</time></rtept><rtept lat="38.97093" lon="-79.632329"><ele>924.2</ele><time>2026-09-18T14:34:04Z</time></rtept><rtept lat="38.971145" lon="-79.632778"><ele>919.2</ele><time>2026-09-18T14:34:04Z</time></rtept><rtept lat="38.971148" lon="-79.633281"><ele>920.8</ele><time>2026-09-18T14:34:04Z</time></rtept><rtept lat="38.971207" lon="-79.633849"><ele>917.6</ele><time>2026-09-18T14:34:04Z</time></rtept><rtept lat="38.971239" lon="-79.634595"><ele>916.2</ele><time>2026-09-18T14:34:04Z</time></rtept><rtept lat="38.971443" lon="-79.635353"><ele>910.6</ele><time>2026-09-18T14:34:04Z</time></rtept><rtept lat="38.971434" lon="-79.636282"><ele>909.2</ele><time>2026-09-18T14:34:04Z</time></rtept><rtept lat="38.971212" lon="-79.637836"><ele>897.8</ele><time>2026-09-18T14:34:04Z</time></rtept><rtept lat="38.971192" lon="-79.638729"><ele>893.8</ele><time>2026-09-18T14:34:04Z</time></rtept><rtept lat="38.971265" lon="-79.639343"><ele>893.2</ele><time>2026-09-18T14:34:04Z</time></rtept><rtept lat="38.971368" lon="-79.639901"><ele>890.6</ele><time>2026-09-18T14:34:04Z</time></rtept><rtept lat="38.971368" lon="-79.639901"><ele>890.6</ele><time>2026-09-18T14:34:04Z</time></rtept><rtept lat="38.971412" lon="-79.640136"><ele>888.0</ele><time>2026-09-18T14:34:04Z</time></rtept><rtept lat="38.971436" lon="-79.640414"><ele>887.6</ele><time>2026-09-18T14:34:04Z</time></rtept><rtept lat="38.971483" lon="-79.640514"><ele>888.2</ele><time>2026-09-18T14:34:04Z</time></rtept><rtept lat="38.971681" lon="-79.640949"><ele>889.6</ele><time>2026-09-18T14:34:04Z</time></rtept><rtept lat="38.971704" lon="-79.640897"><ele>890.0</ele><time>2026-09-18T14:34:04Z</time></rtept><rtept lat="38.971981" lon="-79.640282"><ele>889.8</ele><time>2026-09-18T14:34:04Z</time></rtept><rtept lat="38.97203" lon="-79.640015"><ele>889.2</ele><time>2026-09-18T14:34:04Z</time></rtept><rtept lat="38.972198" lon="-79.638713"><ele>883.8</ele><time>2026-09-18T14:34:04Z</time></rtept><rtept lat="38.972364" lon="-79.637863"><ele>882.4</ele><time>2026-09-18T14:34:04Z</time></rtept><rtept lat="38.972514" lon="-79.637384"><ele>880.6</ele><time>2026-09-18T14:34:04Z</time></rtept><rtept lat="38.97272" lon="-79.637034"><ele>880.2</ele><time>2026-09-18T14:34:04Z</time></rtept><rtept lat="38.973089" lon="-79.636797"><ele>878.8</ele><time>2026-09-18T14:34:04Z</time></rtept><rtept lat="38.973698" lon="-79.636929"><ele>876.0</ele><time>2026-09-18T14:34:04Z</time></rtept><rtept lat="38.974203" lon="-79.63697"><ele>873.6</ele><time>2026-09-18T14:34:04Z</time></rtept><rtept lat="38.974764" lon="-79.636712"><ele>874.8</ele><time>2026-09-18T14:34:04Z</time></rtept><rtept lat="38.974811" lon="-79.63669"><ele>874.8</ele><time>2026-09-18T14:34:04Z</time></rtept><rtept lat="38.974811" lon="-79.63669"><ele>874.8</ele><time>2026-09-18T14:34:04Z</time></rtept><rtept lat="38.975238" lon="-79.636485"><ele>873.2</ele><time>2026-09-18T14:34:04Z</time></rtept><rtept lat="38.975631" lon="-79.636351"><ele>870.2</ele><time>2026-09-18T14:34:04Z</time></rtept><rtept lat="38.976216" lon="-79.636179"><ele>871.8</ele><time>2026-09-18T14:34:04Z</time></rtept><rtept lat="38.976717" lon="-79.636024"><ele>871.0</ele><time>2026-09-18T14:34:04Z</time></rtept><rtept lat="38.977214" lon="-79.636141"><ele>868.6</ele><time>2026-09-18T14:34:04Z</time></rtept><rtept lat="38.978138" lon="-79.636351"><ele>865.2</ele><time>2026-09-18T14:34:04Z</time></rtept><rtept lat="38.978323" lon="-79.636485"><ele>862.4</ele><time>2026-09-18T14:34:04Z</time></rtept><rtept lat="38.978429" lon="-79.636543"><ele>861.6</ele><time>2026-09-18T14:34:04Z</time></rtept><rtept lat="38.97849" lon="-79.636427"><ele>862.0</ele><time>2026-09-18T14:34:04Z</time></rtept><rtept lat="38.978568" lon="-79.63628"><ele>863.2</ele><time>2026-09-18T14:34:04Z</time></rtept><rtept lat="38.978984" lon="-79.636296"><ele>864.0</ele><time>2026-09-18T14:34:04Z</time></rtept><rtept lat="38.979082" lon="-79.636299"><ele>864.2</ele><time>2026-09-18T14:34:04Z</time></rtept><rtept lat="38.979425" lon="-79.636349"><ele>861.4</ele><time>2026-09-18T14:34:04Z</time></rtept><rtept lat="38.979708" lon="-79.636726"><ele>863.4</ele><time>2026-09-18T14:34:04Z</time></rtept><rtept lat="38.979947" lon="-79.637315"><ele>861.4</ele><time>2026-09-18T14:34:04Z</time></rtept><rtept lat="38.980379" lon="-79.637867"><ele>857.8</ele><time>2026-09-18T14:34:04Z</time></rtept><rtept lat="38.981188" lon="-79.638357"><ele>856.0</ele><time>2026-09-18T14:34:04Z</time></rtept><rtept lat="38.981996" lon="-79.639308"><ele>853.0</ele><time>2026-09-18T14:34:04Z</time></rtept><rtept lat="38.982386" lon="-79.639741"><ele>850.2</ele><time>2026-09-18T14:34:04Z</time></rtept><rtept lat="38.982386" lon="-79.639741"><ele>850.2000000000007</ele><time>2026-09-18T14:34:04Z</time></rtept><rtept lat="38.982674" lon="-79.640061"><ele>850.0</ele><time>2026-09-18T14:34:04Z</time></rtept><rtept lat="38.982829" lon="-79.640165"><ele>848.8000000000011</ele><time>2026-09-18T14:34:04Z</time></rtept><rtept lat="38.982865" lon="-79.640189"><ele>849.2000000000007</ele><time>2026-09-18T14:34:04Z</time></rtept><rtept lat="38.983299" lon="-79.640372"><ele>847.6000000000004</ele><time>2026-09-18T14:34:04Z</time></rtept><rtept lat="38.983578" lon="-79.640431"><ele>846.4000000000015</ele><time>2026-09-18T14:34:04Z</time></rtept><rtept lat="38.984033" lon="-79.640495"><ele>843.6000000000004</ele><time>2026-09-18T14:34:04Z</time></rtept><rtept lat="38.984321" lon="-79.640431"><ele>843.6000000000004</ele><time>2026-09-18T14:34:04Z</time></rtept><rtept lat="38.984796" lon="-79.640082"><ele>842.6000000000004</ele><time>2026-09-18T14:34:04Z</time></rtept><rtept lat="38.984888" lon="-79.639798"><ele>842.2000000000007</ele><time>2026-09-18T14:34:04Z</time></rtept><rtept lat="38.985117" lon="-79.639605"><ele>840.0</ele><time>2026-09-18T14:34:04Z</time></rtept><rtept lat="38.985217" lon="-79.639608"><ele>839.8000000000011</ele><time>2026-09-18T14:34:04Z</time></rtept><rtept lat="38.985355" lon="-79.639508"><ele>844.4000000000015</ele><time>2026-09-18T14:34:04Z</time></rtept><rtept lat="38.985609" lon="-79.639229"><ele>844.8000000000011</ele><time>2026-09-18T14:34:04Z</time></rtept><rtept lat="38.985913" lon="-79.638988"><ele>841.8000000000011</ele><time>2026-09-18T14:34:04Z</time></rtept><rtept lat="38.986255" lon="-79.638891"><ele>841.2000000000007</ele><time>2026-09-18T14:34:04Z</time></rtept><rtept lat="38.986852" lon="-79.63887"><ele>837.2000000000007</ele><time>2026-09-18T14:34:04Z</time></rtept><rtept lat="38.987273" lon="-79.638897"><ele>833.0</ele><time>2026-09-18T14:34:04Z</time></rtept><rtept lat="38.987445" lon="-79.638854"><ele>833.6000000000004</ele><time>2026-09-18T14:34:04Z</time></rtept><rtept lat="38.988311" lon="-79.638516"><ele>826.6000000000004</ele><time>2026-09-18T14:34:04Z</time></rtept><rtept lat="38.988752" lon="-79.638319"><ele>825.6000000000004</ele><time>2026-09-18T14:34:04Z</time></rtept><rtept lat="38.989228" lon="-79.638221"><ele>840.8000000000011</ele><time>2026-09-18T14:34:04Z</time></rtept><rtept lat="38.989529" lon="-79.63821"><ele>836.0</ele><time>2026-09-18T14:34:04Z</time></rtept><rtept lat="38.989774" lon="-79.638403"><ele>836.2000000000007</ele><time>2026-09-18T14:34:04Z</time></rtept><rtept lat="38.990037" lon="-79.63873"><ele>840.8000000000011</ele><time>2026-09-18T14:34:04Z</time></rtept><rtept lat="38.990241" lon="-79.638864"><ele>842.6000000000004</ele><time>2026-09-18T14:34:04Z</time></rtept><rtept lat="38.990604" lon="-79.638929"><ele>836.4000000000015</ele><time>2026-09-18T14:34:04Z</time></rtept><rtept lat="38.991029" lon="-79.63895"><ele>832.4000000000015</ele><time>2026-09-18T14:34:04Z</time></rtept><rtept lat="38.991288" lon="-79.638977"><ele>827.4000000000015</ele><time>2026-09-18T14:34:04Z</time></rtept><rtept lat="38.99148" lon="-79.639047"><ele>826.6000000000004</ele><time>2026-09-18T14:34:04Z</time></rtept><rtept lat="38.991613" lon="-79.638929"><ele>822.2000000000007</ele><time>2026-09-18T14:34:04Z</time></rtept><rtept lat="38.99173" lon="-79.638553"><ele>813.2000000000007</ele><time>2026-09-18T14:34:04Z</time></rtept><rtept lat="38.991884" lon="-79.638478"><ele>812.6000000000004</ele><time>2026-09-18T14:34:04Z</time></rtept><rtept lat="38.992189" lon="-79.638473"><ele>812.0</ele><time>2026-09-18T14:34:04Z</time></rtept><rtept lat="38.992668" lon="-79.638559"><ele>810.4000000000015</ele><time>2026-09-18T14:34:04Z</time></rtept><rtept lat="38.993289" lon="-79.639058"><ele>808.2000000000007</ele><time>2026-09-18T14:34:04Z</time></rtept><rtept lat="38.993835" lon="-79.639605"><ele>803.2000000000007</ele><time>2026-09-18T14:34:04Z</time></rtept><rtept lat="38.994244" lon="-79.639862"><ele>799.0</ele><time>2026-09-18T14:34:04Z</time></rtept><rtept lat="38.994482" lon="-79.639867"><ele>799.0</ele><time>2026-09-18T14:34:04Z</time></rtept><rtept lat="38.994678" lon="-79.639771"><ele>801.4000000000015</ele><time>2026-09-18T14:34:04Z</time></rtept><rtept lat="38.994739" lon="-79.639722"><ele>802.0</ele><time>2026-09-18T14:34:04Z</time></rtept><rtept lat="38.994739" lon="-79.639722"><ele>802.0</ele><time>2026-09-18T14:34:04Z</time></rtept><rtept lat="38.994932" lon="-79.639567"><ele>801.6000000000004</ele><time>2026-09-18T14:34:04Z</time></rtept><rtept lat="38.99527" lon="-79.63953"><ele>796.0</ele><time>2026-09-18T14:34:04Z</time></rtept><rtept lat="38.995595" lon="-79.639739"><ele>793.8000000000011</ele><time>2026-09-18T14:34:04Z</time></rtept><rtept lat="38.99577" lon="-79.64005"><ele>792.6000000000004</ele><time>2026-09-18T14:34:04Z</time></rtept><rtept lat="38.995862" lon="-79.640366"><ele>789.8000000000011</ele><time>2026-09-18T14:34:04Z</time></rtept><rtept lat="38.996016" lon="-79.640796"><ele>790.6000000000004</ele><time>2026-09-18T14:34:04Z</time></rtept><rtept lat="38.996116" lon="-79.640967"><ele>788.6000000000004</ele><time>2026-09-18T14:34:04Z</time></rtept><rtept lat="38.996366" lon="-79.641139"><ele>786.4000000000015</ele><time>2026-09-18T14:34:04Z</time></rtept><rtept lat="38.99667" lon="-79.641359"><ele>790.0</ele><time>2026-09-18T14:34:04Z</time></rtept><rtept lat="38.996921" lon="-79.641434"><ele>787.0</ele><time>2026-09-18T14:34:04Z</time></rtept><rtept lat="38.997242" lon="-79.64145"><ele>786.8000000000011</ele><time>2026-09-18T14:34:04Z</time></rtept><rtept lat="38.997463" lon="-79.64159"><ele>782.0</ele><time>2026-09-18T14:34:04Z</time></rtept><rtept lat="38.997634" lon="-79.641745"><ele>781.8000000000011</ele><time>2026-09-18T14:34:04Z</time></rtept><rtept lat="38.998059" lon="-79.642217"><ele>780.8000000000011</ele><time>2026-09-18T14:34:04Z</time></rtept><rtept lat="38.998342" lon="-79.642501"><ele>779.6000000000004</ele><time>2026-09-18T14:34:04Z</time></rtept><rtept lat="38.998592" lon="-79.642619"><ele>775.0</ele><time>2026-09-18T14:34:04Z</time></rtept><rtept lat="38.998797" lon="-79.642759"><ele>775.2000000000007</ele><time>2026-09-18T14:34:04Z</time></rtept><rtept lat="38.999084" lon="-79.642909"><ele>773.6000000000004</ele><time>2026-09-18T14:34:04Z</time></rtept><rtept lat="38.99931" lon="-79.643011"><ele>773.4000000000015</ele><time>2026-09-18T14:34:04Z</time></rtept><rtept lat="38.999476" lon="-79.643022"><ele>773.6000000000004</ele><time>2026-09-18T14:34:04Z</time></rtept><rtept lat="38.999693" lon="-79.643"><ele>775.0</ele><time>2026-09-18T14:34:04Z</time></rtept><rtept lat="38.999813" lon="-79.642903"><ele>773.0</ele><time>2026-09-18T14:34:04Z</time></rtept><rtept lat="38.999931" lon="-79.64285"><ele>774.4000000000015</ele><time>2026-09-18T14:34:04Z</time></rtept><rtept lat="39.000023" lon="-79.642544"><ele>772.2000000000007</ele><time>2026-09-18T14:34:04Z</time></rtept><rtept lat="39.000393" lon="-79.642255"><ele>775.2000000000007</ele><time>2026-09-18T14:34:04Z</time></rtept><rtept lat="39.000785" lon="-79.642013"><ele>772.8000000000011</ele><time>2026-09-18T14:34:04Z</time></rtept><rtept lat="39.000994" lon="-79.641922"><ele>771.2000000000007</ele><time>2026-09-18T14:34:04Z</time></rtept><rtept lat="39.001711" lon="-79.642056"><ele>768.6000000000004</ele><time>2026-09-18T14:34:04Z</time></rtept><rtept lat="39.002136" lon="-79.64218"><ele>767.2000000000007</ele><time>2026-09-18T14:34:04Z</time></rtept><rtept lat="39.002615" lon="-79.642389"><ele>766.0</ele><time>2026-09-18T14:34:04Z</time></rtept><rtept lat="39.003053" lon="-79.642603"><ele>765.2000000000007</ele><time>2026-09-18T14:34:04Z</time></rtept><rtept lat="39.003341" lon="-79.642727"><ele>769.2000000000007</ele><time>2026-09-18T14:34:04Z</time></rtept><rtept lat="39.003624" lon="-79.642759"><ele>764.4000000000015</ele><time>2026-09-18T14:34:04Z</time></rtept><rtept lat="39.003937" lon="-79.642759"><ele>763.8000000000011</ele><time>2026-09-18T14:34:04Z</time></rtept><rtept lat="39.004304" lon="-79.642705"><ele>762.2000000000007</ele><time>2026-09-18T14:34:04Z</time></rtept><rtept lat="39.004737" lon="-79.642657"><ele>762.4000000000015</ele><time>2026-09-18T14:34:04Z</time></rtept><rtept lat="39.00505" lon="-79.642695"><ele>760.4000000000015</ele><time>2026-09-18T14:34:04Z</time></rtept><rtept lat="39.005188" lon="-79.642748"><ele>759.2000000000007</ele><time>2026-09-18T14:34:04Z</time></rtept><rtept lat="39.005538" lon="-79.642861"><ele>757.6000000000004</ele><time>2026-09-18T14:34:04Z</time></rtept><rtept lat="39.006017" lon="-79.643065"><ele>755.4000000000015</ele><time>2026-09-18T14:34:04Z</time></rtept><rtept lat="39.006513" lon="-79.643156"><ele>753.6000000000004</ele><time>2026-09-18T14:34:04Z</time></rtept><rtept lat="39.006647" lon="-79.643161"><ele>753.6000000000004</ele><time>2026-09-18T14:34:04Z</time></rtept><rtept lat="39.007013" lon="-79.643011"><ele>752.6000000000004</ele><time>2026-09-18T14:34:04Z</time></rtept><rtept lat="39.007372" lon="-79.6427"><ele>749.6000000000004</ele><time>2026-09-18T14:34:04Z</time></rtept><rtept lat="39.007634" lon="-79.642641"><ele>753.6000000000004</ele><time>2026-09-18T14:34:04Z</time></rtept><rtept lat="39.007872" lon="-79.642652"><ele>752.8000000000011</ele><time>2026-09-18T14:34:04Z</time></rtept><rtept lat="39.008043" lon="-79.642764"><ele>751.0</ele><time>2026-09-18T14:34:04Z</time></rtept><rtept lat="39.008222" lon="-79.643016"><ele>748.2000000000007</ele><time>2026-09-18T14:34:04Z</time></rtept><rtept lat="39.008306" lon="-79.643279"><ele>749.6000000000004</ele><time>2026-09-18T14:34:04Z</time></rtept><rtept lat="39.008376" lon="-79.643558"><ele>748.8000000000011</ele><time>2026-09-18T14:34:04Z</time></rtept><rtept lat="39.008531" lon="-79.643902"><ele>744.2000000000007</ele><time>2026-09-18T14:34:04Z</time></rtept><rtept lat="39.008747" lon="-79.644068"><ele>739.4000000000015</ele><time>2026-09-18T14:34:04Z</time></rtept><rtept lat="39.009027" lon="-79.644266"><ele>740.6000000000004</ele><time>2026-09-18T14:34:04Z</time></rtept><rtept lat="39.009219" lon="-79.644481"><ele>741.0</ele><time>2026-09-18T14:34:04Z</time></rtept><rtept lat="39.009398" lon="-79.644738"><ele>739.6000000000004</ele><time>2026-09-18T14:34:04Z</time></rtept><rtept lat="39.00956" lon="-79.644996"><ele>738.8000000000011</ele><time>2026-09-18T14:34:04Z</time></rtept><rtept lat="39.00981" lon="-79.645296"><ele>735.0</ele><time>2026-09-18T14:34:04Z</time></rtept><rtept lat="39.010151" lon="-79.645539"><ele>734.0</ele><time>2026-09-18T14:34:04Z</time></rtept><rtept lat="39.010351" lon="-79.645725"><ele>733.4000000000015</ele><time>2026-09-18T14:34:04Z</time></rtept><rtept lat="39.010673" lon="-79.645827"><ele>732.4000000000015</ele><time>2026-09-18T14:34:04Z</time></rtept><rtept lat="39.01124" lon="-79.645967"><ele>730.2000000000007</ele><time>2026-09-18T14:34:04Z</time></rtept><rtept lat="39.011532" lon="-79.646112"><ele>727.0</ele><time>2026-09-18T14:34:04Z</time></rtept><rtept lat="39.011911" lon="-79.646487"><ele>724.8000000000011</ele><time>2026-09-18T14:34:04Z</time></rtept><rtept lat="39.012378" lon="-79.646873"><ele>723.8000000000011</ele><time>2026-09-18T14:34:04Z</time></rtept><rtept lat="39.012716" lon="-79.647211"><ele>721.8000000000011</ele><time>2026-09-18T14:34:04Z</time></rtept><rtept lat="39.012891" lon="-79.64741"><ele>722.2000000000007</ele><time>2026-09-18T14:34:04Z</time></rtept><rtept lat="39.013074" lon="-79.647581"><ele>721.0</ele><time>2026-09-18T14:34:04Z</time></rtept><rtept lat="39.013308" lon="-79.64771"><ele>720.0</ele><time>2026-09-18T14:34:04Z</time></rtept><rtept lat="39.013616" lon="-79.647769"><ele>714.4000000000015</ele><time>2026-09-18T14:34:04Z</time></rtept><rtept lat="39.013928" lon="-79.64778"><ele>712.2000000000007</ele><time>2026-09-18T14:34:04Z</time></rtept><rtept lat="39.01437" lon="-79.647753"><ele>714.4000000000015</ele><time>2026-09-18T14:34:04Z</time></rtept><rtept lat="39.014791" lon="-79.647807"><ele>712.2000000000007</ele><time>2026-09-18T14:34:04Z</time></rtept><rtept lat="39.015321" lon="-79.647925"><ele>710.4000000000015</ele><time>2026-09-18T14:34:04Z</time></rtept><rtept lat="39.015717" lon="-79.648252"><ele>709.4000000000015</ele><time>2026-09-18T14:34:04Z</time></rtept><rtept lat="39.016217" lon="-79.648681"><ele>703.8000000000011</ele><time>2026-09-18T14:34:04Z</time></rtept><rtept lat="39.01655" lon="-79.648907"><ele>704.4000000000015</ele><time>2026-09-18T14:34:04Z</time></rtept><rtept lat="39.01688" lon="-79.649057"><ele>702.6000000000004</ele><time>2026-09-18T14:34:04Z</time></rtept><rtept lat="39.017284" lon="-79.649212"><ele>702.0</ele><time>2026-09-18T14:34:04Z</time></rtept><rtept lat="39.017505" lon="-79.649212"><ele>700.6000000000004</ele><time>2026-09-18T14:34:04Z</time></rtept><rtept lat="39.017901" lon="-79.649223"><ele>701.0</ele><time>2026-09-18T14:34:04Z</time></rtept><rtept lat="39.018176" lon="-79.649137"><ele>699.0</ele><time>2026-09-18T14:34:04Z</time></rtept><rtept lat="39.018734" lon="-79.649153"><ele>697.8000000000011</ele><time>2026-09-18T14:34:04Z</time></rtept><rtept lat="39.019122" lon="-79.649196"><ele>696.0</ele><time>2026-09-18T14:34:04Z</time></rtept><rtept lat="39.01943" lon="-79.649389"><ele>693.6000000000004</ele><time>2026-09-18T14:34:04Z</time></rtept><rtept lat="39.019497" lon="-79.649432"><ele>694.0</ele><time>2026-09-18T14:34:04Z</time></rtept><rtept lat="39.019497" lon="-79.649432"><ele>694.0</ele><time>2026-09-18T14:34:04Z</time></rtept><rtept lat="39.019976" lon="-79.649738"><ele>691.8000000000011</ele><time>2026-09-18T14:34:04Z</time></rtept><rtept lat="39.020539" lon="-79.650076"><ele>688.2000000000007</ele><time>2026-09-18T14:34:04Z</time></rtept><rtept lat="39.020889" lon="-79.650328"><ele>683.8000000000011</ele><time>2026-09-18T14:34:04Z</time></rtept><rtept lat="39.021071" lon="-79.650383"><ele>683.0</ele><time>2026-09-18T14:34:04Z</time></rtept><rtept lat="39.021331" lon="-79.650398"><ele>687.0</ele><time>2026-09-18T14:34:04Z</time></rtept><rtept lat="39.021556" lon="-79.650645"><ele>685.8000000000011</ele><time>2026-09-18T14:34:04Z</time></rtept><rtept lat="39.021835" lon="-79.651004"><ele>683.8000000000011</ele><time>2026-09-18T14:34:04Z</time></rtept><rtept lat="39.022089" lon="-79.651294"><ele>683.0</ele><time>2026-09-18T14:34:04Z</time></rtept><rtept lat="39.02256" lon="-79.651862"><ele>680.8000000000011</ele><time>2026-09-18T14:34:04Z</time></rtept><rtept lat="39.022865" lon="-79.652174"><ele>679.6000000000004</ele><time>2026-09-18T14:34:04Z</time></rtept><rtept lat="39.023185" lon="-79.652409"><ele>678.2000000000007</ele><time>2026-09-18T14:34:04Z</time></rtept><rtept lat="39.023385" lon="-79.652527"><ele>676.6000000000004</ele><time>2026-09-18T14:34:04Z</time></rtept><rtept lat="39.023581" lon="-79.652608"><ele>674.4000000000015</ele><time>2026-09-18T14:34:04Z</time></rtept><rtept lat="39.02399" lon="-79.652522"><ele>675.4000000000015</ele><time>2026-09-18T14:34:04Z</time></rtept><rtept lat="39.024561" lon="-79.652404"><ele>672.4000000000015</ele><time>2026-09-18T14:34:04Z</time></rtept><rtept lat="39.024815" lon="-79.652346"><ele>670.4000000000015</ele><time>2026-09-18T14:34:04Z</time></rtept><rtept lat="39.024936" lon="-79.652318"><ele>670.2000000000007</ele><time>2026-09-18T14:34:04Z</time></rtept><rtept lat="39.02529" lon="-79.652372"><ele>668.2000000000007</ele><time>2026-09-18T14:34:04Z</time></rtept><rtept lat="39.025703" lon="-79.652603"><ele>666.4000000000015</ele><time>2026-09-18T14:34:04Z</time></rtept><rtept lat="39.026094" lon="-79.652887"><ele>665.4000000000015</ele><time>2026-09-18T14:34:04Z</time></rtept><rtept lat="39.026636" lon="-79.653338"><ele>663.2000000000007</ele><time>2026-09-18T14:34:04Z</time></rtept><rtept lat="39.027278" lon="-79.653869"><ele>661.0</ele><time>2026-09-18T14:34:04Z</time></rtept><rtept lat="39.027795" lon="-79.654212"><ele>658.0</ele><time>2026-09-18T14:34:04Z</time></rtept><rtept lat="39.028107" lon="-79.654443"><ele>656.6000000000004</ele><time>2026-09-18T14:34:04Z</time></rtept><rtept lat="39.02842" lon="-79.654518"><ele>654.2000000000007</ele><time>2026-09-18T14:34:04Z</time></rtept><rtept lat="39.028778" lon="-79.654443"><ele>653.2000000000007</ele><time>2026-09-18T14:34:04Z</time></rtept><rtept lat="39.029203" lon="-79.654239"><ele>652.4000000000015</ele><time>2026-09-18T14:34:04Z</time></rtept><rtept lat="39.029478" lon="-79.654099"><ele>652.2000000000007</ele><time>2026-09-18T14:34:04Z</time></rtept><rtept lat="39.030116" lon="-79.65381"><ele>650.0</ele><time>2026-09-18T14:34:04Z</time></rtept><rtept lat="39.030632" lon="-79.653734"><ele>650.4000000000015</ele><time>2026-09-18T14:34:04Z</time></rtept><rtept lat="39.031232" lon="-79.65374"><ele>649.6000000000004</ele><time>2026-09-18T14:34:04Z</time></rtept><rtept lat="39.032062" lon="-79.653515"><ele>647.4000000000015</ele><time>2026-09-18T14:34:04Z</time></rtept><rtept lat="39.032724" lon="-79.653273"><ele>648.6000000000004</ele><time>2026-09-18T14:34:04Z</time></rtept><rtept lat="39.033333" lon="-79.653112"><ele>649.2000000000007</ele><time>2026-09-18T14:34:04Z</time></rtept><rtept lat="39.033945" lon="-79.65301"><ele>648.6000000000004</ele><time>2026-09-18T14:34:04Z</time></rtept><rtept lat="39.034258" lon="-79.652941"><ele>644.2000000000007</ele><time>2026-09-18T14:34:04Z</time></rtept><rtept lat="39.034748" lon="-79.65299"><ele>642.8000000000011</ele><time>2026-09-18T14:34:04Z</time></rtept><rtept lat="39.034748" lon="-79.65299"><ele>642.8000000000011</ele><time>2026-09-18T14:34:04Z</time></rtept><rtept lat="39.03527" lon="-79.653042"><ele>638.8000000000011</ele><time>2026-09-18T14:34:04Z</time></rtept><rtept lat="39.035862" lon="-79.65308"><ele>637.6000000000004</ele><time>2026-09-18T14:34:04Z</time></rtept><rtept lat="39.036583" lon="-79.653171"><ele>635.6000000000004</ele><time>2026-09-18T14:34:04Z</time></rtept><rtept lat="39.036954" lon="-79.653048"><ele>636.4000000000015</ele><time>2026-09-18T14:34:04Z</time></rtept><rtept lat="39.037312" lon="-79.652828"><ele>636.2000000000007</ele><time>2026-09-18T14:34:04Z</time></rtept><rtept lat="39.03767" lon="-79.652404"><ele>632.4000000000015</ele><time>2026-09-18T14:34:04Z</time></rtept><rtept lat="39.037999" lon="-79.651927"><ele>631.2000000000007</ele><time>2026-09-18T14:34:04Z</time></rtept><rtept lat="39.038262" lon="-79.651546"><ele>630.8000000000011</ele><time>2026-09-18T14:34:04Z</time></rtept><rtept lat="39.03847" lon="-79.65131"><ele>630.4000000000015</ele><time>2026-09-18T14:34:04Z</time></rtept><rtept lat="39.038833" lon="-79.651063"><ele>636.0</ele><time>2026-09-18T14:34:04Z</time></rtept><rtept lat="39.039154" lon="-79.650983"><ele>633.4000000000015</ele><time>2026-09-18T14:34:04Z</time></rtept><rtept lat="39.039895" lon="-79.650682"><ele>636.4000000000015</ele><time>2026-09-18T14:34:04Z</time></rtept><rtept lat="39.040445" lon="-79.650403"><ele>628.6000000000004</ele><time>2026-09-18T14:34:04Z</time></rtept><rtept lat="39.041074" lon="-79.649963"><ele>626.6000000000004</ele><time>2026-09-18T14:34:04Z</time></rtept><rtept lat="39.041574" lon="-79.649561"><ele>625.4000000000015</ele><time>2026-09-18T14:34:04Z</time></rtept><rtept lat="39.041837" lon="-79.649239"><ele>624.6000000000004</ele><time>2026-09-18T14:34:04Z</time></rtept><rtept lat="39.042079" lon="-79.648713"><ele>623.8000000000011</ele><time>2026-09-18T14:34:04Z</time></rtept><rtept lat="39.042162" lon="-79.6483"><ele>622.4000000000015</ele><time>2026-09-18T14:34:04Z</time></rtept><rtept lat="39.042137" lon="-79.647925"><ele>623.8000000000011</ele><time>2026-09-18T14:34:04Z</time></rtept><rtept lat="39.042033" lon="-79.647581"><ele>623.8000000000011</ele><time>2026-09-18T14:34:04Z</time></rtept><rtept lat="39.041658" lon="-79.64668"><ele>623.6000000000004</ele><time>2026-09-18T14:34:04Z</time></rtept><rtept lat="39.041237" lon="-79.645962"><ele>622.6000000000004</ele><time>2026-09-18T14:34:04Z</time></rtept><rtept lat="39.04097" lon="-79.645393"><ele>622.2000000000007</ele><time>2026-09-18T14:34:04Z</time></rtept><rtept lat="39.040816" lon="-79.645087"><ele>620.4000000000015</ele><time>2026-09-18T14:34:04Z</time></rtept><rtept lat="39.040657" lon="-79.644855"><ele>622.4000000000015</ele><time>2026-09-18T14:34:04Z</time></rtept><rtept lat="39.040553" lon="-79.644597"><ele>626.0</ele><time>2026-09-18T14:34:04Z</time></rtept><rtept lat="39.040554" lon="-79.644053"><ele>627.6000000000004</ele><time>2026-09-18T14:34:04Z</time></rtept><rtept lat="39.040683" lon="-79.643633"><ele>620.8000000000011</ele><time>2026-09-18T14:34:04Z</time></rtept><rtept lat="39.040891" lon="-79.643252"><ele>621.0</ele><time>2026-09-18T14:34:04Z</time></rtept><rtept lat="39.041266" lon="-79.643043"><ele>614.4000000000015</ele><time>2026-09-18T14:34:04Z</time></rtept><rtept lat="39.041741" lon="-79.642582"><ele>611.0</ele><time>2026-09-18T14:34:04Z</time></rtept><rtept lat="39.042045" lon="-79.64197"><ele>610.4000000000015</ele><time>2026-09-18T14:34:04Z</time></rtept><rtept lat="39.042241" lon="-79.641386"><ele>609.6000000000004</ele><time>2026-09-18T14:34:04Z</time></rtept><rtept lat="39.042404" lon="-79.640624"><ele>607.8000000000011</ele><time>2026-09-18T14:34:04Z</time></rtept><rtept lat="39.042385" lon="-79.639676"><ele>611.2000000000007</ele><time>2026-09-18T14:34:04Z</time></rtept><rtept lat="39.042531" lon="-79.638609"><ele>608.2000000000007</ele><time>2026-09-18T14:34:04Z</time></rtept><rtept lat="39.04257" lon="-79.638289"><ele>606.2000000000007</ele><time>2026-09-18T14:34:04Z</time></rtept><rtept lat="39.042463" lon="-79.637329"><ele>602.0</ele><time>2026-09-18T14:34:04Z</time></rtept><rtept lat="39.042471" lon="-79.636776"><ele>604.4000000000015</ele><time>2026-09-18T14:34:04Z</time></rtept><rtept lat="39.042466" lon="-79.636697"><ele>604.8000000000011</ele><time>2026-09-18T14:34:04Z</time></rtept><rtept lat="39.042566" lon="-79.636225"><ele>604.0</ele><time>2026-09-18T14:34:04Z</time></rtept><rtept lat="39.042795" lon="-79.63564"><ele>597.6000000000004</ele><time>2026-09-18T14:34:04Z</time></rtept><rtept lat="39.042999" lon="-79.635265"><ele>595.8000000000011</ele><time>2026-09-18T14:34:04Z</time></rtept><rtept lat="39.043133" lon="-79.634932"><ele>595.6000000000004</ele><time>2026-09-18T14:34:04Z</time></rtept><rtept lat="39.043166" lon="-79.634584"><ele>596.6000000000004</ele><time>2026-09-18T14:34:04Z</time></rtept><rtept lat="39.043103" lon="-79.634278"><ele>598.6000000000004</ele><time>2026-09-18T14:34:04Z</time></rtept><rtept lat="39.043003" lon="-79.633918"><ele>597.0</ele><time>2026-09-18T14:34:04Z</time></rtept><rtept lat="39.042858" lon="-79.633532"><ele>594.6000000000004</ele><time>2026-09-18T14:34:04Z</time></rtept><rtept lat="39.042699" lon="-79.632867"><ele>594.0</ele><time>2026-09-18T14:34:04Z</time></rtept><rtept lat="39.04262" lon="-79.632341"><ele>591.8000000000011</ele><time>2026-09-18T14:34:04Z</time></rtept><rtept lat="39.042608" lon="-79.63187"><ele>591.2000000000007</ele><time>2026-09-18T14:34:04Z</time></rtept><rtept lat="39.042702" lon="-79.63127"><ele>594.0</ele><time>2026-09-18T14:34:04Z</time></rtept><rtept lat="39.04284" lon="-79.630554"><ele>598.0</ele><time>2026-09-18T14:34:04Z</time></rtept><rtept lat="39.042953" lon="-79.629985"><ele>596.0</ele><time>2026-09-18T14:34:04Z</time></rtept><rtept lat="39.043077" lon="-79.629653"><ele>589.0</ele><time>2026-09-18T14:34:04Z</time></rtept><rtept lat="39.043077" lon="-79.629653"><ele>589.0</ele><time>2026-09-18T14:34:04Z</time></rtept><rtept lat="39.043091" lon="-79.629616"><ele>589.0</ele><time>2026-09-18T14:34:04Z</time></rtept><rtept lat="39.043166" lon="-79.629294"><ele>586.8000000000011</ele><time>2026-09-18T14:34:04Z</time></rtept><rtept lat="39.04327" lon="-79.628828"><ele>584.2000000000007</ele><time>2026-09-18T14:34:04Z</time></rtept><rtept lat="39.043237" lon="-79.62837"><ele>585.0</ele><time>2026-09-18T14:34:04Z</time></rtept><rtept lat="39.043199" lon="-79.627942"><ele>583.4000000000015</ele><time>2026-09-18T14:34:04Z</time></rtept><rtept lat="39.043116" lon="-79.627358"><ele>582.6000000000004</ele><time>2026-09-18T14:34:04Z</time></rtept><rtept lat="39.043041" lon="-79.626634"><ele>581.0</ele><time>2026-09-18T14:34:04Z</time></rtept><rtept lat="39.042933" lon="-79.626065"><ele>580.6000000000004</ele><time>2026-09-18T14:34:04Z</time></rtept><rtept lat="39.042895" lon="-79.625544"><ele>579.8000000000011</ele><time>2026-09-18T14:34:04Z</time></rtept><rtept lat="39.042824" lon="-79.625126"><ele>579.0</ele><time>2026-09-18T14:34:04Z</time></rtept><rtept lat="39.042812" lon="-79.624729"><ele>576.6000000000004</ele><time>2026-09-18T14:34:04Z</time></rtept><rtept lat="39.042649" lon="-79.624134"><ele>578.0</ele><time>2026-09-18T14:34:04Z</time></rtept><rtept lat="39.042458" lon="-79.62363"><ele>575.0</ele><time>2026-09-18T14:34:04Z</time></rtept><rtept lat="39.041995" lon="-79.622648"><ele>573.0</ele><time>2026-09-18T14:34:04Z</time></rtept><rtept lat="39.041779" lon="-79.622176"><ele>573.2000000000007</ele><time>2026-09-18T14:34:04Z</time></rtept><rtept lat="39.041574" lon="-79.621768"><ele>572.8000000000011</ele><time>2026-09-18T14:34:04Z</time></rtept><rtept lat="39.041341" lon="-79.621344"><ele>571.8000000000011</ele><time>2026-09-18T14:34:04Z</time></rtept><rtept lat="39.040916" lon="-79.620947"><ele>573.6000000000004</ele><time>2026-09-18T14:34:04Z</time></rtept><rtept lat="39.040479" lon="-79.62062"><ele>570.2000000000007</ele><time>2026-09-18T14:34:04Z</time></rtept><rtept lat="39.040216" lon="-79.620395"><ele>569.2000000000007</ele><time>2026-09-18T14:34:04Z</time></rtept><rtept lat="39.039904" lon="-79.620282"><ele>568.4000000000015</ele><time>2026-09-18T14:34:04Z</time></rtept><rtept lat="39.039541" lon="-79.620175"><ele>571.2000000000007</ele><time>2026-09-18T14:34:04Z</time></rtept><rtept lat="39.039379" lon="-79.620084"><ele>576.0</ele><time>2026-09-18T14:34:04Z</time></rtept><rtept lat="39.039166" lon="-79.619847"><ele>568.0</ele><time>2026-09-18T14:34:04Z</time></rtept><rtept lat="39.039041" lon="-79.61959"><ele>579.0</ele><time>2026-09-18T14:34:04Z</time></rtept><rtept lat="39.038941" lon="-79.619231"><ele>565.2000000000007</ele><time>2026-09-18T14:34:04Z</time></rtept><rtept lat="39.038849" lon="-79.618957"><ele>565.8000000000011</ele><time>2026-09-18T14:34:04Z</time></rtept><rtept lat="39.038805" lon="-79.618549"><ele>566.6000000000004</ele><time>2026-09-18T14:34:04Z</time></rtept><rtept lat="39.038868" lon="-79.618179"><ele>565.6000000000004</ele><time>2026-09-18T14:34:04Z</time></rtept><rtept lat="39.039175" lon="-79.617578"><ele>562.4000000000015</ele><time>2026-09-18T14:34:04Z</time></rtept><rtept lat="39.039221" lon="-79.617493"><ele>561.8000000000011</ele><time>2026-09-18T14:34:04Z</time></rtept><rtept lat="39.039379" lon="-79.617203"><ele>565.2000000000007</ele><time>2026-09-18T14:34:04Z</time></rtept><rtept lat="39.039583" lon="-79.61686"><ele>564.6000000000004</ele><time>2026-09-18T14:34:04Z</time></rtept><rtept lat="39.039954" lon="-79.616511"><ele>559.0</ele><time>2026-09-18T14:34:04Z</time></rtept><rtept lat="39.040224" lon="-79.616224"><ele>557.6000000000004</ele><time>2026-09-18T14:34:04Z</time></rtept><rtept lat="39.040329" lon="-79.616114"><ele>559.6000000000004</ele><time>2026-09-18T14:34:04Z</time></rtept><rtept lat="39.040625" lon="-79.615846"><ele>562.6000000000004</ele><time>2026-09-18T14:34:04Z</time></rtept><rtept lat="39.040631" lon="-79.61584"><ele>562.6000000000004</ele><time>2026-09-18T14:34:04Z</time></rtept><rtept lat="39.041137" lon="-79.615368"><ele>560.6000000000004</ele><time>2026-09-18T14:34:04Z</time></rtept><rtept lat="39.041783" lon="-79.614735"><ele>560.8000000000011</ele><time>2026-09-18T14:34:04Z</time></rtept><rtept lat="39.042024" lon="-79.614376"><ele>554.2000000000007</ele><time>2026-09-18T14:34:04Z</time></rtept><rtept lat="39.042091" lon="-79.614145"><ele>552.8000000000011</ele><time>2026-09-18T14:34:04Z</time></rtept><rtept lat="39.04217" lon="-79.613823"><ele>552.2000000000007</ele><time>2026-09-18T14:34:04Z</time></rtept><rtept lat="39.042103" lon="-79.613239"><ele>551.6000000000004</ele><time>2026-09-18T14:34:04Z</time></rtept><rtept lat="39.042016" lon="-79.612573"><ele>550.4000000000015</ele><time>2026-09-18T14:34:04Z</time></rtept><rtept lat="39.042054" lon="-79.612246"><ele>550.2000000000007</ele><time>2026-09-18T14:34:04Z</time></rtept><rtept lat="39.042074" lon="-79.612021"><ele>549.6000000000004</ele><time>2026-09-18T14:34:04Z</time></rtept><rtept lat="39.041979" lon="-79.611651"><ele>548.0</ele><time>2026-09-18T14:34:04Z</time></rtept><rtept lat="39.041808" lon="-79.611088"><ele>546.0</ele><time>2026-09-18T14:34:04Z</time></rtept><rtept lat="39.041774" lon="-79.610959"><ele>545.8000000000011</ele><time>2026-09-18T14:34:04Z</time></rtept><rtept lat="39.041729" lon="-79.610782"><ele>545.4000000000015</ele><time>2026-09-18T14:34:04Z</time></rtept><rtept lat="39.041754" lon="-79.610326"><ele>544.6000000000004</ele><time>2026-09-18T14:34:04Z</time></rtept><rtept lat="39.041833" lon="-79.609886"><ele>548.8000000000011</ele><time>2026-09-18T14:34:04Z</time></rtept><rtept lat="39.042012" lon="-79.609526"><ele>550.6000000000004</ele><time>2026-09-18T14:34:04Z</time></rtept><rtept lat="39.042212" lon="-79.609146"><ele>552.2000000000007</ele><time>2026-09-18T14:34:04Z</time></rtept><rtept lat="39.042333" lon="-79.608931"><ele>550.8000000000011</ele><time>2026-09-18T14:34:04Z</time></rtept><rtept lat="39.042374" lon="-79.60884"><ele>552.4000000000015</ele><time>2026-09-18T14:34:04Z</time></rtept><rtept lat="39.042213" lon="-79.608501"><ele>547.4000000000015</ele><time>2026-09-18T14:34:04Z</time></rtept><rtept lat="39.042334" lon="-79.608399"><ele>540.2000000000007</ele><time>2026-09-18T14:34:04Z</time></rtept><rtept lat="39.042557" lon="-79.608129"><ele>541.8000000000011</ele><time>2026-09-18T14:34:04Z</time></rtept><rtept lat="39.042637" lon="-79.608013"><ele>543.0</ele><time>2026-09-18T14:34:04Z</time></rtept><rtept lat="39.042908" lon="-79.607982"><ele>544.4000000000015</ele><time>2026-09-18T14:34:04Z</time></rtept><rtept lat="39.043037" lon="-79.607952"><ele>543.8000000000011</ele><time>2026-09-18T14:34:04Z</time></rtept><rtept lat="39.043147" lon="-79.607896"><ele>543.2000000000007</ele><time>2026-09-18T14:34:04Z</time></rtept><rtept lat="39.043147" lon="-79.607896"><ele>543.2000000000007</ele><time>2026-09-18T14:34:04Z</time></rtept><rtept lat="39.043193" lon="-79.607872"><ele>543.4000000000015</ele><time>2026-09-18T14:34:04Z</time></rtept><rtept lat="39.043374" lon="-79.607815"><ele>543.8000000000011</ele><time>2026-09-18T14:34:04Z</time></rtept><rtept lat="39.043599" lon="-79.607708"><ele>544.2000000000007</ele><time>2026-09-18T14:34:04Z</time></rtept><rtept lat="39.043749" lon="-79.607686"><ele>544.8000000000011</ele><time>2026-09-18T14:34:04Z</time></rtept><rtept lat="39.043874" lon="-79.607595"><ele>545.6000000000004</ele><time>2026-09-18T14:34:04Z</time></rtept><rtept lat="39.043928" lon="-79.607402"><ele>547.6000000000004</ele><time>2026-09-18T14:34:04Z</time></rtept><rtept lat="39.044012" lon="-79.607225"><ele>550.8000000000011</ele><time>2026-09-18T14:34:04Z</time></rtept><rtept lat="39.044162" lon="-79.607123"><ele>553.4000000000015</ele><time>2026-09-18T14:34:04Z</time></rtept><rtept lat="39.04427" lon="-79.606994"><ele>558.0</ele><time>2026-09-18T14:34:04Z</time></rtept><rtept lat="39.044353" lon="-79.606898"><ele>559.6000000000004</ele><time>2026-09-18T14:34:04Z</time></rtept><rtept lat="39.044509" lon="-79.606877"><ele>559.6000000000004</ele><time>2026-09-18T14:34:04Z</time></rtept></rte></gpx>